buckloc_id,name,address,city,state,zipcode,ethash
223fgWFmvgcdhEYfH,#1 Cochran Nissan Cranberry,22030 ROUTE 19 PERRY HWY,ZELIENOPLE,PA,16063,A160638708995362BAADB2A089FE1CD81BCBEC6F6A2074B81B0000
2AZWdScfWW3DheCGh,Nissan of Cool Springs,212 COMTIDE COURT,FRANKLIN,TN,37067,A370676315054F5944DE6C3D931BEA06030C68F0B20169BB0B0000
2EmMFmdbf9Hubca7q,Haddad Nissan,25 W HOUSATONIC ST,PITTSFIELD,MA,01201,A012016001C433C2177BE30FD03BE6451D5D8ED11C878AA8270000
2FxXXAMYTtA6Ay4t6,Fred Haas Nissan,24202 TOMBALL PKWY  SH249,TOMBALL,TX,77375,A773758217454A8A4C55EA0613EC3A13B7625ED374923C86C778D5
2GHKbFDq9qaXXgrv3,Niles Sales and Service,3500 N ROOSEVELT BLVD,KEY WEST,FL,33040,A3304042951508AC626C8542EFFD7C054084E9DF5321A31CAE0000
2GbnpaH5CxNuDCcp5,Bosak Nissan,220 Verplank Rd,CHESTERTON,IN,46304,A46304947743F7D4B62394701B1671A488985F9F1D2951B7CF0000
2Trne2AHbDE4cGykY,Action of Nissan,172 US HIGHWAY 202,FLEMINGTON,NJ,08822,A088221741A12608C4605B9B6DA8610AA1C3F71BB0DA06204A0000
2aLW7oP5Bu7YHyCNm,Bob Richards Nissan,5590 JEFFERSON DAVIS HWY,BEECH ISLAND,SC,29842,A2984285443FDDE88DA5326EE6A34C998B7A0F87514CFC20BC0000
2cDkTYCvzmZLNZjb5,Nissan of Las Cruces,1801 S MAIN ST,LAS CRUCES,NM,88005,A880056510B81F212BBBE7905C395ECBE593503D5C55A48E610000
2f8zBA2MHnctNicsY,Neil Huffman Nissan of Frankfort,1220 VERSAILLES RD,FRANKFORT,KY,40601,A406019259E1BD4F65871927079F09D1CA208770DDB3E04CF90000
2hGo9jxaDsMAu3ATy,Pine Belt Nissan of Toms River,229 ROUTE 37 E,TOMS RIVER,NJ,08753,A087535561FD4467243103023455C184B0222D9C3CAC6E8BE40000
2k6CeM8ERuDFcZAjh,Anchor Nissan,1041 EDDIE DOWLING HWY,NORTH SMITHFIELD,RI,02896,A028968260FA749A0761659BAD80892163BBB56080BC9258690000
2maXozAxCz3n4fHzY,Fred Beans Nissan of Doylestown,4469 W Swamp Rd,DOYLESTOWN,PA,18902,A189011043F29DCBFED39542B14B2B6F6BFD140CC26FD201690000
2migbXMTf4aiMxYNB,John Amato Nissan,5200 N Port Washington Rd,MILWAUKEE,WI,53217,A532174901F41BD3B32A78F94495EF17D0675BF2952A55C21B0000
2oHpwEAEwMcmvitBj,Riverhead Auto Mall,1800 OLD COUNTRY RD,RIVERHEAD,NY,11901,A119013115A99C14EDCE9BC9B65DC787B4AD3F1EE8EA5186B10000
2pCFxX8ixCovgoJHW,Tri Cities Nissan,3602 BRISTOL HWY,JOHNSON CITY,TN,37601,A376011324F75345860A844B9D95F14C355D86D31DC86720410000
2pscdrACvWuacmjws,Woodhouse Place Nissan,8508 S 145TH STREET,OMAHA,NE,68138,A6813837472A0DE823DCD0BB82301A7BB72ADF4EF2527419E90000
2ukLsznW7X6FDb37A,TROTTER NISSAN,1910 W. HILLSBORO,EL DORADO,AR,71730,A717306806CFD4A7CC5D7EC3E7D2DE6AB4AC45FD4448DFEBAE0000
2vKnFLQQzSSPfbNQ6,Colonial Nissan,100-104 MYSTIC AVE,MEDFORD,MA,02155,A02155461659AE56232F7543DDE1AB974BCCD3630D47FDD37450EA
3A4iZArW2Buu8Q4W8,Townsend Nissan,2620 SKYLAND BLVD E,TUSCALOOSA,AL,35405,A354054420B87F8AA28CA3004E8CBDD0B213203CAEFBC234470000
3Bw2NhS5uzwQ3Q6C5,Kelly Nissan,3830 EASTON NAZARETH HWY,EASTON,PA,18045,A180458326A5E8D23EB400DB30FE2B7B467782C7E2F49773E80000
3DuYtnJ8utRMwdyPz,RAMSEY NISSAN,401 ROUTE 17 SOUTH,SADDLE RIVER,NJ,07458,A07458237836C46EB919E8E673F0FA7F4226FD981E7D375A030000
3ENhgDnPZZvjZYMPH,ORR Nissan South,1240 E BERT KOUNS INDUSTR,SHREVEPORT,LA,71105,A711055629EB0A7B25B57879854F14D4B328725304FEAC85220000
3GXoAkX26faYRGjrZ,Buena Park Nissan,6501 AUTO CENTER DR,BUENA PARK,CA,90621,A9062129019DA96800A3FA918A3254871455DACF0A5152A7920000
3L44RZnktHycucEQQ,McNeill Nissan,1933 US HIGHWAY 421B,WILKESBORO,NC,28697,A286972281128B9AA1A922003C6C0A03E3F2E94614D91FF969CF31
3LQYcgQEmCwDBycAG,Petro Nissan,6248 HWY 98 W,HATTIESBURG,MS,39402,A394029432F5497DDB4B0F28ABD2A42BD5836340A81D80BACF0000
3Wen8tRnBGzC2xSvf,Clay Cooley Nissan,39690 LBJ FREEWAY,DALLAS,TX,75237,A752373803C42C1703D835A254B074A3763460F6397930B9BA0000
3aaMYopa8DMokpuBf,Gregoris Motors,555 W MERRICK RD,VALLEY STREAM,NY,11580,A11580519462B4DBD06A6EE17A03CFA74B7E93E792143B7CDB0000
3cZ42P4BgcNWgFPuh,Central Houston Nissan,2901 SOUTH LOOP WEST,HOUSTON,TX,77054,A770541307BF80C343A06EB213A7966E5AE0B6E05EB4DE1CCD0000
3cizzzZXsTR4daXFW,Nissan of OMAHA,17410 BURT STREET,OMAHA,NE,68118,A6811829377785DA1551B972F35391D9D143696FA5073399F00000
3ddrv4mwigiKhpS4C,East Tennessee Nissan,5496 W ANDREW JOHNSON HWY,MORRISTOWN,TN,37814,A3781410298664751B38F843D7AB9873FA2CEBA767323D75A80000
3escHfC9d9Wk7Szc3,Benoit Nissan,18944 JOHNNY HALL MEM HWY,DE RIDDER,LA,70634,A706340000282C123F1C1455BB54942C162110C5D6EDE753F90000
3ftFQ4M7RwDvuENkr,Waxahachie Nissan,1900 W HWY 287 BYPASS,WAXAHACHIE,TX,75167,A7516547055F5EE92EFBBE9F2611FB1AF15905C0D4DA795C700000
3jLjajKJ24kkbA7iZ,Heritage Nissan,1500 VETERANS MEM HWY,ROME,GA,30161,A3016119701F6460B6C57C0FF92E2810F114F76E6931D7EB1E0000
3ngcD5StKPyvirBDj,Billy Navarre Nissan,1700 SIEBARTH DR,LAKE CHARLES,LA,70615,A706156892747D4C9D32EFAF987425C5121403507F380FB02F0000
3suq7ZpgcJA758KSD,Hoffman Nissan,46 ALBANY TPKE,WEST SIMSBURY,CT,06092,A0609229016FE80BB5D9132F679916F9245DE9519E523B0D000000
3vuxrupsaPMSjtTxk,Nissan Sunnyvale,680 E EL CAMINO REAL,SUNNYVALE,CA,94087,A9408729930D83A1C3419FF5EB65D0899DD7229B77E7E3E0F00000
3xKpK8hNwfJSxwyfe,Gastonia Nissan,2275 E FRANKLIN BLVD,GASTONIA,NC,28054,A280544732550EC725167B9224D70F0B4A834229DB5F6B41A20000
3yPCzEwKM9DLh6bzg,Zeigler Nissan of ORLAND Park,8550 W 159TH ST,ORLAND PARK,IL,60462,A604624947027009931FE39941CB02931E13E507846685B3230000
436aS7432JHCgRcik,Balise Nissan of Warwick,1350 POST RD,WARWICK,RI,02888,A02888326297964892DC8328ACB6AFB9A46157454A1FD450B90000
45S7KPEx2t3SoRkx9,AutoNation Nissan Las Vegas,5800 W SAHARA AVE,LAS VEGAS,NV,89146,A89146312346A0742676136311B12EC323857185D16EDCF4410000
46jp3RvAkRWC5MteX,Colonial Auto Center,100 MYERS DR,CHARLOTTESVILLE,VA,22901,A229011166D430C784030422DDE0C043A5DBBD2F0832FECCB50000
47hYiJNZtNP5s3jvB,AutoNation Nissan Memphis,4140 HACKS CROSS ROAD,MEMPHIS,TN,38125,A38125280587F12BC55CD3DFBFBFB8A2695565DEAF7DFD98CB0000
4E6zXNXrpeBjt4Jit,Jim Bone Nissan of Santa Rosa,1275 SANTA ROSA AVE,SANTA ROSA,CA,95404,A954045489FB02CE0A1B3FEA8A5D011B86E5C6DBE4ABB05B310000
4HhZgYnrmDFs8gRQL,Henderson Nissan,295 AUTO MALL DR,HENDERSON,NV,89014,A890146707F20930E3E7E5DCA6BE54B048BFB12FCE270545AE0000
4JzSGzM8fLEM4ouQ3,AutoNation Nissan Marietta,925 COBB PARKWAY SE,MARIETTA,GA,30060,A3006092298899345C770D514C331580524957E1D01D62A5240000
4LgGAoN35avX5Rtxx,Monroe Nissan,5510 WEST HWY 74,INDIAN TRAIL,NC,28110,A281108461F9D2E90EF11FD676D37DEE4BE59D19C46AB20F100000
4ds3ohtaDQJBFLKJC,Gabe Rowe Nissan,851 N WESLEYAN BLVD,ROCKY MOUNT,NC,27804,A278041785B76F6D309D80A2D268FBD8D68181A1F311AF290D0000
4iYiaRwS32oerp5Km,Carolina Nissan,1329 HUFFMAN MILL RD,BURLINGTON,NC,27215,A2721588136F0C7495CD063E54D7290603632669F95AB40FF70000
4isEeJywtQCkrPPdW,Jeff Wyler Kings Nissan,9819 Kings Auto Mall Rd,CINCINNATI,OH,45249,A452498318640490E5781529F55462698BA4430D5059F583790000
4jYruoCn6tqYMZ8sR,Crowley Nissan,1451 FARMINGTON AVE,BRISTOL,CT,06010,A06010477708BC57D6642CAF75DE3E73C81B88F539163956A10000
4rHGhboMckvXNRoNL,Tim Dahle Nissan,4528 S STATE ST,MURRAY,UT,84107,A841073814F2049245C89A4AFD96B78A43C34E193A30853DB40000
4sjQJo9MdJGvzYSZJ,Stevens Creek Nissan,4855 STEVENS CREEK BLVD,SANTA CLARA,CA,95051,A950516660968FAF7D3504A81CA5EA5170A9B4B1561FD4D3F50000
4xyeSuXHAhgQk4BN3,Thoroughbred Nissan,5163 E 22ND ST,TUCSON,AZ,85711,A857115099B5FEA28B66506C64048D4EE3EBB3D1F6276E27540000
534JrvzrFLzL6Bhxt,Nissan World of Denville,3057 ROUTE 10,DENVILLE,NJ,07834,A078343485B66BA3346B6953FB34299C687CE147846E5E01800000
54qjvNxZX4opbY8BQ,Nissan of Chattanooga East,2121 CHAPMAN RD,CHATTANOOGA,TN,37421,A374211647F3C5944346102B2DDD58FB23AACEB57AFB86ABBC0000
5ACQJomuGyD4TpKeo,Bowser Nissan,1001 CLAIRTON BLVD,PLEASANT HILLS,PA,15236,A1523646486E4E009A987174E5061D58B9AF049AB0E791D1210000
5EcSb3RnKbt6L2a8t,Jim Falk Motors of Maui,260 HANA HWY,KAHULUI,HI,96732,A967322301BCD602E992B16EB3AA08BD74003D9C97BC7E16C50000
5Jx3HzyYKKFDPFoZy,Gateway Hyundai Nissan,441 38TH ST S,FARGO,ND,58103,A581032112B00125D405CE189D66F8D94F4F0A27B069F5A1B10000
5MphyAq7xTX5Brnjr,Passport Nissan,5000 AUTH WAY,SUITLAND,MD,20746,A20746439952120FCB229525796BA0EA8A2A27AE0121BF831E0000
5PrAnCZNmzxE2zZ9p,San Leandro Nissan,1152 MARINA BLVD,SAN LEANDRO,CA,94577,A9457733595C1D9298EC767E71F538CFF2EA19BC9788E00CA30000
5SDAJJDJ8zdauwxii,Bellingham Nissan,1516 IOWA ST,BELLINGHAM,WA,98229,A982294709F6CA577B8E62169C353CA8955A7FE4AF489E2BB30000
5XAhAmruaYm8oqGyr,Nissan of Staten Island,1976 HYLAN BLVD,STATEN ISLAND,NY,10306,A10306352682EE26897568E1FF5F6EF527A99A9537D2A392EE0000
5ZfJn2qqcoc45xK7d,Grand Blanc Nissan,8346 N. HOLLY RD,GRAND BLANC,MI,48439,A484391867C805678A4FC11E3F8DC6C0C6BC4FD35FE4A053720000
5ayjqcfhrYFo9rQy7,Prestige Nissan of Lees Summit,1091 S.E. Oldham Pkwy - Cdj 1025 S.E. Oldham Pkwy - Nissan,LEES SUMMIT,MO,64081,A6408129654DB952C88451A15DC7CCF026C299E7589E055F830000
5beCETrud96xasEqr,Hoselton Nissan,66 MARSH RD,EAST ROCHESTER,NY,14445,A144451976BABA492D95FF1CFE5DD07C2A2998063C3C1EBFE90000
5keafxft8abyQ3vxE,Rosen Nissan of Madison,2510 W Beltline Hwy,MADISON,WI,53713,A537132348E4477D1873F5B8C765F45B556BE56A8DB9D9F9E90000
5mDp2knQggXCncoY3,Jenkins Nissan of Leesburg,10234 US HIGHWAY 441,LEESBURG,FL,34788,A34788395453DDCA01ED9FB3A6B82F4083F7D1B66C15F08FAF0000
5rFdk563ar8bbi8Di,Jeff Wyler Nissan of Cincinnati,8680 Colerain Ave,CINCINNATI,OH,45251,A4525129304C5F65CD5A961D5FE73524A59EDDB3ED8BF3918D0000
5rp6pFkfz3nyokXfu,Downtown Nashville Nissan,25 VANTAGE WAY,NASHVILLE,TN,37228,A3722815038D27CCEE6CA76FD271C4B776296E22175A97F0580000
5tEj5wfWzvoCvu7YB,Bob Moore Nissan Norman,3901 JOURNEY PKWY,NORMAN,OK,73072,A7307220049BD227622587195ABFA3EE5C9C711B0F174850070000
5wKKKH5middgHEAQE,Dick Smith Nissan,3670 FERNANDINA RD,COLUMBIA,SC,29210,A292105263307BC89917B5EC9356346F0DD8D455B4D4B31A8B0000
5xs7MXcvnvx8jqKzc,Gerald Nissan of Naperville,1575 W OGDEN AVE,NAPERVILLE,IL,60540,A605403906BB6F9AB47ED45BA6CC03AB6A00A5EDE63579E8390000
5xxxEpsJPvsTt6BcM,Marshall Nissan,3550 S 9TH ST,SALINA,KS,67401,A67401788238813BC5B4ADFC38FB2BC4907C114FD34950CB2B0000
64W6aWdQb5tbPq974,Serra Nissan of Traverse City,1331 S GARFIELD AVE,TRAVERSE CITY,MI,49686,A4968643321E63A3DD173EA3A3B5777F1A417550676CAE033C0000
65XY36BGYG9w7s5X5,Nissan of Rockwall,1700 E INTERSTATE 30,ROCKWALL,TX,75087,A750876239878DCF0DC1FE47AB3F3968DDC6BA0CC50D743D120000
69sR4uBf5CTtZmLmp,Sullivan Brothers Nissan,1 CRANBERRY RD,KINGSTON,MA,02364,A023642269FB8328D0CE94A2D83FC960878213D4AA686F2F3C0000
6AS8tFuRwqQFirYib,Hudson Nissan,585 state route 440,JERSEY CITY,NJ,07305,A0730548785AC23008B3BE0E7FEC0769CD9C33BCD8B3EF7F490000
6B2D8rqP92kLeYac5,Nissan of Midland,4800 W LOOP 250,MIDLAND,TX,79707,A797073190CACB165AFDF6B1668751414AF5A21F01817E03DB0000
6BHvc2x7TBmh7GoeE,Steven Nissan,2275 E MARKET ST,HARRISONBURG,VA,22801,A228018761579B10C63ED38FC0A85A060A9583298B48AC67ED0000
6BTjbR43ofTn4BE8F,Gates Nissan,4098 ATWOOD DR,RICHMOND,KY,40475,A404758325D3663B6F8A60820E65FC9CEDFEFBDE1BACD513DC0000
6EDbbQtygiK53hFtk,Nissan of Atlantic City,6021 BLACK HORSE PIKE,EGG HARBOR TOWNSHIP,NJ,08234,A082344801A15EDA6780C49C97A5F46E3A80804C51864FDB900000
6EoYMAzQkDdNRqxgk,Sutherlin Nissan of Fort Pierce,4815 SOUTH US HIGHWAY #1,FORT PIERCE,FL,34982,A349827077FFC1532F8C294FC69663664E6100063F7AE2B8930000
6FHXC5CdFkho6zt8y,Moses Nissan St Albans,300 MACCORKLE AVE,SAINT ALBANS,WV,25177,A251771728D1028FA6B25E712804710472A8DE6210A38028700000
6GQgYMvuhoDZqY7HP,Palmetto 57 Nissan,16725 NW 57TH AVE,MIAMI GARDENS,FL,33055,A33055391992A38EC1ACF6A6D655FF8C80BC9080022FF89EBE0000
6J2xcrEP9hk6q8hxM,Community Nissan of Bloomington,2200 SOUTH WALNUT STREET,BLOOMINGTON,IN,47401,A4740177274458FDE068E445D1CBFCEBBDE3DC84839B1F82480000
6LcC93LDFJrqf7KtD,Langway Nissan of Newport,295 EAST MAIN ROAD,MIDDLETOWN,RI,02842,A0284252123075EC5ECAB11AD6F7A4EE039D2D1AF33D1773E30000
6MX5yEKywtp7n65ZG,Wallace Nissan Mitsubishi Kingsport,2733 E STONE DR,KINGSPORT,TN,37660,A3766058600A849A9DC8F38F1D8E5F77A5EB07C7E5EF085F8D0000
6NBMZXWhT4bzRHnXD,Nissan of San Juan Capistrano,33633 CAMINO CAPISTRANO,SAN JUAN CAPISTRANO,CA,92675,A926754845C778FA86A41050E54B8D3CB97CDF5328C88419510000
6TKpx49WNrokBaRWm,Deery Brothers Toyota Nissan,200 S GEAR AVE,WEST BURLINGTON,IA,52655,A526551004099C5FA56E03B62A1B2B1B45ECE75A4C2A3C75AD0000
6WkEZuj3JbcSniZNQ,Dartmouth Nissan,483 STATE RD,NORTH DARTMOUTH,MA,02747,A027474309D2EFDE069E8278F365B7A9946488CB6F3D5231370000
6X4pDG8Rvu7uGLZZh,MIKE Erdman Cadillac Nissan,445 E MERRITT ISLAND CSWY,MERRITT ISLAND,FL,32952,A329523307E62A3C61F50E3852950150929E9BD4BDD78636FE0000
6X95Y6sRWYyvhDdrw,West Covina Nissan,205 N CITRUS ST,WEST COVINA,CA,91791,A917911617436D94F49BB82143205DC9FD6772BE827E3DF5B40000
6bv5MqWwbCLCekc2p,Metro Nissan of Dallas,4707 LBJ FREEWAY,FARMERS BRANCH,TX,75244,A752445909766BB3EB86ACE5E5DB8DC6043C1D7DE8357020650000
6dzqQuBT2z2A9iqAn,Nissan of Torrance,20550 HAWTHORNE BLVD,TORRANCE,CA,90503,A905033202091D496CBE8966A24ADBDE783E8C0D295335ADBE0000
6fanhryp8AvM5xdRf,Rountree-moore Nissan,4262 WEST US 90,LAKE CITY,FL,32055,A3205548762C0B45AB22AD98E585C9C211BEA8495F37D7B2290000
6h7DoFxaSgWsaoj8d,Peruzzi Nissan,165 LINCOLN HWY,FAIRLESS HILLS,PA,19030,A1903010967F5B93785C41D26D74705D84CD04B9532C40B65C0000
6hdqRau6KbN3PEhmb,Carlock Nissan of Tupelo,3969 N GLOSTER ST,TUPELO,MS,38804,A388040915C2B0247290146212C6CEC376DFB6CC0A08BA03EB0000
6kjvqwiyEs4SNXx3h,Cannon Ford of Blytheville,305 N SERVICE RD,BLYTHEVILLE,AR,72315,A723156876E624B0C584BBD2968640A3A86A7C616479D4A4A50000
6mh4zYRCnsBmaPb36,Vaden Nissan of Statesboro,686 BRANNEN ST,STATESBORO,GA,30458,A304585103AB4E93AE1FC7B742A98A8F565D36C9CC8F185B290000
6qyLFqxqKMs9XA6zu,Nissan of Bakersfield,2800 PACHECO RD,BAKERSFIELD,CA,93313,A933133207743324A0375532C9151F49AE9322277F7136E32A0000
6y32kTR2j72MK7XL2,Kings Nissan,2758 CONEY ISLAND AVE,BROOKLYN,NY,11235,A112355016E32DFE5FA6D75158CA2AABDF0DF2F231CFBCCFB20000
6yY6JpRZBsE79525W,Jackie Cooper Nissan,9898 S MEMORIAL DR,TULSA,OK,74133,A7413361986BB323F59BF5955559EDA82C96DE22A1284E0C150000
75E96eyvg8BcxZHMQ,Frank Fletcher Nissan,2327 S RANGE LINE RD,JOPLIN,MO,64804,A648043246AE673D705725B4BF1589B59A2211A54ADC8B21B10000
786GWMq3m6YQFcwB5,Mossy Nissan,12150 KATY FWY,HOUSTON,TX,77079,A770791199F07A246FF46B734820C3CBBC4149F81FC66A311D0000
7AdqFWKbSS8SEMpii,Walt Massey Nissan,600 West Bypass,ANDALUSIA,AL,36420,A364204731F4D6D21FD10CA1ED8634755A1DB79AEBF2C6BF6E0000
7Asv6PRRQhHPC2pNp,Mike Barney Nissan,3676 SHERIDAN DR,AMHERST,NY,14226,A1422617994A8C417A836AEA0AD39B0FD0F05675D00BDA7EEB0000
7DHviTQZTYCGZZ7ey,Lancaster Nissan,5340 MANHEIM PIKE,EAST PETERSBURG,PA,17520,A175201697EDDF9DACD2AF55D9A8D1520C818A8DD45F70DA970000
7Qf4sqSahiAMhHYKM,Byerly Nissan,4027 DIXIE HWY,LOUISVILLE,KY,40216,A402164196D8509EF252DCD38AD2F8AFC559AF6E8D270313CD0000
7ZGYDQJ2SfmQTM8D7,Apple Nissan,1510 WHITEFORD RD,YORK,PA,17402,A174022138857D78BE362A244B2C244FA94870B89B6903E6B20000
7fyJJ4Js7YiX9hXKt,Deacon Jones Nissan,3305 MCLAIN STREET,GOLDSBORO,NC,27534,A275346603B13FA4DA437E0815891C0764680466237A7232CD0000
7gLLnnk3YxFMysvRn,Krenzen Auto Mall,2500 Mall Drive,DULUTH,MN,55811,A5581118715FACD6A48652102EF88187185ACB6E034D4251EE0000
7gpFRZKXkkTPM5J7A,Garden Grove Nissan,9222 TRASK AVE,GARDEN GROVE,CA,92844,A9284422146729D55EC235132C6F36E84A789D15DDF111E6570000
7iNTYkivsyxjj7WQD,Metro Nissan of Montclair,9440 AUTOPLEX DRIVE,MONTCLAIR,CA,91763,A917632300F6106EF8FA0C61469BD1CE727D99094BDED136400000
7jfZLj3csRDtZJ3dv,Treiber Nissan,320 N COMRIE AVE,JOHNSTOWN,NY,12095,A120951019B614B1E68FD1B1C60F733F719DF2002E50C3B0310000
7nADxP3XigpkX3eg4,Bert Ogden Nissan (TX) (S1),721 N JACKSON RD,MCALLEN,TX,78501,A785019355D540A2205F43AEDE388B2CFEF5A71CF55D02F11E0000
7qsFTbp6sofqdREgC,Ed Corley Nissan,1000 WEST JEFFERSON,GALLUP,NM,87301,A873015370A6572CF17C59277B57CDBD85CEE5C5C23C787AFC0000
7rGSYnYwps8f6RnWZ,Town Center Nissan,2310 BARRETT LAKES BLVD N,KENNESAW,GA,30144,A301444907BF275676289F05A4F4386C984391EFBF290971CC0000
7ssYm2KYvr2yD6Nkj,Griffin Nissan,1780 E BROAD AVE,ROCKINGHAM,NC,28379,A28379444283E15F16B2990A0C2AB9F31A0A34ECC7340228380000
7tGxNMA8u3sP7ZTfz,Jackson Nissan,2400 SEYMOUR RD,JACKSON,MI,49201,A492017677CD4AC250046B536A4A3C4F591908E45D7B71BBFF0000
7uKBbnZieTbWnzRDc,Country Nissan,40 RUSSELL ST,HADLEY,MA,01035,A01035955628EBE95D012CD832C9F76BEA37D43EF0B94645880000
7v6JqzGjJutk7ta2G,Premier Nissan,1120 W CAPITOL EXPRESSWAY,SAN JOSE,CA,95136,A951361105608589A4CDE96FAEA5EA762FE33D10365FA6578B0000
7vPYt6LzucWXJEuRP,Route 22 Nissan,56 ROUTE 22 EAST,HILLSIDE,NJ,07205,A072051859D4CC1AAF63D134642AF70BF6656B00F12B6CC9010000
7wvg4Zgw79CtuR6yo,Lia Nissan of Saratoga,2906 ROUTE 9,MALTA,NY,12020,A120203990080464050BA140B8E062D8AC25678CBFDB2CF93B0000
82Janq2BgAqxzsdM7,Rairdons Nissan of Auburn,713 35TH ST NE,AUBURN,WA,98002,A980022354736338A07D24023D961AB54FF2F7E06E559A63240000
84od6nkcTr8ak7qHT,Sutherlin Nissan of Orlando,8125 EAST COLONIAL DR,ORLANDO,FL,32817,A3281739020E67CADBEF1B4B4616A8078D107296863786B70B0000
8A3agEsDQ8SwXvmwv,North Strand Nissan,2592 SC-9,LITTLE RIVER,SC,29566,A295667821D5CC5F7C46906FB8401B080561DF37C70C331E380000
8BbsvzjEiF7XGqNoN,Moses Cadillac Buick GMC Nissan,5200 Us Route 60,HUNTINGTON,WV,25705,A257052023C1A7F471943FE06BAF05489ECB1A2906082DCD820000
8GpqHpiFmj5SZcufr,Don Williamson Nissan,310 WESTERN BLVD,JACKSONVILLE,NC,28546,A2854663399F57B58615D3F6E420CD4BCB5D4E9427F53D76DC0000
8Gu2KGRsncmuKpwQT,Raceway Nissan,6030 SYCAMORE CANYON BLVD,RIVERSIDE,CA,92507,A92507070959012DF675543EB172F8E284E239116C425C4A9A0000
8Tc7HawGaF78wi6Gw,Bronco Motors Nissan,15885 IDAHO CENTER BLVD,NAMPA,ID,83687,A836875009F712A8A9F05E5CA52768CC4A71FE3750F5CAEECB0000
8YD6zjDJrcbyBYmfq,Five Star Nissan of Albany,1100 EAST OGLETHORPE BLVD,ALBANY,GA,31705,A3170527598264BED56A1EDCDE953073CF1D5C1356C8269C880000
8ZJbW7aAySwg7HJLF,East Valley Nissan,6354 E TEST DR,MESA,AZ,85206,A852066787C30943A276460BEAFE643C8EBEF9F882C36C9D6A0000
8bJWhkQG78GbmmquT,Morlan Nissan,1532 W BUSINESS hwy 60,DEXTER,MO,63841,A6384128356B55CA529A402A9935FC4F2924EC5A92258AC67F0000
8cJD3CpvBgjMpYGHp,Vaden Nissan of Hilton Head,210 FORDING ISLAND RD,BLUFFTON,SC,29910,A29910516369E38C98583DF9C0A8C597021556B69EB29D6CED0000
8cNFsq5jNHneqmehq,Gunn Nissan,750 NE LOOP 410,SAN ANTONIO,TX,78209,A782091200CA667365D4F70ACADABA742CE4F7A806B3E143970000
8dKMuZZpX7q7AMSLo,Scott Evans Nissan,725 BANKHEAD HWY,CARROLLTON,GA,30117,A30117191783F67D8B43409BFAEC2A05BD48F9D1046F099BAB0000
8iLWpj5bhDPg7TSg2,Serra Nissan of Sylacauga,80 JAMES PAYTON BLVD,SYLACAUGA,AL,35150,A35150804040B6F708E3DC4E12D4C13312A4833D62539D044E0000
8jgqgDHosCui4EEpx,Banister Nissan of Norfolk,1250 N MILITARY HWY,NORFOLK,VA,23502,A2350222273E36F8147B7D3CDFC6FC7198591C3A0E1965F5280000
8jpoz5LNzQQapq6W5,Antioch Nissan,1831 AUTO CENTER DR,ANTIOCH,CA,94509,A94509135564639700BD6A398488F5F3B127C74DFB8795F9EC0000
8mKg4Dr2BzN4pWsqA,Planet Nissan,5850 CENTENNIAL CENTER BLVD,LAS VEGAS,NV,89149,A891494570006B7F6E6D44211D5B3608DA04539DA9A90CE5B90000
8mRQZ2AMhFFmhw8uX,Mansfield Nissan,1455 PARK AVENUE WEST,MANSFIELD,OH,44906,A44906272026E89BE83C8DE90AC6133674238F508F943B41430000
8nhmqTkY7zNBauFvi,Suburban Imports of Troy,1800 MAPLELAWN DR,TROY,MI,48084,A4808446160F9A0EDBC4AF60D9B821E070AFE2D3ABA2DEB3310000
8oTGPchdYRa2LZmf4,Coastal Nissan,109 ACCORD PARK DR,NORWELL,MA,02061,A0206116055C24C0019B38782DB5D72EC0006CC9D2FDCB82550000
8v7DhnH8kNqPRhdAj,Nissan of Casper,111 SE WYOMING BLVD,CASPER,WY,82609,A826091939C080D3C5D63FC95E317758B38F570A16F54797B30000
8vSvWyBDcXZA894hG,Gunn Nissan of Denton,5650 S INTERSTATE 35E,CORINTH,TX,76210,A762102336FDF986439958BC8D629B83B4D557195D41D170FF0000
8xhRNSkaBJQZZoQan,Gray Daniels Nissan South Brandon,108 GRAY DANIELS BLVD,BRANDON,MS,39042,A39042551240CE7A4D93A4D63568342F3C78BF3B77784C213D0000
8ywEP9fC8bgvP48pX,Hanover Nissan,75 W EISENHOWER DR,HANOVER,PA,17331,A173311150EC3832F0D01FD9ADBD6DB19987645D8013808D050000
8zaKNh7ATb2K7biNz,Sansone Jrs Windsor Nissan,590 ROUTE 130,EAST WINDSOR,NJ,08520,A0852026235644CF8694675518CD8A78C4ABB884423616111A0000
93GjPapZREpRCW63s,Ken Nelson Auto Plaza,928 N. GALENA AVE,DIXON,IL,61021,A610211520840D7B244D6008568EA9A10CF8FE0860A612393D0000
95mz9ZZ4fTRSz7jZ9,John North Ford,3002 W HIGHWAY 50,EMPORIA,KS,66801,A668015198B95CD01D76F6A71C7B279B61AD0F1EF1EA4527E10000
95pmYEGAeXPxLd5KP,Brown Nissan of Del Rio,2300 VETERANS BLVD,DEL RIO,TX,78840,A788403102C1C854B9D45DFDF5E957FD6D47ACF83D4C49E01E0000
9FF6FeqagHj2Nj39i,Estabrook Nissan,3689 14TH ST,PASCAGOULA,MS,39567,A3956724017834F2E553F6EE67FBBCB5438B51E181A067D25E0000
9a2e2vjJiTM2MZd7u,Cornhusker Nissan of Norfolk,307 E NORFOLK AVE,NORFOLK,NE,68701,A6870154019BFDC283F16C7ECAAE6629FD972843BF450E1DD30000
9aFPm5M8Pus9pWwcG,Nissan of Streetsboro,885 CLASSIC DR,STREETSBORO,OH,44241,A442413968E7FB29D6FF0B1D47B51649A663D1220C94E4C9D90000
9bNwAotXJqECqLhLa,Paul Barnett Nissan,845 BROOKWAY BLVD,BROOKHAVEN,MS,39601,A3960126413782BAC41FE85CDE9D272418FFDB7F64477645D80000
9c6h8FbK2iZMCrcdo,Sheehy Nissan Glen Burnie,7232 RITCHIE HWY,GLEN BURNIE,MD,21061,A210613097F29B63FA3810941F4F1C8C74BC48071DB9FA14DA0000
9f7PoD3jP8K5pxZ2g,Hanlees Davis Nissan,5009 CHILES RD,DAVIS,CA,95618,A95618443987F58D7646297064705025028EC251733792C9810000
9fTWT8aFEbgkzqJpd,Jeffrey Nissan,30800 GRATIOT AVE,ROSEVILLE,MI,48066,A480661751645BA9FFA273916FFD68306853DB1A0E3A7FAAB80000
9k5JEDG72zToRg4YH,Alexander Nissan,10 ALEXANDER DR,MUNCY,PA,17756,A177568148BDCF4B185839AA9F08E0F2B998CE8931311B6F0E0000
9yN25xjCWGy4o5jKf,Nissani Bros,5750 Mesmer Ave Suite B,CULVER CITY,CA,90230,A9023063170DC25A967C5DB701D1D3C75265BEEB82F24624BBCF31
A6FCsc5kQGP3udak3,Nissan of Turnersville,3400 ROUTE 42,TURNERSVILLE,NJ,08012,A080121775711FC15602583AEFE0DCFC825EA9A467434EE7480000
A7km22N5DG6Z7qhqn,Dorschel Nissan Kia,3817 W HENRIETTA RD,ROCHESTER,NY,14623,A146233703CE9CDD515D80C6C27AF5870080F04359BCC9878D0000
A7omZrMDPk2YWq3Yh,Bennington Chevrolet Buick GMC Nissan,24 PERFORMANCE DRIVE,BENNINGTON,VT,05201,A05201194802248AD5994FEC3E55D5C04F51101ECB61756DC00000
A9Hm5u7fLaYxFKNzG,Cronic Nissan,2624 N EXPRESSWAY,GRIFFIN,GA,30223,A302237201502D8F6D04C125BE2B116CFEE32E4914D267F73D0000
ADxtBErCdtHhNQrum,Nissan of Columbus,3580 N NATIONAL RD,COLUMBUS,IN,47201,A4720122559122FD6A51E3393B41D3CCA248A6D673F40C1E520000
AGxetfCrFbmCiHnEm,Tri-state Nissan,1230 MILLWOOD PIKE,WINCHESTER,VA,22602,A226024316D17A22058ABF17319B6750CC7F748B4C963EFC390000
ALPs387r8wD3GnKwE,Lee Johnson Nissan of Kirkland,11930 124TH AVE,KIRKLAND,WA,98034,A980348111246C17043868EEB0CBAD287AFFFC4B4D1E8212D00000
ALQgx4qLb3TnLNgjC,Fitzgerald Chambersburg Toyota Scion Nissan,1436 LINCOLN WAY E,CHAMBERSBURG,PA,17202,A1720233000C0767B3AEC213256CBC423502E97EECE666515F0000
ARoofhrKBnZBtPSfR,Kline Nissan,3090 N HIGHWAY 61,MAPLEWOOD,MN,55109,A5510910810F4DB83C2726F436E4C0A8412FFEEF30D44A526D0000
AWfjQevgeY4sMmSe7,Nissan of Elizabeth City,1712 N ROAD ST,ELIZABETH CITY,NC,27909,A2790931339DED66635C559BB66F19400AC3C447539841C5D10000
AWwAbMZKgCaxZqGwL,Sutherlin Nissan,13985 S TAMIAMI TRL,FORT MYERS,FL,33912,A339121631C072742940A1D45EF78A92DAC3CF71AA463D757E0000
AcKB2P2aeo3BCBLuW,Carriage Nissan,2400 BROWNS BRIDGE RD,GAINESVILLE,GA,30504,A305046027C3FB88D96798F98698CFCAE1AA381CEDF053C27C0000
Ah6P4xGazHSAuX7iA,Larry H Miller Nissan Mesa,2025 W RIVERVIEW AUTO DR,MESA,AZ,85201,A8520175982FEC66EEAA6C5A58571F137EC327FE32BBBC78570000
AjHDcEsTAXRKtRgKy,United Nissan,3025 E SAHARA AVE,LAS VEGAS,NV,89104,A891044315C34D9062414506856B668F1B8435F35DB38D85080000
AjSgv6eA7vktnWaeF,Hyman Bros Nissan,11841 MIDLOTHIAN TPKE,MIDLOTHIAN,VA,23113,A2311326237E43A511314D0FEA372BD787332BE754BD34B6EA0000
AkJDh2umMcAjKguMx,Riverside Mazda,8330 INDIANA AVE,RIVERSIDE,CA,92504,A925044042CB310C8358672A066612D37EE1252FAE066DFE140000
Aqowg3pP7sGFkDGHu,Horne Nissan,2046 HIGHWAY 60,GLOBE,AZ,85501,A85501960727A2685C20BB1630D1B1A94930903319754AEA0D0000
AvpiobHsMMZQ6Po6u,Smithtown Nissan,535 MIDDLE COUNTRY ROAD,SAINT JAMES,NY,11780,A117803203DB18008EED6FB02D1C2DA8116B4E26555B3307200000
AvyQiySQ7yRoPZKqQ,Bill Kays Downers Grove Nissan,1601 OGDEN AVE,DOWNERS GROVE,IL,60515,A605152736A8DBEDADDB288B55DADC6D30AE75648AD059EF590000
AwbuPmQSrfeeddGM6,Flow Nissan of Fayetteville,4559 RAEFORD ROAD,FAYETTEVILLE,NC,28304,A28304328491EC2584114303BF2D698C822FD181B3A6D365E50000
Ay8sSu39rfabQAMix,Valley Nissan,1005 KEN PRATT BLVD,LONGMONT,CO,80501,A805016330163A68E9BBC89C3EB1450B773B85A3638EDF0FAB0000
Ayk22o2LRwNSTzNEJ,Flowers Nissan,1630 E JACKSON STREET,THOMASVILLE,GA,31792,A31792394175BC46F7209B56C05EC2300F3B01D656C1E3BB1A0000
B2DdeeRd8xfCotERm,Jim Bass Nissan,4052 W HOUSTON HARTE EXPY,SAN ANGELO,TX,76901,A769015049C4D8879260011149B47D4E2CA44214F51E01C4690000
BEzpYBsP3DW7wtf5d,ORR Nissan of Searcy,3131 E. BEEBE CAPPS EXPWY,SEARCY,AR,72143,A721438383BAC51418F74F1FE587E60C70D332D1D07FD0D2FA0000
BLt9TkGE7hfqmAjgv,Razzari Nissan,1675 AUTO CENTER DR,MERCED,CA,95340,A9534056757DED0B58723AC0D2A2AEF0126EC238EFD0E8BBBB0000
BRu2ZGXR7vr5rXgNb,WHARTON NISSAN,1237 7TH STREET,PARKERSBURG,WV,26101,A2610149118D4A6A15F40423D0BEA6C732A11FED15EB6ACC4F0000
BXpmnhChybkwFBT3a,Wilson Ford Lincoln,328 N MAIN ST,LOGAN,UT,84321,A843213997112D3A7FE2819DFF7A212F0440CE2AAEB0737C0F0000
Bck5FxX4LnozMePoj,Courtesy Car City,2301 39TH AVE,MOLINE,IL,61265,A6126572575E4DA9E624C7BB786B6F5B23B7A5699963EF34160000
BfJodedW7Jd7HXxuR,Obrien Nissan of Bloomington,2029 IRELAND GROVE RD,BLOOMINGTON,IL,61704,A617047103748C8D68A7F4F16754A4F0BF180AB127DE9AE5700000
BgDyDMktfnp3piwuv,Family Nissan of Laredo,3701 E Saunders Ste C,LAREDO,TX,78041,A780415535C6167795D1A432D4FED751DE7B76CB9DAD74259EFFA7
BhzH46awasySM3YXL,South Austin Nissan,4914 s i h 35,AUSTIN,TX,78745,A7874524413109A94F345EF79CF81F6B96356434F13D2FE7230000
BiQmPmZuav6eDEEJx,MARC Motors Nissan,1357 MAIN ST,SANFORD,ME,04073,A040733657DBE1586A6997F3E422B5A49F46FACCF3617CFB220000
BkN4sqNTAWiE2Lc8m,Marlboro Nissan,740 BOSTON POST RD,MARLBOROUGH,MA,01752,A0175237036CE476D3FD2CAF8DE5362129AB11E5D620E3DA080000
Bpih39fiHPcbNv8oq,Key Nissan of Lebanon,51 EVANS DR,LEBANON,NH,03766,A03766144318E4436D2AB960B92F432744F559A01CF90E9C860000
BuXxxtiSN6gxarmLp,Nissan of Murfreesboro,814 MEMORIAL BLVD,MURFREESBORO,TN,37129,A37129275543CE35E5B792560D29347411F875AADC6E525E2C0000
BucFAPAoecPZx4bNG,Nissan of Reno,865 KIETZKE LN,RENO,NV,89502,A89502201514CB6F4AF4741AE22048F636B0A48DE622BC435A0000
BzSY9EmdKN7FnfBN5,Trophy Nissan,5031 N GALLOWAY AVE,MESQUITE,TX,75150,A75150159849743D9E32FD543988FA98A1451BA07718DD9D0D0000
C6guZeBnCbkWGH2mY,Modern Nissan,5795 UNIVERSITY PKWY,WINSTON SALEM,NC,27105,A271051389F11B3E4ED801F7948DE7DA0946E23C914CA372590000
CAFm8x7meieQ5v6ra,Team Nissan Manchester,1801 AUTO CENTER DR,OXNARD,CA,93036,A9303679403B36B6F3F9A1EB0F47670FCB9882169627B0E0320000
CAe9oSTM24ZR9wyHe,Dublin Nissan,6450 DUBLIN CT,DUBLIN,CA,94568,A9456831373395F9A51B5B308CEB8C99B126585981525731CF0000
CF2TZBqWvN2M7ZF8E,JIM SIGEL AUTOMOTIVE CENTER,1601 NE SEVENTH ST,GRANTS PASS,OR,97526,A97526131784BF9E1955932095B6202D2AC3CDF3E42BF144710000
CFisMBX4QK73M59EK,Twin City Nissan,10549 HWY 69,PORT ARTHUR,TX,77640,A7764015869D25BC5287DDFECEA14524724D08D27EA46871AE0000
CHi47WnhDPnfnpgna,Nissan of Vacaville,671 ORANGE DR,VACAVILLE,CA,95687,A9568731006452E0320255F06F96D00F434B0D913FA52B66CA0000
CK8bsZWTkAPCdk9a7,Gardena Nissan,1670 W REDONDO BEACH BLVD,GARDENA,CA,90247,A90247328646497F24D2B45E7BC6825267AE0B12AFEFEDFC2A0000
CLbdKwcp4RfCKM5uS,Don Franklin Chrysler Dodge Jeep Ram Nissan Somerset,1147 S HIGHWAY 27,SOMERSET,KY,42501,A4250135247C4ED1FB577C1AE9AB73144A3D75CCA1FADC59510000
CSLB2qgkiLKKYRmjr,Balise Nissan of West Springfield,500 RIVERDALE ST,WEST SPRINGFIELD,MA,01089,A010894610C50B9E4ACD2040C242780346227833CFF90F283B0000
CSunNzWAk9zjyMbGg,Cannon Chevrolet Nissan,69900 HIGHWAY 82 W,GREENWOOD,MS,38930,A389305071FFBD2C7C35317B51265115A8B35A80C8EDBCDF180000
CSwEphwqEmsPMp3Sd,Crown Nissan (FL),300 E CYPRESS AVE,REDDING,CA,96002,A9600201108CFDFFE484CA03C5CD6B4B3EA8E596CBA70B2D7D0000
Cc6BC3zhjx6CPzjaq,World Car Nissan Hyundai,12908 INTERSTATE HWY 35 N,SAN ANTONIO,TX,78233,A7823326496498E3939FBCBBC3A8068140267896DAD85B02810000
CcxyRLBGXd2f9JjXM,Tilton-Jax Nissan,3750 N HARRISON ST,DAVENPORT,IA,52806,A528065906F17D2B7EC4191EB113E6C2FAAA922F115253ADFF0000
CdC2HiZpA66hwuGYM,Stevens Point Nissan,301 GREEN AVENUE NORTH,STEVENS POINT,WI,54481,A5448113988EC443126B3CC453827D4106E5D6E692D24FB7CF0000
CeGgos7XZ2WdQMLST,Bommarito Nissan Ballwin,14747 manchester rd,BALLWIN,MO,63011,A630113701E997491657444D130DEEF62866D3DAA35F35C78E0000
CjDRBia3PF2p2WiYp,Sonora Nissan,3160 S PACIFIC AVE,YUMA,AZ,85365,A8536535982E20BE84036F38E972BBF231260B19616AFA36E50000
CjdtBTrTfnZcCg2WX,East Charlotte Nissan,6901 E INDEPENDENCE BLVD,CHARLOTTE,NC,28227,A28227941823F081B2F3EAAF4C367B2A1C0C6D67EA9E0FBCF10000
CuhvTAZKvYknpycvp,Bob Howard Nissan,13200 BROADWAY EXT,OKLAHOMA CITY,OK,73114,A73114229015D3CE6D12F4BE95C7FE1D674A697C321E52C90B0000
CuiR6MvSGxTbQadAw,Tony Serra Highland Nissan,2530 E HIGHLAND RD,HIGHLAND,MI,48356,A48356272461363D6776A3572FBA1CDDE20B2A2DF347E8FE1C0000
CvpXzdHN2vgxqCaoJ,St.Charles Nissan,5625 Veterans Memorial Pkwy,ST. PETERS,MO,63376,A63376160395FDBA0D2D02173D78C66EC6BEBF4C6C5A840D4B0000
D4FCmQfhmNoYYc6d8,Classic Nissan of Sanford,3305 NC HWY 87 S,SANFORD,NC,27332,A273329629B1DEA4952EED22F740380ACBAB4925F3EAEAFC210000
D5B3MEELCjgAaXb9p,Dave Smith Nissan of Spokane,6901 E SPRAGUE AVE,SPOKANE VALLEY,WA,99212,A992120624C5213C96301C4FD7CAFB89D42035FB62094622540000
D68zqNGXp4ugDji5y,Reed Nissan Orlando,3776 W COLONIAL DR,ORLANDO,FL,32808,A3280879102C95F0E1083FC184E5C69BAE0AAAB3CE59AF5DAB0000
D96cSKEPYJWxE9fmi,Geri Lynn Nissan,1772 MARTIN LUTHER KING,HOUMA,LA,70360,A70360240844BDC1356574DD2A876444F3E56086460F363F2F0000
D9EoGXNkatobqJGaC,Nissan of Middletown,4961 ROUTE 17M,NEW HAMPTON,NY,10958,A109584807D95099508805BDF05D855752AD12F34DEBA7EBDE0000
DBBDZsnwtYzQPyKBC,Vann Yorks High Point Nissan,1810 S MAIN ST,HIGH POINT,NC,27260,A27260440099F96C6426A263A28BA59B05E81F2169D7EE1D190000
DGYj7ntJibDYA4gMY,Nissan of Bradenton,1611 CORTEZ RD W,BRADENTON,FL,34207,A342071324EFEBF5B0FEA565C3419B9AFEDB6A9E86DE6D59F10000
DJ7HzutgbTjkJkLix,Jeff Schmitt Nissan,725 ALPHA RD,BEAVERCREEK,OH,45434,A4543471440888539F355DE0F5A9F29C8283C1754994A20ACC0000
DPdu8HqTWxuPkS8S6,Jimmy Cleveland Nissan Of Wichita Falls,4000 KELL BLVD,WICHITA FALLS,TX,76309,A763094952C69E3B9D00AFEA2DA4B8A482306E7A1F3A7ACEB10000
DQxzwjeHZNuf2DMD9,Pomoco Nissan of Hampton,1134 W MERCURY BLVD,HAMPTON,VA,23666,A23666332200150ADAD713911A1EC852F52AFBB69EFCB5EA900000
DSmXeYKgiPR4DYvSc,Sansone Route 1 Nissan,90 U.S. ROUTE #1,AVENEL,NJ,07001,A07001163064D45DAC963491BEAEB8E48CC08B78529FB4CD2D0000
DXLe2vpXMfd2kaa3G,Ken Pollock Nissan,229 MUNDY ST,WILKES-BARRE,PA,18702,A187026833C342456BE6D7F22E71C0FC09AAE7A30441DF22CE0000
DZ3PRsiR4v7SWyMYv,Benton Nissan of Hoover,1640 MONTGOMERY HWY,BIRMINGHAM,AL,35216,A352164903D2C8975D0BF391385D584750A74BCDD12CB9DB6E0000
DepzWocoPmuBy227k,Kiefer Nissan Volvo of Corvallis,900 NW 4TH ST,CORVALLIS,OR,97330,A97330620447C4CA2246E8963EB544C02EEAB293009F8E1C220000
DfYeBGjD2F8FeeGmy,Eden Prairie Nissan,12790 PLAZA DR,EDEN PRAIRIE,MN,55344,A5534436328376BAD550C69187E2A9DFD4D13C42940387D1EE0000
Dg3Bpz6zQv4fmM9ts,Ryan Nissan,3915 S BROADWAY,MINOT,ND,58701,A587017533758A4C4892D3E7235871F923AA3760855A5E5A860000
Djn383ziJiTWD8viB,Victory Nissan of Dickson,2219 HIGHWAY 46 S,DICKSON,TN,37055,A3705595030A06337EEBE9D7BD89D2FC24431FB120C5C38A630000
Dqrnodbkcxw8AAq7v,Faulkner Nissan of Jenkintown,900 Old York Rd,JENKINTOWN,PA,19046,A190461558600A347CAD104A45C39D33C731D50251D1061CB60000
DtYwpMkB7sDu2bkme,Gandrud Nissan,1001 AUTO PLAZA DRIVE,GREEN BAY,WI,54302,A543023701ABCFEBC5EF92F2B6DF2F713BA3D7F97C85CD4DBF0000
Dxvs5KhmcwETsuEXg,Hendrick Nissan of Kansas City,8400 SHAWNEE MSN PKWY,MERRIAM,KS,66202,A6620229650F85078D9314E5D1889E14DF586DC72F6FA8CD960000
E6PcHwsPDoy5WxzQj,Benson Nissan,4676 CALHOUN MEMORIAL HWY,EASLEY,SC,29640,A296403830207C25AD54DA19CC9188FB5EEE727D98BAD4817A0000
E7Jn8LQDavhMZfN3p,Patterson Nissan of Longview,3114 N EASTMAN RD,LONGVIEW,TX,75605,A756055023CB6F05C9538A762EDED5C6EE5D1EE31A5E73341B0000
E7c5A5aAJktoqWvYp,Nissan of Rivergate,1550 gallatin rd n,MADISON,TN,37115,A3711521175A2C3BD4900DA9908BDC293D8FC90457A7907F780000
E8B88dJ5NcMxS3fvW,Preston Nissan,4307 PRESTON RD,HURLOCK,MD,21643,A21643370676509919128EB1D18C6E3A2EBF7CBEECD2B6D9B70000
E9xsfPokMcNbGBBJa,Fiesta Nissan,2005 SAINT MICHAELS DRIVE,SANTA FE,NM,87505,A8750576234352F3C06BFBA39AC816BD2C23F8BBA4B0241D8F0000
EB6e3MSMmb8gmFech,Fuccillo Nissan of Clearwater,15232 US HIGHWAY 19 N,CLEARWATER,FL,33764,A337647168294E58203B5AEB73C53836E3861AACCCC1A17FD90000
EBHr4Z8kNZKoJyxFr,Wendle Motors Nissan,9000 North Division St,SPOKANE,WA,99218,A992181112AF4CCE66337BA64F347202FBA6DCE0C168ACB6D30000
EE6SowpmDyL4XRc6F,Greenville Nissan,991 GREENVILLE BLVD SW,GREENVILLE,NC,27834,A278347020E9CF289124135C14100A0AC9F1436F3DC459C4A10000
EGkFQQDSoYko9dgCY,Hudson Nissan of Charleston,1714 SAVANNAH HWY,CHARLESTON,SC,29407,A294076280B28CC6203133DB104BE4D889678BB1FA8C35A37E0000
EHJYyqhv7AtY86KWf,Lewis Nissan,1 PLZ CTR,BECKLEY,WV,25801,A2580122260DE056818AC6EE136170BB5A82596CA78A30CE120000
ELt6cn4qEtgXswwco,Jeff Wyler Nissan Fairfield,5829 DIXIE HWY,FAIRFIELD,OH,45014,A450144205D8C17E6A7819CBB54FC1C807CCD91C5C4EA8BB5E0000
EMtJ9KEQ9F8CLhpYS,Nissan of Mckinney,3800 S CENTRAL EXPY,MCKINNEY,TX,75070,A750705509F11FA6338C68048BAB4F2E9F6D5CE5567355AF810000
ERfW2Etqka879czHg,McLarty Nissan of Benton,19960 I-30 NORTH,BENTON,AR,72019,A720198047A6583E79D2DEBDC2BD91ACE3A8F3D5D6A221B0BF0000
EZ5F4h9rwE22wi4z9,West Herr Nissan Infiniti of Williamsville,8137 MAIN ST,WILLIAMSVILLE,NY,14221,A142216032BCE65A4F95BD8D4436CDF0502E30731111CF19EC0000
Ef2oNbgnSzZqFiDJF,Tenneson Nissan,535 OLD OMEGA RD,TIFTON,GA,31794,A317945120AF0F2A5ED1AB65E743B9E0AD0CC53C409B803CB80000
EhLtD6Bz9winheT5g,Maguire Nissan,504 S MEADOW ST,ITHACA,NY,14850,A148505317D4F29844D1D83823C865133AEB03C5BA2935F6BB0000
EibCBnoiWDbB9mXBQ,Continental Nissan of Anchorage,5115 OLD SEWARD HWY.,ANCHORAGE,AK,99503,A995037425C96F23F350CA9871B3163B83D25A559DB8E42BB90000
EjiSjKEbCsb4QbC83,Momentum Nissan,2545 AUTO MALL PARKWAY,FAIRFIELD,CA,94533,A945335803A71B52C347DFC1274FEF0849EB1DA2B9D15B9B100000
Ekir5ydhaEPMFYvtc,Interstate Nissan,8890 PEACH STREET,ERIE,PA,16509,A1650947391A61BA958BE0FE929301AF09F37D47153F5CBC1A0000
Ene7gaieESGfaecSQ,Baker Nissan North,19630 NW FWY,HOUSTON,TX,77065,A770654074DEDC335B0356721D2FCAEEEF1988BE96986E85C40000
EpPJfFhBabRsFXTgs,Ada Nissan,420 LONNIE ABBOTT BLVD,ADA,OK,74820,A7482018392C9F2A1C2BD6316C2A49EBEA1DE157D44CD5F6CF0000
EpwvKQyCNZEHDTDKo,CARR NISSAN,3855 SW CEDAR HILLS BLVD,BEAVERTON,OR,97005,A970052023CC5FE6C81B919197F5C4BE65ACA9C0C5136C52CC0000
EqyMTrdAq7bwPeRMj,Harte Nissan,165 W SERVICE RD,HARTFORD,CT,06120,A061201543BD88A5C80AF5EF4BEBE103ACE7846AFDD88D26530000
EvsdhtpvWraz59QMe,Abc Nissan,1300 E CAMELBACK RD,PHOENIX,AZ,85014,A850143308102EB53CCF85B791561EDF639DC415E35472B1CC0000
Ew4HCW6H4C8RsLEaa,Moken Chrysler Jeep Dodge Ram,1739 W MCCORD ST,CENTRALIA,IL,62801,A6280158096D2E3D4E73B4505B06B3BCE4FA71C3B9B82173C20000
F49aGCwQR5gDRm564,Lynnes Nissan East (Nissan & Subaru),318 BLOOMFIELD AVE,BLOOMFIELD,NJ,07003,A070034899A54BCEC6F43D983056056B02909B30CDE519DCD60000
FD4CvP4KktmfPsG5x,LIA Nissan of Colonie,2233 CENTRAL AVE,SCHENECTADY,NY,12304,A1230443794767EA87AECD8DAFEA3AA96045052B1CC75CC2990000
FEcuyoAR59ZaZxrsu,Harr Honda Toyota Nissan,4255 6th Ave Se,ABERDEEN,SD,57401,A574010900AB951B5A4B7F35D1FC360DC60471A1268A1C4EDB0000
FFBH7LeMrMXoo9iDA,Universal City Nissan,3550 CAHUENGA BLVD W,LOS ANGELES,CA,90068,A900681304E2F5FA89C5C9D04CD3E49A23127B9F51A41973980000
FGmYgvqzMzvycGpQd,Grenada Nissan,2105 SUNSET DR,GRENADA,MS,38901,A389012875DCC40CAA60CFDB10D0F7B075CB753D63A2BCC8520000
FJ2Ltw8zkxjG9uZTi,Vision Nissan,2409 STATE ROUTE 332,CANANDAIGUA,NY,14424,A14424801082339930DA9C8162EFB9159DB88AD83282BADF8A0000
FLajJEi7nxeLspiuW,Puente Hills Nissan,17320 e gale ave,CITY OF INDUSTRY,CA,91748,A9174815124A68173D534F1F15BE3ADE0F4655D04BD8611D550000
FLnMocZbC83yMxxHy,Larry H. Miller Nissan of San Bernardino,735 SHOWCASE DR S,SAN BERNARDINO,CA,92408,A924082761E15DE7B0EF4A21288B86066C0A4F779A5F73B4F40000
FM3B8EtsD5oswyJ2W,Mcgavock Nissan Amarillo,4700 SONCY ROAD,AMARILLO,TX,79119,A7911963876112832ABAA7F3AB366257DD92402576F4B736A90000
FMzhbf4Ag8n9APdcA,Harry Green Chevrolet Nissan,1858 E PIKE ST,CLARKSBURG,WV,26301,A26301926323116DA2A2ACBA2667DF69FD28FBD8C58E16E1370000
FTJY2SurCNtJgR9RA,George Harte Nissan,426 DERBY AVE,WEST HAVEN,CT,06516,A065161004723EF743309AD15D3CC0C3A9AB2419891ADE4F230000
FaPij7Ma6m89druGs,Lithia Nissan,2901 S Duff Ave,AMES,IA,50010,A500108434233ED8F60B9C4E87ECFDD61C6EF2F408D9A291E60000
FcF4aiGSLhcG6BRMB,Bill Dodge Nissan of Saco,852 PORTLAND ROAD,SACO,ME,04072,A0407296728D33039A5E65C98BB352C0F0E6361B43C55FEF800000
FeALpaFX4YjAmQTCp,Elhart Nissan,870 CHICAGO DR,HOLLAND,MI,49423,A4942330062A49105F1B485B46C2EF8BD971CC9BCFA9B8D3300000
FhmMzFSKQkGfow83f,Blue Ridge Nissan,1405 E MAIN ST,WYTHEVILLE,VA,24382,A243823477EF5315BE62DD9F06A006E1A44B520004DC188C4C0000
FiBxHoTWWs3ob9AGv,Antwerpen Nissan OWINGS Mills,11405 REISTERSTOWN RD,OWINGS MILLS,MD,21117,A2111718133333D362ABD465604457673E44CDB041C5494F930000
FoZmf85AhvoXGctk6,Premier Nissan of Metairie,6636 VETERANS MEMORIAL BLVD,METAIRIE,LA,70003,A700033934EDE92D55553B74C62ECD29258AEB56D03945F7FF0000
FpJJqoS8fpwPHKFma,James Ceranti Nissan,3130 HIGHWAY 82 E,GREENVILLE,MS,38703,A387038232DB42B9BAE3CECACDA66FEB1D992E2B306BC084B10000
FuSZ28YF6haq4K8ri,Nissan 24,1016 BELMONT ST,BROCKTON,MA,02301,A023015515E4EA21AE9BC55694549A990B32951210070FA87B0000
FugC5dbyRyaZHdDnS,Green Nissan,2915 U.S. 93 S,KALISPELL,MT,59901,A5990186400E8452ECD155FDF8C8418A6BDE99B15155D74C520000
FujfF35SM9Rbuyzny,Mastria Nissan,1305 NEW STATE HWY,RAYNHAM,MA,02767,A027675438E57D87EF1A13CA59A6A57AD2055C97F8E26885CA0000
FwoJhahv3yZeDwf89,Freehold Nissan,4041 ROUTE 9 N,FREEHOLD,NJ,07728,A0772825349948D3F134DF62E314E8A5DC25953F466B3931860000
G2WFQFmqQS3hnB9Ej,Star Nissan,5757 W TOUHY AVE,NILES,IL,60714,A607144603D0C6EF74110C7D994A91D3A4F2FDA3A545C2198B0000
G36XvZ5dA52d7AgGg,Causeway Nissan,435 ROUTE 72 W,MANAHAWKIN,NJ,08050,A080502819C501242E9463801807E74A3CAD29192F546B19EF0000
G6zvL8iJFnPREhh5k,Don Moore Toyota Nissan,4216 Frederica Street,OWENSBORO,KY,42301,A423017456FA6B2BB16146119BC10D94E681B699EA8ADA0FF00000
G7H7ChDNHXfaZPqnu,Nissan of Canton,42175 MICHIGAN AVE,CANTON,MI,48188,A481882631E74FD04ED8A8CB0697167F279C6C829D479328A30000
GBqQzju9TvhY5GY4s,Leglue Nissan,6400 COLISEUM BLVD,ALEXANDRIA,LA,71303,A7130337324EA6BAE614B98485FDFF3D04E7BEB0739AF8E8C50000
GCnTz8ztSyxo2bdK9,WL Nissan,2039 N SUSQUEHANNA TRL,HUMMELS WHARF,PA,17831,A178310000B2D64DB03FC72FF254BBD040658A44FB5F439FBE0000
GGzfxf36z4g2tF7TW,Pischke Motors Nissan,517 SOUTH 3RD STREET,LA CROSSE,WI,54601,A5460144077BEF2308269DC32E650287A722CFA70ADCC2FDC60000
GK9tzPD2bC7r6eASN,Manchester City Nissan,30 TOLLAND TURNPIKE,MANCHESTER,CT,06042,A060421763541524A3E303637A2ED86E3EB32DD3A059F22BA90000
GKfLbZuSqY3ZAJ7Mw,THAYER NISSAN,18039 N DIXIE HWY,BOWLING GREEN,OH,43402,A43402932244669A21A0EDA53DE44778283E544C042D2225AC0000
GMALHtzjn8vaxT8Jy,Avondale Nissan,10305 W PAPAGO FWY,AVONDALE,AZ,85323,A853235310CAB5B83B51B98B6944BE607472A5320151B61FA60000
GS6iMBWKDurCQNmMD,First Team Nissan,6520 PETERS CREEK RD,ROANOKE,VA,24019,A2401940193EA16F31D87B12873D652394091D49F33F2ACF160000
GS9e6BBQfAvsarNyv,Ardmore Nissan,1625 N ROCKFORD,ARDMORE,OK,73401,A7340193348AC81AE1CFB3B42927817935EC4080BE71EFD4340000
GTaxsNQrNmusNZsgb,Mtn View Nissan of Dalton,1706 E WALNUT AVE,DALTON,GA,30721,A307214335FB1DCDFD72130BC32D34FF0DCAA089DF357206C70000
GYrtPKdWsMdspnuLh,K H Nissan,1158 HIGHWAY 51-98,SUMMIT,MS,39666,A39666912745C9903215F527F7A6225D5CB8DD8D1D2DD1716C0000
Ga65vq8MCxFv4cGkS,Southern Pines Nissan,10910 s us hwy 15-501,SOUTHERN PNES,NC,28387,A283875151DEF6F923DBC815FD2F518D8B7F19AA2911D5A1FF0000
GaRuDq4fY46Xm6mCZ,Russ Darrow Nissan West Bend,2665 WEST WASHINGTON ST,WEST BEND,WI,53095,A530952107AACAC1D9F0A63A9D7FACAB5D861ABA2266343EEF0000
Gcuhq24Y6Aa6usEo2,Concord Nissan,175 MANCHESTER ST,CONCORD,NH,03301,A033015131F763FDFD421F78422EC219039DA1A6A683E7CE6D0000
GfuzcZ4qNCgMHY5rA,Bob Allen Motor Mall,801 N MAPLE AVE,DANVILLE,KY,40422,A404221148444AB89DB4C53AE36455D607A157B3E0A6D82A6C0000
Gh39yyCnWa7wwEsDT,Nissan of St. Albans,4 FRANKLIN PARK W,SAINT ALBANS,VT,05478,A054781676F377F4976190FAB59DFC23D98BA85DC86095B2010000
GoFKMk34QTwcbuRjg,Chapman Nissan,6723 ESSINGTON AVE,PHILADELPHIA,PA,19153,A1915334076F4C03296A7629DB171C056C4F3AB7E548C3912D0000
GpntigNjMFCkGugis,First Nissan of Simi Valley,2325 1ST ST,SIMI VALLEY,CA,93065,A930651946D283F4690C3321EA0AF6C234985F2BC38169947C0000
Gx3tdGEp76wtDgehM,Mccarthy OLATHE Nissan,683 N RAWHIDE RD,OLATHE,KS,66061,A6606136882DE0AFDC9C0993A8F0A2490ED00BDC13219F72D50000
H8ZFonZuZwZ2wCyMa,Missoula Nissan Hyundai,2715 BROOKS ST,MISSOULA,MT,59801,A598017884992812AE3C30C71E5D482DE15175061670D2BF670000
HFGsvd6LiuRqzHfDL,Benton Nissan of Columbia,"1525 Nashville Hwy,",COLUMBIA,TN,38401,A3840120707800E3D5A28D50C5D91F56A1EB31170FECCE76EA0000
HFKCCC7CtziNAtup5,Nissan 422 of Limerick,55 AUTOPARK BLVD,LIMERICK,PA,19468,A194684264D9EBE7EEC919E05F2B4B902BD081E6E4705CF1850000
HNu8RhKWXfYWTiv8m,NISSAN CARSON CITY,2750 S CARSON ST,CARSON CITY,NV,89701,A8970155355204A68F5ABEB473CECA4570753CD3BB29DC946F0000
HP7Fajxb25fPBhFny,Bridgewater Nissan,1400 ROUTE 22,BRIDGEWATER,NJ,08807,A088072910F0AB4936EDDAAF673244EB2035F5B3A38A65C7250000
HS8LXQ5hDSSKzXuJp,Modern Nissan of Hickory,840 US HIGHWAY 70 SE,HICKORY,NC,28602,A286025136EBFCE5B5C8DDB248C92D48016280F5EF0CA9B2110000
HWQvzJZEFfT2aB7zF,Mossy Nissan Kearny Mesa,8118 CLAIREMONT MESA BLVD,SAN DIEGO,CA,92111,A921111998FD7F8E4AA9BEEBBF40282EF9B8524611D28000700000
HXbZ8SqKMo3tLbK2G,Ken Ganley Nissan,5180 MONTVILLE DR,MEDINA,OH,44256,A442569653EF65D0A61DF880FA4821A69FE2C231D7024B74370000
HaSJs9imB4XDErTaa,Sisk Nissan,10800 Eagle Way,HOPKINSVILLE,KY,42240,A42240874214D5CE214414C4DED510B0BCBBA4338D2662B61E0000
Hb3c53L7fd65LcpbW,Peoria Nissan,9151 W BELL RD,PEORIA,AZ,85382,A8538247122F82645E64612A55E5CD103B5CBE502303CE73B60000
HbAxmnzPgP78iFDjM,Buckeye Nissan,3820 PARKWAY LN,HILLIARD,OH,43026,A4302600001477EA9F85A9000BE489A19C9484F90713AEB69B0000
HbEH9pKwxWpHZ4DmG,Granbury Nissan,4601 E HWY 377,GRANBURY,TX,76049,A760497854A69919E20F9DB8E250CB0DEB052D2573F14F8D6C0000
HbQhfg8266BEmz4et,Dick Hannah Nissan,19505 MCLOUGHLIN BLVD,GLADSTONE,OR,97027,A970272617548A38B81B4D545B8FB77C1B43CF109BB406B3590000
HehZA6RqnowQ7BNHM,Horace Nissan,4300 E MAIN ST,FARMINGTON,NM,87402,A874028622D02FEA85BA9ED1961DE0E0F93B5C29EDE23A556D0000
Hf5Rps87roCAYf2hi,SUNTRUP NISSAN VOLKSWAGEN,6000 S LINDBERGH BLVD,SAINT LOUIS,MO,63123,A63123709802BFD5CE476B439FEDE3CBEDC06FF94B988B26970000
HmKD8SZAzNxzcqPqj,Nissan of Muskogee,841 N MAIN ST,MUSKOGEE,OK,74401,A74401446286A880E62C92AAC98DE67AF14A897D450C7F94B20000
HmhttL8P8nW7tWemS,Sheehy Nissan Hyundai of Waldorf,2950 CRAIN HWY,WALDORF,MD,20601,A206012802BD5C9A15056474A21E16D015A4FE6846C10B5AE90000
HotQQCbo8StggzvWE,Burleson Nissan,300 N BURLESON BLVD,BURLESON,TX,76028,A760284313664C7BCB2726A644275F9F64D107762669EA2BE20000
HqdCrD7rcjkchnFwc,Newton Nissan South,2801 HIGHWAY 231 N,SHELBYVILLE,TN,37160,A371607327C8DAEF905916781430C8BE2257FC58E094ADBA5E0000
Hwwzc9ambsfDBxmAf,Bill Summers Ford,I-80 & Us 83,NORTH PLATTE,NE,69101,A691019250C0F3095B70E77403F49DD8B258229B5CA214A4B716B9
HyXpdogauCZ2nZngJ,Jeff Wyler Nissan of Louisville,4136 Shelbyville Road,LOUISVILLE,KY,40207,A4020732345DEE291AF7ABAF2D3C98253EAF348BC623C8D0500000
HzjHEsJves8sLwdcY,Jenkins Nissan,4401 STATE ROAD 33 N,LAKELAND,FL,33805,A3380595740955D3473A9A07DC2A79867AA7539EFA5EB751890000
J62Br2iqgtXxpbwT2,Price Leblanc Nissan,14295 AIRLINE HWY,GONZALES,LA,70737,A70737661278F7C9C10925478D5F884BE77DB5980C6ACC2D130000
J75BWvGzbzj5A4kXy,Miracle Nissan of Augusta,3300 WASHINGTON RD,AUGUSTA,GA,30907,A3090738172D71D4C85D9CDE347183AA1CDF51DCF8F000AAF70000
JGEXjH3jKgGoF9W5Y,Viva Nissan,1310 N ZARAGOZA RD,EL PASO,TX,79936,A799367901EA9F3594E6221A3B6708C3245D5D2EF9ED7D489B0000
JKCJaDep3jJYJNYBv,OLYMPIA Nissan,2220 CARRIAGE DR SW,OLYMPIA,WA,98502,A985025707ED220CFF43A63F98AE4CFAACB32031051C59DB760000
JNvu6aHwxcd6XrigF,OAK Ridge Nissan,101 S ILLINOIS AVE,OAK RIDGE,TN,37830,A378306202454C8BF54C7FC2BC4510FFF95BCB7371D29289490000
JQgvJmSxsEu9HQiaF,Fox Nissan of Grand Rapids,4430 28TH ST SE,KENTWOOD,MI,49512,A49512191039E35752AE9C296F42470C62E8F8E91739C60D820000
JSGc4Ku5E55Yz38o6,Huttig Nissan,4670 STATE ROUTE 9,PLATTSBURGH,NY,12901,A1290142439F0914663817C722DC9A689218E535C71A9F9B520000
JayHJwSE3WDfdsoQD,AutoServ Nissan of Tilton,40 EAST MAIN ST,TILTON,NH,03276,A032765154F820EC8D192B777BDE44A530B880E6CA50602D5A0000
Jc4Gx6yYFAGqytqbG,Orr Nissan East,5108 SE 15TH ST,DEL CITY,OK,73115,A731153902C0A0E772B5069A9B037B043BF5881D0840D9A3C40000
Jctw2Bz4RWbaEv52K,AutoNation Nissan Tempe,7755 S AUTOPLEX LOOP,TEMPE,AZ,85284,A852841021DA272D53DB99F5454F8F49B7C2AC04B6928AE3800000
JebRSYvhhcHeLhWpz,South Colorado Springs Nissan,1333 S ACADEMY BLVD,COLORADO SPRINGS,CO,80916,A80909451260BF60FD394CDEA8D49E72783C6A76F6124B48600000
JgBW7uLkmFBJzzcF3,Vaden Nissan of Hinesville,1009 E OGLETHORPE HWY,FLEMINGTON,GA,31313,A3131328003418C97ED4C57FF64E92784A3C24EF32230480250000
JhKLui85T4xW398Ju,Graff Nissan of Okemos,1728 GRAND RIVER AVENUE,OKEMOS,MI,48864,A488645825CCE95D89800F76A56B4B1D4940679F5A061664200000
Jne77M7mYMrhYrw7T,Scott Clark Nissan,9215 SOUTH BLVD,CHARLOTTE,NC,28273,A2827369419FC0D32FB5E5E5A280C40E6BBA0E5FADAF9AD0B30000
JokQk57na22ssH9p7,Browns Dulles Nissan,45155 TOWLERN PL,STERLING,VA,20166,A201662505D11ED42EF0EFFBC48095CCB13AE800C296DD5A0F0000
JqYzACNo6d2fFrr9z,Douglass Nissan,1001 EARL RUDDER FWY S,COLLEGE STATION,TX,77845,A7784560350D205B84023ADC825E320F142AE435F6EC1777DB0000
JvAdiC7nnXkJ3RKvX,Bellevue Nissan,14762 SE EASTGATE WAY,BELLEVUE,WA,98007,A98007656521D7907970E0AF830998314BA4E441D590110DF60000
JxvHXLET4B9faP49K,Southern 441 Nissan,9405 SOUTHERN BLVD,ROYAL PALM BEACH,FL,33411,A3341135073915F242FBF7A64DEE28683E96C1D65E659D6A1A0000
K37CFiYpeaAMCMwCB,Lia Nissan of Enfield,10 PALOMBA DR,ENFIELD,CT,06082,A060823802C05E6D50BF75E4C9158FCC5ECA5B1B7809D8DF7B0000
K6ZukJYXj4cDCiFsN,Blackburn Nissan,2195 NORTH FRONTAGE RD,VICKSBURG,MS,39180,A3918051822FACE0C84DD5B7E61C679FDEA4BA6117ECE9822E0000
KAScXpKPsn3RcY664,Lee Nissan,107 MAIN ST,TOPSHAM,ME,04086,A0408612975FCF2368E46991372DB8BF2B0282EED205E429C80000
KE2JQYPP7Lra3uKNp,JP CHEVROLET - GEO - NISSAN - COMPANY,3675 FRONTAGE RD,PERU,IL,61354,A613541196ED1C1D4AEF5C3FECF09A3596005E40D4A64CF4510000
KE3NLuEvN2FiPkawX,Empire Lakewood Nissan,14707 W. COLFAX AVE,LAKEWOOD,CO,80401,A80401320253E1BFC47D40F1202B9D1209C08CD4076F92DB8F0000
KEicbp8g6vjCPyuvL,Nissan City of Port Chester,225 BOSTON POST RD,PORT CHESTER,NY,10573,A1057347122158E11B1ABE6A1CE34777B30A320C62E67E75700000
KL6atrqt2xvHYv8QH,Sheridan Nissan,114 S DUPONT HWY,NEW CASTLE,DE,19720,A1972041815AA49F0CC8A6E2213EC6BFE6852934288105168A0000
KXkpeZTc9RzSEd3ah,Mossy Nissan OCEANSIDE,3535 COLLEGE BLVD,OCEANSIDE,CA,92056,A920564666C2BBFE014C50AAB3043D6871125587375C1DE8D50000
Kabcp5hj4hKJMc9EC,Southlake Nissan,4201 E LINCOLN HWY,MERRILLVILLE,IN,46410,A464105897DE3A9C3DEBC369E8D45448AC443E5657754351FB0000
KgMZrsWt8DxWCNcfg,Montrose Nissan,1455 N HERMITAGE RD,HERMITAGE,PA,16148,A161483106130C2393D271484661C62C26129930341297606E0000
Kj3RrEcekrw8yWX4w,Nissan of Meridian,1106 N FRONTAGE RD,MERIDIAN,MS,39301,A393016148D3B94D205EFD38A9D646223C0947D2F732758D9E0000
Kk6rsP9Xvf4MMZ9mw,Classic Nissan of Texoma,2010 US HIGHWAY 75 NORTH,DENISON,TX,75020,A75020083425086AC301E9ACF237E09A910F12CC721EE8C0D70000
KmfGM4YYaWBxXWiEA,Younger Nissan of Frederick,7418 GROVE RD,FREDERICK,MD,21704,A217047218E23B916E487A39FEEE4FC2BA70C29D70F82799040000
KpY7ia7EBJDhkfawH,Nissan of Gilroy,400 AUTOMALL DR,GILROY,CA,95020,A950207102EC06C268C449A4B6F28F9CAE31ABFA564FA1D95A0000
KpmSjCeGEw3hyfJBd,Sutherlin Nissan Vero Bch,946 S US HIGHWAY 1,VERO BEACH,FL,32962,A329625601B023751D05528120D9CB24E879C5B7A29041B4270000
KrHHXZE2qdf9ZPS7N,Denny Menholt Billings Nissan,2100 KING AVE W,BILLINGS,MT,59102,A591027414FD92E018B81CFFEC8C9C5FB5398A798F96DAA0480000
KsAXtazqao2CHAvRE,FOX ANN Arbor Nissan Hyundai,3977 JACKSON ROAD,ANN ARBOR,MI,48103,A481031823691A1D485C222E36B3720C10A838F651FE31CA510000
KuXAm7mKwNoQjuGeq,My Auto Import Center,1860 E STERNBERG RD,MUSKEGON,MI,49444,A4944497048D04B3B612FD33D934901BEA6C10020D4C9997360000
KutjEmZ52czjKoQzM,Matt Castrucci Nissan,3013 MALL PARK DR,DAYTON,OH,45459,A4545963195420B66E0A375474BBBFA96CC9CA33D4949125E20000
Kx3Av4SkPz4RA7qJf,Billion Nissan,4400 W 12TH STREET,SIOUX FALLS,SD,57107,A5710702436231795B9631B4B3630096076FF11C177D72A4470000
KyeuiWmodLfnfZ5XM,Concord Nissan,1290 CONCORD AVE,CONCORD,CA,94520,A945204906EF851FEC317F54E46B378368694259BF8A79BF600000
L5owac7KrefiWQzin,Dave Syverson Ford Lincoln Volkswagen Nissan,2310 E MAIN ST,ALBERT LEA,MN,56007,A56007392374CEA8CDC7FABF2BF3A97394B9C5476202FBCDD00000
L9trrkXZJejLtHv4C,Bill Seidi Nissan,10500 NW 12TH ST,DORAL,FL,33172,A331722738B2BC9B128B85DF181CD385B118D9E42FB3629F680000
LDWTKbs9JBZCXgCxa,TEAM NISSAN,70 KELLER ST,MANCHESTER,NH,03103,A03103320198B4B25590C6D348C4742AECF4588DF6669871B60000
LHgTGjMFhLYQF7NSr,Conyers Nissan,1420 IRIS DR SW,CONYERS,GA,30094,A300945142682FCBD5E40CDB19DC114071440A0424CA1149AD0000
LMAc6RsvdsBb2puSj,Sansone Jrs 66 Kia,3401 ROUTE 66,NEPTUNE,NJ,07753,A0775327890240E71F979F5A2307C2ACDA50766FDDEC3E77F70000
LNMXZNMLDScMBEefG,Swope Nissan,1100 N Dixie Hwy,ELIZABETHTOWN,KY,42701,A4270125341F13FD08FB45BA22ED7C61420D1DF03F60A1A51B0000
LRQNfjXPFq2qH29Qp,Commonwealth Nissan,ONE COMMONWEALTH DRIVE,LAWRENCE,MA,01841,A0184122689D07E51557CFC5BDE4AB2AD87937755650535B1B0000
LTSXiuXc5wPj64GeC,Greenacres Nissan,5353 LAKE WORTH ROAD,GREENACRES,FL,33463,A3346333618CCD1F0B12173A5E2145E273FDBF13EAB27E6DAB0000
LX6tgsCbHNZXXFGRZ,Nissan of Paris,1490 MINERAL WELLS AVE,PARIS,TN,38242,A38242505597B4BBD3595DE6D05F9B4A705F69977D13D58DD80000
LfJBndgxFEhnFhfCu,Bruce Bennett Nissan,978 DANBURY RD,WILTON,CT,06897,A068974898CFEA518E545B2DC72A7D1F52A54AE2D1291FF4B20000
LfYcXEkjBMW3ojGgo,AutoNation Nissan Miami,3345 SW 8TH ST,MIAMI,FL,33135,A3313526062193755BE17234AC49CBB8BF8C292B27046F8EA70000
Lq9n2dJFM56CEjPTn,Lawley Nissan,2960 E FRY BLVD,SIERRA VISTA,AZ,85635,A8563528047E989B1BB8444DB96B095718C431251AD8A4CD610000
LsiDSi66C3hBGj8Fj,Central Avenue Nissan,1919 Central Park Ave,YONKERS,NY,10710,A107102904FFA3F7E272CF2B38372CC6674E0812D8159CF0DE0000
LtZjuhDmZ7ph4z6gu,Gunter Nissan of Martinsville,4760 GREENSBORO RD,RIDGEWAY,VA,24148,A241484495FBA57F9CDF7289AFC08A770C942E12EAAF8E21F00000
LwTCstywuBwf68Kwm,Bob Bell Nissan,7900 EASTERN AVE,BALTIMORE,MD,21224,A212242188ADD73DF90CDF185E453E21721019739F903B62F70000
M3crsctKLm6ZxHnwX,Tanner Motors,620 W Washington,BRAINERD,MN,56401,A56401722079C9686151E20EF01255A46BD7CDC4193F7462D20000
M5B4uuYA827WoP4qs,My Nissan and KIA,222 AUTO CENTER CIR,SALINAS,CA,93907,A93907199242B2861099A2F24DA6AAA049A8B49C17F1BF4F750000
M6ESsdSdwtnPyH5bk,Andy Mohr Nissan,4302 LAFAYETTE RD,INDIANAPOLIS,IN,46254,A46254245660610B26282A66E62EB93B17847D9365528706560000
M8EfcTBPuBqS7vTfC,Lewis Nissan of Garden City,1221 LAREU ROAD,GARDEN CITY,KS,67846,A678461100F7696EB59E793493BD574FC287166FFDC53B31740000
M9EMAhTRvi2WLRCYo,Jones Motor,1260 WAYNE RD,SAVANNAH,TN,38372,A383721926867322B10793234F7371F09B5AA2BE794DAD4E970000
MEx2uMMzwWLCLB3LH,Hawkinson Nissan,5513 MILLER CIRCLE DR,MATTESON,IL,60443,A60443148242265F6635E68BE75EB3208EB9B7AD987C0DD2710000
ML4j7cgPcwqqui2Hu,Columbus Nissan,100 HIGHWAY 12 E,COLUMBUS,MS,39702,A397027828D95ECA30ACC22853B38958A2B08E780704E525780000
MLmRDAu3FNtXFqDAj,Valdosta Nissan Cadillac,3715 INNER PERIMETER RD,VALDOSTA,GA,31602,A3160210018A4AA49F4197AAC2AFC2BAF1E4FBC42A826EF89C0000
MRtnyvpCeQh46MBeH,Stone Mountain Nissan,4275 HWY 78,LILBURN,GA,30047,A300473339839D59086181952CECFB29FC7FBAF42D273E70900000
MYsJ3Wh5njoJ94H4e,Torre Nissan,79-125 HIGHWAY 111,LA QUINTA,CA,92253,A9225320698D70F8FC0D66D383F0D8CF308FA9E69C369A12B00000
MZ95qQ7bmWDJtaToc,CHARLIES NISSAN,465 WESTERN AVE,AUGUSTA,ME,04330,A043306035360FED4E002F6E0A382D7D504EEB1D76A86601810000
MaFkX7z3pGNir44pR,Modern Nissan of Concord,967 CONCORD PKWY S,CONCORD,NC,28027,A280279061419252DA3CA84CC5CC7218CEFD716D674C3AC06C0000
MaXXtkJxEJZJryCt7,McCarthy Nissan of Lawrence,2101 W. 29TH TERRACE,LAWRENCE,KS,66047,A660473163D40334D092EC4F67514F74D3053AE1298F971F020000
MfnYvyutiApHjziqF,Nissan of Cookeville,501 NEAL ST,COOKEVILLE,TN,38501,A385014026E2956002D569F3519CE487B7325DCC3EA1406EE60000
Mkb52o7RQTqA4hKgg,Nissan of New Rochelle,2533 PALMER AVE,NEW ROCHELLE,NY,10801,A1080143213F413B4631ABDF50A3AECE84C898EACF7EDBC9620000
MkqgJ4EcH9yRgGRjb,Bill Gatton Nissan,235 CENTURY BLVD,BRISTOL,TN,37620,A37620672172C64B5347FD923EBF90988C6B13FB019BD3A8780000
MmBeqCJu5BFYdXM6m,Tim Dahle Nissan Bountiful,955 N 400 E,N SALT LAKE CITY,UT,84054,A84054190513DFDA4361CBCB2728E0E94C28D584D89E807A950000
MmgkmmAmhRKovwEkr,Koeppel Nissan,74-05 - 74-15 NORTHERN BL,JACKSON HEIGHTS,NY,11372,A11372114668B9AA2EBF4D779F2A67F547A7AC16B0E3E8CAC2DB1E
MoAGHrKaTMiyzCPTD,Nissan of Norwich,691 W THAMES ST,NORWICH,CT,06360,A063607023F7EB79FC8E2F2CBEA83B39CF795378FB841651C10000
Mp25yKf46oN7hf4X5,Browns Fairfax Nissan,11010 FAIRFAX BLVD,FAIRFAX,VA,22030,A220305000E32DA13ABA954AE233195655E99F9A9A9F81B7770000
Mrs7jJjn2PMSoHgGQ,Nissan of Durango,20704 HIGHWAY 160 W,DURANGO,CO,81303,A813037674048D3190B5302298F282E6FA09327489D422621E0000
MtL4wgsjXg3GWb4cw,Garvey Nissan,78 ROUTE 7B NORTH EXT,NORTH CLARENDON,VT,05759,A0575993998BD5CD18F43537792FAD93D30EC3A4891CDBADB00000
N22aKWm39ECswS9Xg,Lynn Layton Cadillac-Nissan,2402 HIGHWAY 31 S,DECATUR,AL,35601,A3560165167E4808084FB039FB136C32F0C3937F68915F48030000
N3CQp4hMhqS2k26pW,Future Nissan of Roseville,600 AUTOMALL DR,ROSEVILLE,CA,95661,A95661302245E52F1179A0F89DE2D43976026706E260F633B10000
N5YSDYM39AapFJwF3,North Bay Nissan,1250 AUTO CENTER DR,PETALUMA,CA,94952,A9495211050E2EB9881C5D8D180F6719EB0EFD7ACA1176408D0000
NCDJK3nMhDJkoJb7N,Downey Nissan,7321 FIRESTONE BLVD,DOWNEY,CA,90241,A90241410878B2EC5218CC58ADA783D743169FFBDDC5162F6E0000
NCdgK8vu6NaF9ofhZ,Nissan of Clinton,412 SOUTHEAST BLVD,CLINTON,NC,28328,A2832836282B4C2A3B416FD917303F4B1D05A3AFF5847A33A60000
NFuQC6i9CJutBpiny,Mentor Nissan,6960 CENTER ST,MENTOR,OH,44060,A440604931B1383E2D7E8CF893C83D981395D2B3E0BDF0C1E20000
NJcRdqj9hHX6cDnAF,Gurley Leep Nissan,5210 N GRAPE ROAD,MISHAWAKA,IN,46545,A465458702F023B0D3FEB2B95132B1CCE1AAFF33746D2DD96A0000
NPaCw2cc73DBLAscB,Chevrolet Nissan of Walla Walla,1395 DALLES MILITARY RD,WALLA WALLA,WA,99362,A993624300D540928ACBE3788D1946B28DEC962323A9E573F60000
NTc8437tmEzZjKJpb,Orr Nissan West,8800 NW EXPRESSWAY,OKLAHOMA CITY,OK,73162,A7316260282D28933BF8BEF6F4CA492EAB873079AC748F2F050000
NWRG8a7AMGayCEwJv,Route 66 Nissan of Tulsa,8190 E SKELLY DR,TULSA,OK,74129,A74129341066827AC6FDF332DF5624E10E64237D3F1DDD4C3A0000
NXbz77PfkqKT7vGxp,AutoNation  Nissan Pembroke Pines,8890 PINES BLVD,PEMBROKE PINES,FL,33024,A330246439C2D16E14B3A52ADE472A7EFF62885CB2529B65130000
NZy4PnD94MiTQvNMo,Courtesy Nissan,1777 N CENTRAL EXPY,RICHARDSON,TX,75080,A750803599C36BB2A6A29FBF7E7183363C0C814C2B9E03FDD00000
NbsJACsZ3SKDQztTa,Reidsville Nissan,1123 FREEWAY DR,REIDSVILLE,NC,27320,A273207102FB7E791488D559D5B7384ABA465FC8639C1EDB770000
NdMdcaj8ocByrpi24,Round Rock Nissan,3050 n ih 35,ROUND ROCK,TX,78681,A7868124068EC233FEB4E3B2D19DA0A7385381BE3EB00E857E0000
NdSvcGy6p3SSh7QZv,Anderson Nissan,6555 EAST STATE STREET,ROCKFORD,IL,61108,A611082542728094EC2DF6A9B274E6201827B3F8818D369D6B0000
NeY9i88psrzdFgBAi,Beaver County Nissan,2777 CONSTITUTION BLVD,BEAVER FALLS,PA,15010,A15010129127A3EB59BA1D4A41B4F658446BAA8C34A1BBF9EE0000
NeiQBGMziSfohywtB,West Texas Nissan,4307 n john ben shepperd,ODESSA,TX,79762,A79764931085DA9BFFCF540D704A8F43AC5F4EDF5564ACBF110000
NheC49Npnj68CZFJc,Anderson Nissan,3842 N HIGHWAY 95,LAKE HAVASU CITY,AZ,86404,A864049676E9A53113A248CCFFEF563FBE8BDAA7EA2C3CD2BA0000
NrBif9fsG2o6nZqWc,Sid Dillon Buick Nissan Hyundai Saab,2627 KENDRA LN,LINCOLN,NE,68512,A685124871B88CE47E83F02309A0D7C806E5310B1B9B6B0B460000
Nudf7pkhK2ocgzGBG,HGreg Nissan Delray,2200 S FEDERAL HWY,DELRAY BEACH,FL,33483,A3348333187A9B5AC47B7F6A2D7D098409C209516F3EC812770000
NzZhTzCeEr35QqKRK,Grand Strand Nissan,4701 HIGHWAY 501,MYRTLE BEACH,SC,29579,A295799444320423C39072B3F5DF958EC5F0A19295BFF021590000
P2rmi4dsSyDqhZYHf,Sames Kingsville Nissan,2501 S US HWY 77,KINGSVILLE,TX,78363,A78363331844D683AA2B90F07F723A203F191733383BAB24480000
P3y549M56Ynu3oQxd,Greenway Nissan of Jacksonville,1726 CASSAT AVE,JACKSONVILLE,FL,32210,A322101604905B0C193AC1ABDB86A60C9CF60C1B35E8B824BC0000
P4ztEJojSQNSGEXLt,Weston Nissan Volvo,3650 WESTON RD,DAVIE,FL,33331,A333311539B7C8F815AC1C94CD1BB65CE76638AF236D79025A0000
P6fzPhXwiBtT4ruwr,Nissan of Duarte,1434 BUENA VISTA ST,DUARTE,CA,91010,A910102402FC4DFB16549906CFC8054CBE74E458D5EC90D6A00000
P73ZXHhsupANKYKEx,Nalley Nissan of Atlanta,2551 THE NALLEY WAY,ATLANTA,GA,30360,A3036031447119A5DADDBE8F865EB4502CC680955E49B348420000
P84n7T62wXByDjDdS,Rogers & Rogers Nissan,2361 hwy 86,IMPERIAL,CA,92251,A922519780B6CD7BE6FD27E7BAA482A72C967A445C9A43C51B0000
PANqrQ4xjrqDnLnke,Walser Nissan Coon Rapids,3300 129TH AVE NW,COON RAPIDS,MN,55448,A55448102035F04FFA2E9814429D897D5EDC94E17D87A167570000
PJZdoxWgx2242CJ7e,Moyer Nissan,6210 W PENN AVE,WERNERSVILLE,PA,19565,A195651657F88186F9BF98B03C9E375A41C3D2F1E2EB57F7180000
PKd7BgR2oHb5YnKWK,Deery Brothers Nissan of Dubuque,600 CENTURY DR,DUBUQUE,IA,52002,A520023704D65E95FFCB729AA709ACD8CD1CBEF58845FFF7210000
PLwj9krgwBsXAw8Ln,Coulter Nissan,13301 N AUTOSHOW AVE,SURPRISE,AZ,85388,A8538850909850B992D31BC08F9EA6BD735AD9541C6DEABAB30000
PWtSP4QYHjCejgdj9,Rustom Nissan of Portland,1212 NE 122ND AVE,PORTLAND,OR,97230,A972302077F0B7D69436E7C15E18C8CE180CC63B361F9B13C60000
PX8x8nn78AqCQd3uS,Giles Nissan OPELOUSAS,4383 I-49 S SERVICE ROAD,OPELOUSAS,LA,70570,A70570075595E0E42FEB26F2F5166AC4253738EFFB1BCEF8A60000
PabTgfMTRQfGYQFfM,Milford Nissan,320 E MAIN ST,MILFORD,MA,01757,A01757280846251CD0B11D2FCDE25E4BC62204B7668A389C3E0000
Pb4Mpk4aENSG4HBdD,Lee Nissan,235 MIRACLE STRIP PKWY SW,FORT WALTON BEACH,FL,32548,A3254866944F406FDC8ABFE45CF3EDCE52D134E0663781D82D0000
Pdok3W8fD57n4QL3L,Nissan of Lagrange,1050 LAFAYETTE PKWY,LAGRANGE,GA,30241,A302413583FBAB4D947FA527CBFC06AA843A760EEB5193CF490000
PfW49mvKAfjEfobZp,Leith Nissan,2000 AUTO PARK BLVD,CARY,NC,27511,A275116039605B019961F602CFF7D63EC5FF36539C258C1DF00000
PhJbsLYGnM5DXrG8T,Western Avenue Nissan,7410 S WESTERN AVE,CHICAGO,IL,60636,A606363641A259EBE154EB76DA45196FB712AC83C1487B8DEC0000
Php5DG7WMcpibbRGa,Orr Nissan Central,200 E I 240 SERVICE RD,OKLAHOMA CITY,OK,73149,A7314916145CAC9ABD32DBF4F0DD8E15E26F276692AAEF94B50000
Phyb9CfKmoMhJCuF2,Mission Hills Nissan,11000 SEPULVEDA BLVD,MISSION HILLS,CA,91345,A9134514148550D940FC75AC7BCF6DBF6ABEB792D5891AFAE90000
PkyTfShGyBJuz8krw,Empire Nissan,1377 kettering loop,ONTARIO,CA,91761,A9176122170E5C3D9A4AD663ACBD5D6320A96831671645952D0000
PpDSq5BowHNkG3irm,LARRY H MILLER NISSAN ARAPAHOE,10030 E ARAPAHOE RD,CENTENNIAL,CO,80112,A801123702DC0CD2B6B1C9C264144DFB1FC1AC131AC4A6AF190000
Pt6qDJTjuWdCufDmu,Nissan World of Springfield,146-162 RT 22 WEST,SPRINGFIELD,NJ,07081,A0708131234E14923F0AC2C4A8423948B726928B82F79AB1B930DB
Q5tHKQi8xGvqfqhot,Lokey Nissan,27758 US HIGHWAY 19 N,CLEARWATER,FL,33761,A337614901BCA0FC251F7285A221EA24B42D1B6E0A9B2FA9AD0000
Q6pqgGwrsbS3RdETx,Grainger Nissan Beaufort,219 ROBERT SMALLS PKWY,BEAUFORT,SC,29906,A2990642270BAEB6B4EB42E4D1416C60508CA3B27C9A8A2E530000
Q9Qm7rws2TwF7uyNC,Nissan of Burlingame,101 CALIFORNIA DR,BURLINGAME,CA,94010,A9401043227404BDB0734B12F8E4491111BB7D8A06D4FFFD300000
QBX9vR63teEPaPeQS,Liberty Volkswagen Nissan,920 S MILWAUKEE AVE,LIBERTYVILLE,IL,60048,A600483229556EA9E818BC6BF17CD93DFFC44A8D71194FD0040000
QPFcomjPYEG9BzPr2,Tom Naquin Chevrolet-nissan,2500 W LEXINGTON AVE,ELKHART,IN,46514,A465141492D6E4E23A4F47952B035B8940AA0C6732A897CFBF0000
QQQ98C39kr2NgHiZK,Formula Nissan,1504 US ROUTE 302,BARRE,VT,05641,A056412321EF0C8C519DBD84AE6426AE2A388DD210944FBCD40000
QZvHxXM6RKqctFAn3,Pat Fischer Nissan,1128 S HOPKINS AVE,TITUSVILLE,FL,32780,A3278042976721522D560C321D391F768F685EFA8700D0CE760000
QaqDmsQti8coufocj,Boardman Nissan,7809 MARKET ST,BOARDMAN,OH,44512,A445125962FFEED309DC34DC1A15078EC7F67F20D286A4E4C10000
QebbiEv6QKJePKbEM,Coggin Nissan,10600 ATLANTIC BLVD,JACKSONVILLE,FL,32225,A3222567305327D7F1070159D97B346DC230B48786441867380000
QetSdWpZSnS8jGXSE,Lia Nissan of Glens Falls,373 DIX AVENUE,QUEENSBURY,NY,12804,A128043967A5962FF22A7462E8A077A070AAF38140A6F620B50000
QirzaK3KzrMj3JCf4,John Roberts Nissan,2747 HILLSBORO BLVD,MANCHESTER,TN,37355,A373556540F086E8EABC33EC78B8F6F5BB71320D187D06AAFB0000
Qm3AAs6jSYBibCn9L,Nissan of Visalia,830 S BEN MADDOX WAY,VISALIA,CA,93292,A932923649B0F913DB4BB35386587A73BCE2B564996FC49B0E0000
QnCZHWjbqrDkw3RHt,Nissan Of Lexington Park,22757 Three Notch Rd,CALIFORNIA,MD,20619,A206193073EE4B72F2CDD176CB4E1C29D77679A1CBC9227B420000
QpQdDhouE4Pyzik3J,Nissan of Orange Park,7447 BLANDING BLVD,JACKSONVILLE,FL,32244,A32244510791327E9CA08C64D5B8ABEE51063E82C7212078280000
QpZqPCJMoe4DCdxK7,Ourisman Nissan,3510 FORT MEADE RD,LAUREL,MD,20724,A207242006BD5519027D25472006119AE0BF52840110793B2B0000
QsnGEYBJX79setrTc,Wolfchase Nissan,2956 N GERMANTOWN RD,BARTLETT,TN,38133,A381334002F3EDABA356F5A8217B647ABB3BE080D6DACE31F70000
QttuCvijmkaCFA5QA,Tates Nissan,1251 NORTH AUTOMALL PKWY,SHOW LOW,AZ,85901,A859019591545CA68B4D54A5D4BAC7908F7BC30283267C21660000
R5LXccQJkeHiJnrHW,FIESTA NISSAN,5001 S 169C,EDINBURG,TX,78539,A78539000040864312C9EE2CDF0ECD0B70DA3E49F078B3F4270000
R5zhnFuMMTWAPCwoD,GARBER NISSAN,5450 BAY RD,SAGINAW,MI,48604,A4860425921E579441F28C510F36591C6E8387F887E10964600000
R6cdPT7vseurr7yex,Don Franklin Lexington Nissan,3360 RICHMOND RD,LEXINGTON,KY,40509,A40509183591421CC10749F52CF7891E575978CE0066102A3C0000
R73SjTLdyQdH32fAn,Thomas Nissan of Joliet,1421 N LARKIN AVE,JOLIET,IL,60435,A604353756208C40CF46C29CEFA78180A0A76B28390A1DFB5B0000
R7H7ZHj6ivZaXg64q,Mossy Nissan National City,2700 NATIONAL CITY BLVD,NATIONAL CITY,CA,91950,A9195066999C3E8FBC94D1D3A97174C169F4C6AD4FBF5F98F20000
R9BoWe2JmYhX34oqW,Autoeastern Nissan of Englewood Cliffs,340 sylvan ave (rt 9w),ENGLEWOOD CLIFFS,NJ,07632,A0763227089E8423214776C8947F1A387E68E5727480831D216A21
RA5oQPY35ocQ5Buy3,Morries Brooklyn Park Nissan,7875 BROOKLYN BLVD,BROOKLYN PARK,MN,55445,A554452716B16CBB183ED373A7032FA7CC71B91FECF0E667FF0000
RBXWeBWCxR2Q8YG2k,Hicks Family Nissan,3002 IH 69 Access Rd,ROBSTOWN,TX,78380,A783800035202EC9D16F9B9E33E4D06A0A097A7152C95750A60000
RHJknJzncdQLHH5qP,Team Nissan,1715 S DELSEA DR,VINELAND,NJ,08360,A08360630807154CF624ED1191DD2ED58E003AE7A2A1B549D40000
RJaom2tWGrqxdTgq4,Gerald Nissan of North Aurora,213 HANSEN BLVD,NORTH AURORA,IL,60542,A605428923E4C7AF1E14F0B346E41C5EFEC7EEBA763B7D06ED0000
RKvZKcQoC9itosgNj,RAY SCHULTENS NISSAN,2400 W 6TH ST,THE DALLES,OR,97058,A970583526C1D4566D3CEC60DD2BC67C4F3CF65374D4FB046D0000
RRYPa396ZQ76JiRnJ,Pohanka Nissan of Salisbury,2012 N SALISBURY BLVD,SALISBURY,MD,21801,A2180133372738B7A6AAD58B3FE2AFD1630EAD5FE116FFC2480000
RSRuJ8GNofrDzcR48,Hubler Nissan,8435 us hwy 31 s,INDIANAPOLIS,IN,46227,A462276277CC17F9E0A018EAD443B144AE8D32BD1EA7C111FB0000
RThSyc57vB9P3vHon,Nissan of Boerne,31805 INTERSTATE HWY 10 W,BOERNE,TX,78006,A780069277DCAE4050C1754BE085DE71F18DC919A21ED7E36C0000
RWvFL4t74x7GqWz2T,Nissan 112,730 ROUTE 112,PATCHOGUE,NY,11772,A11772133862A06A87AACB93E1E71AA9F7F277D8AF7B6B01040000
RZaPL7t8EWertvbo5,Nissan of Picayune,239 FRONTAGE RD,PICAYUNE,MS,39466,A394667587D6CAC1E59858D4D3B21F7B7DDDBD38A25BFCB2990000
RZpmkMM9ZAvQw367Y,Andy Mohr Avon Nissan,8867 E US HIGHWAY 36,AVON,IN,46123,A461237958577D0BAC117C92A76FC88D8FE2BB1422B67F7CD90000
RcmzuBYrDzhNQoGsw,Welch Motor Company Nissan,2505 S OLIVE ST,PINE BLUFF,AR,71601,A716017854ECAC6D5A411AA9C418AC6551A5B0B4DEEDE726760000
RcrCu5k5ussPMGsbq,Bergstrom Nissan,3265 S WASHBURN ST,OSHKOSH,WI,54904,A549046725B81B1ABC5C19D3AF00421FA7B0BB32B5ACCD13290000
RcycLTdAdeFDru3TR,Curry Nissan Chicopee,765 MEMORIAL DR,CHICOPEE,MA,01020,A010205089B62F4CFB8DEE897A6C1247113946D10C336F2ADA0000
RdSEKc5FYmv5z43gz,Performance Nissan Of Butler,1567 State Rt 23,BUTLER,NJ,07405,A0740518208DFC74BFF565AE08F0070FA8B49A14FC683A04D70000
RiJvh5tTqftcFW8S4,LARRY H MILLER NISSAN 104TH,2400 W 104TH AVE,DENVER,CO,80234,A802343599A273E219751DDC2F489E89E6AD7E02072E83294B0000
RiNQBYBoFCr9PJzFb,Supreme Nissan of Slidell,400 EAST HOWZE BEACH RD,SLIDELL,LA,70461,A704614638DC971134447B28D9B07DAAE0222459DB06FDBCA60000
RkprYr8edYW4BGcdQ,Mills Toyota,3700 US HWY 71 SOUTH,WILLMAR,MN,56201,A56201428803EB3603BCF41FE19BABD1A9F9B40794C4432C730000
RmwFPPHsghMsnA5mJ,Kelly Nissan,4300 W 95TH ST,OAK LAWN,IL,60453,A604532666B54EED34A7A2A4ABDD2711772683D9E0D7C9DB4A0000
RnjdmtXeXAZZYgXat,Mcgavock Nissan,6312 MILWAUKEE AVE,LUBBOCK,TX,79424,A794240613E03109BAEE60B29A7045C70E3EB784CD434776400000
Ro4HDichc2san6EWo,Rusty Wallace Nissan,4515 CLINTON HIGHWAY,KNOXVILLE,TN,37912,A379123931240A3D5AA88E9333198DFF320F1A044E6D4D8CFC0000
RqBDk7B5b2j79grhq,Dutro Nissan,131 S 5TH ST,ZANESVILLE,OH,43701,A4370135122510B74B6796FDDB5E0D1C9F12600BEE6C8108B50000
RwQ2KHaoHwxfEZmMz,Bayside Nissan,2542 RIVA RD,ANNAPOLIS,MD,21401,A214017405647FF6234026DAF2E7EF4527AFD0A06149120FF80000
Rxm9wZNFEypPHfJ2a,Stadium Nissan,1140 W KATELLA AVE,ORANGE,CA,92867,A9286735914F4EFD6DFAB2289D5F877692AEEDD01D0F5E23510000
RyTb9MiAyvDmwL3tR,Dublin Nissan,2046 VETERANS BLVD,DUBLIN,GA,31021,A310213037B4A1788C61A18EA93DE5DEDE3E67B0EC72BFDCBB0000
Rz3jeiiEoJYz5yyJX,Lithia Nissan of Fresno,5580 N BLACKSTONE AVE,FRESNO,CA,93710,A937105018A5E8EEB94618300E847B6E91D05DAE18A01353CF0000
Rz84dHQSWSAMA7iJH,Nissan of Bowie,2200 CRAIN HWY,BOWIE,MD,20716,A20716341129E4255ED32239D015742B928CBF82CFAAD8006A0000
S7kmcTo6PrSSTHEqR,Executive Jeep Nissan,900 UNIVERSAL DR N,NORTH HAVEN,CT,06473,A0647331106C89F360471695F8B31704B7186963EE82E3F4720000
S7th3HXbhcLK868QS,West Herr Nissan,3580 SOUTHWESTERN BLVD,ORCHARD PARK,NY,14127,A14127176847F67215EE53AB8C31AEB511EC54FA7C74FD8B490000
S9YXMkmZ6sme4teP9,Ken Garff Nissan Riverdale,615 W RIVERDALE RD,RIVERDALE,UT,84405,A844053712433F90B6DBDB5D6A29A2DB6C961D100C297DC39A0000
SFYEh8x2bRRNWcBn7,Alan Webb Nissan,3608 NE AUTO MALL DR,VANCOUVER,WA,98662,A98662700096BD4B43BA26ABB37149A0642E5B7055C2147AD70000
SJASfXaEPCnbcHKxb,Sheehy Nissan of Manassas,9010 LIBERIA AVE,MANASSAS,VA,20110,A2011053822FC2CC74B1DA4063D385F05B23D4190E5A01562E0000
SJAXqTtPLoZWbaeYZ,Fuccillo Nissan,3893 ROUTE 31,LIVERPOOL,NY,13090,A1309013098DCAF3CA02BD7525D2B1DBE8EE0983D306A5C0330000
SW9qNgqxm3jCupGQb,Yark Nissan,5957 W CENTRAL AVE,TOLEDO,OH,43615,A436151801ECF77B3B252CE18844907453E8BD0B08B5A832620000
Sa8cpMgadrkPbetZY,Courtesy Motor Sales,3100 Pleasant Valley Blvd,ALTOONA,PA,16602,A166024309589E9BC3AB7D2F1B2E67879B247445BEC44EF8690000
SbcSaAwbihjpdqTbr,Antwerpen Nissan,12451 AUTO DR,CLARKSVILLE,MD,21029,A21029126674437B75B65C3A94A4FAE5F7FC9256324BD158080000
SeYar4aQ8XW83gR5S,AutoEastern Nissan of Meadowlands,45 ROUTE 17 SOUTH,HASBROUCK HEIGHTS,NJ,07604,A07604280294D8BE1B5CE6C533FD4698DABDC4DE03329FF4240000
SkWuJHTJzYFhAnJR2,Mcgavock Nissan Abilene,818 E Overland Trail,ABILENE,TX,79601,A7960113507D83D19409503B47455C965A974C55CAF83FD9CA0000
SkxW6g8K6NEF6znHS,Priority Nissan Chantilly,14840 STONECROFT CTR C,CHANTILLY,VA,20151,A201511737FF343D6E19DBEB1B59E4A7ABCFB679628EC6702F0000
SoMWw7sEYRaLcbAJ3,Pocatello Nissan & Kia,1900 FLANDRO DR,POCATELLO,ID,83202,A8320219751E6AAF4CA0BD6A52D2035B4E2C75E6984F8337770000
SpCH5ksurJoZXnquf,Cronin Toyota Nissan of Richmond,5601 National Road East,RICHMOND,IN,47374,A4737426179F75F9CD8122FA7419A6B89F731FC0A1B22504080000
Sr43nubAtKoPnBbTN,Hilltop Nissan,258 ROUTE 10,EAST HANOVER,NJ,07936,A07936260878A293689FFB1E5089C6E433F25CFD228FB66C080000
SsLrBaYWHvkRmABSE,Montgomeryville Nissan,ROUTE 309 AT STUMP ROAD,MONTGOMERYVILLE,PA,18936,A189369632458EE97002BD519DC86C20D5CB88F84D0228AD210000
SstvhJqf4P8cjEvhh,Bedford Nissan,18115 ROCKSIDE RD,BEDFORD,OH,44146,A4414620985265734CA7EEC44493E7AA5DD1AF5379A75F12B10000
StWZ8tDYpjMumqLkX,Woodbury Nissan,439 Mantua Ave,WOODBURY,NJ,08096,A080962696671779E5FF080A19A5438E1EE4B6035158C1B7AB0000
SxMT2t48jn7SDm3Ke,Nissan of ORANGEBURG,2827 ST. MATTHEWS RD.,ORANGEBURG,SC,29118,A291181439DBE4996D4BF92CFBF7DBD0D00A07A99B34087D0C0000
T4gT3hCA5T6GRvgKZ,Nissan of Mobile,1015 e i-65 service rd so,MOBILE,AL,36606,A366063195C3B431FD4E3B835EE822C4B3BF743FB3FD0711590000
TAnsbLvRLNdaWTzs9,Van Horn Nissan of Sheboygan,5515 RACETRACK RD,SHEBOYGAN,WI,53081,A530811130140EB736D493F3A385BB187ECD531E3300C86CC00000
TAxjB4vGGBivMndYq,Walker Jones Nissan,2715 MEMORIAL DR,WAYCROSS,GA,31503,A3150309130DF9A8EE026DB9B93758A41F28BB72A0B55A2C3B0000
TJoRLDocxLXNznZw4,Hamilton Nissan,1929 DUAL HWY,HAGERSTOWN,MD,21740,A21740660394BDBBB7ACB9F0FEE1A862B78C788760BE031F230000
TKuTfatRzbdsqder8,Demaagd GMC Nissan,333 W DICKMAN RD,BATTLE CREEK,MI,49037,A490378454FFB2C9965FCF3854AB41B3C03FA5BBD1B83A61740000
TLnMPTZwkNQPFaJ6d,Sterling Mccall Nissan,12230 SOUTHWEST FWY,STAFFORD,TX,77477,A774773007D1971DC27E89A2C04163BA7BE9B53166A40DB0E20000
TWNbuHyz7Ksw8zsmm,Miller & Miller Nissan,4770 Highway 90,MARIANNA,FL,32446,A32446636793F3616447EE70FED13EFBEA851F4B288D1782DE0000
TZ7db3kiTRKoQ8SpY,Vision Nissan,785 RIDGE RD,WEBSTER,NY,14580,A14580245022FCDE547598FE5FDBF9A6723045F8D79F8507670000
TZtuzRE5ippS4qDt4,Busam Motor Sales,1501 E Kemper Rd,CINCINNATI,OH,45246,A452463907DFC176041CAB832C7EE4A46B907DC593403D9A310000
TcPXtHpT9jd4PrAka,ONeil Nissan,849 W Street Rd,WARMINSTER,PA,18974,A1897431410D1698DE0768AE5C2ADE32F517D7EFAB9A171D3D0000
Tecsu3vrb5T24ASqW,Nourse Chillicothe Automall,423 N BRIDGE ST,CHILLICOTHE,OH,45601,A456012698A4FF7FDCE88D9836A855BDC5627E79A69037B5F90000
TfiYf3dxbHsR9QmyN,Abeloff Nissan,3259 ROUTE 611,BARTONSVILLE,PA,18321,A1832178100E7ADC8F4E8ED79BFB3B3117611E6EC46B6464B90000
TjjwWcoB2ZDodF3a2,Passport Nissan of Alexandria,150 S PICKETT ST,ALEXANDRIA,VA,22304,A22304309985E906AF7BE08F7FF2073EF6C61FC9015BFC436E0000
TpNwgujnD4TTBKbXg,Matthews Nissan of Paris,3411 NE LOOP 286,PARIS,TX,75460,A75460508921A89360D38B43A476CC5841664E8E612741A1DB0000
Tr75v2gYh2GTPkAPd,Bill Hood Nissan,318 N MORRISON BLVD,HAMMOND,LA,70401,A7040129237C7F0CD0DC5323DACACCACC132E2FDD6023EA9620000
TrjeLnSwNHmc2XmZE,Cole Nissan,3003 STADIUM DR,KALAMAZOO,MI,49008,A4900815461D6F7F92B6FC89BE9A8B58702C7FEA1DE35818AD0000
Ts4ZNcoqNSntECa4Y,South Houston Nissan,11911 GULF FWY,HOUSTON,TX,77034,A770343599092FA9C7E8D1F0B934F52541B7EC74681F39E0040000
TsPXFhzPvKDzv2bno,Nissan of Bay Shore,1521 SUNRISE HIGHWAY,BAY SHORE,NY,11706,A1170660041E8FD5D9B4D12AFA568536D0B75D04206711DF940000
TtKaCNscxG7jNpmSi,Nissan of Athens,4735 ATLANTA HWY,BOGART,GA,30622,A3062221NDB6193D61061001347D353D673FD218AEBE06BB950000
TveBBQPRvvgsRvTeN,Fred Anderson Nissan of Asheville,629 BREVARD RD,ASHEVILLE,NC,28806,A288062229CC7E009E6256FB35246EDB9D0B07DE6E884F187F0000
TxZuK4A8Hpmi45j5f,Coast Nissan,12150 LOS OSOS VALLEY RD,SAN LUIS OBISPO,CA,93405,A934057206A269FBAAF7D28C7BEA4B79794EA400A71959C7910000
Tz5GN8EMg5cbxfriL,Carousel Nissan,817 HIGHWAY 1 W,IOWA CITY,IA,52246,A5224642239962300F04A743242DED9E24BF2EBEC0F5E1567A0000
W5CqG55QEmb5eKhF2,Santa Maria Nissan Mazda,1001 E BATTLES RD,SANTA MARIA,CA,93454,A934548051838C06C815A28DC6E458A5CCBB4379CA9EC7F9FA0000
WTcJXfKz9RyQXm8kE,Bel Air Nissan,1506 BEL AIR RD,BEL AIR,MD,21014,A210145136345CDC1FB6E76FA881086504E473B53998EE8D560000
WY4RgBfo7uqgZ8XCd,Cannon Nissan of OXFORD,479 HIGHWAY 6 W,OXFORD,MS,38655,A38655907340993D099E65F66593BAC5BBDDDACB0A0766A3EB0000
WcTStqHQhdQciixni,Universal Nissan,12785 S ORANGE BLOSSOM TR,ORLANDO,FL,32837,A328376224943A65AF97DF04A69564937AA92D34CFD11FA3980000
WgDk6bpXxGTwJSQZ7,Regal Nissan,1090 HOLCOMB BRIDGE RD,ROSWELL,GA,30076,A300764347F4BCBF8832BC74FD5548F1D6CF5701CACED711810000
WggM3vDy2ufyNteB2,Grossman Nissan,295 MIDDLESEX TPKE,OLD SAYBROOK,CT,06475,A064754209DACA3B6C88FA5D9A4CE9B0501E1DDF51A9E137D80000
Wgvm6GpD8nbsJt9jW,Capital Nissan of Wilmington,5501 MARKET ST,WILMINGTON,NC,28405,A284053695B8C5C052C0B7391FCA8622089D6885FA91C83E620000
WhNrnvvNmiAnh72am,Rick Hill Nissan,2700 PARR AVE,DYERSBURG,TN,38024,A3802420207079EDFD14FD5AB3051E2D2841886E7EE1D26ECC0000
WhTtkHJPJpKzmTAfo,Premier Nissan of Fremont,5701 CUSHING PKWY,FREMONT,CA,94538,A945383290F60D33D37A0AFEE37885BDFD140946670AA966980000
Wid6GQsSf4wpng6Pu,Autofair Nissan of Chelmsford,95 DRUM HILL ROAD,CHELMSFORD,MA,01824,A01824150305BCAB052877B71D9A080A4D1BAEE9C61EC3B9CF0000
WksFnSD7ZyB5emM2t,Karmart Nissan Burlington,655 AUTO BLVD,BURLINGTON,WA,98233,A982333701FBAFE7EA9C4CABE712A04FDA248A9F33A7B4EB020000
Wn7vhZruoDkdajPEL,Nissan of Silsbee,3480 HIGHWAY 96 BYP,SILSBEE,TX,77656,A776569397185189D41C683ABEAFCE4346978095E2974843520000
WnTzdzL6PSWo2AxyN,J P Thibodeaux Nissan,2417 HIGHWAY 90 W,NEW IBERIA,LA,70560,A70560944438773671D1B022A745E635E2FC116A4889599D9E0000
Wp4jtBu8Dyb7Tjp6q,Baytown Nissan,5445 I-10 EAST,BAYTOWN,TX,77521,A775219612258837623AE56FB0A245A735702758C12A868EFB0000
WsLoCXyimu6RGBP2w,Benton Nissan,1834 US HIGHWAY 78 E,OXFORD,AL,36203,A362032018320C73FD9D922A0EA226A4E1539EF55B18B160CF0000
WuBLXC6sufAiB8bbo,Shults Nissan Subaru,311 FLUVANNA AVE,JAMESTOWN,NY,14701,A1470120335DFD13441F9E7394C0981F26740DCEF7767927A60000
X2ZgQjoQ9YZK336bG,Jim Burke Nissan,1300 3RD AVE N,BIRMINGHAM,AL,35203,A35203173180EB1363B3C817DFC911437268A691DF5A54DFB20000
X7i7rigHXLwij3p35,Tom Peacock Nissan,15300 NORTH FWY,HOUSTON,TX,77090,A77090609988CCCEDE8DD6019565A2D7608DC0F3C50265D3440000
X7sYE99nbzukyMY9p,Gordie Boucher Nissan,4141 S 108Th St,MILWAUKEE,WI,53228,A532281905D891947EFE4925C4A7B87F66C90EB59B56E4FCD50000
X9YsWFFLwamXmkSiv,Orr Nissan of Russellville,3115 E MAIN ST,RUSSELLVILLE,AR,72802,A728029668538AD2D1FB25130C063794C8DD93E3F425BFEE350000
XBjLh2FqXqeJmEodz,JC Billion Nissan,380 AUTOMOTIVE AVENUE,BOZEMAN,MT,59718,A597187508DF44E82CA1D0E4175A19051B13763716A0368D3E0000
XF2bKPeTpgQ22m6Cj,Zimbrick Nissan,5330 High Crossing Blvd,MADISON,WI,53718,A5371823028686F2D54DDA5F9BD020650A092D334417D7F3CC0000
XKqF3iaw5z4Cperi2,Sandy Sansing Nissan,5705 PENSACOLA BLVD,PENSACOLA,FL,32505,A3250525651BE6A2D2DF6AA814C4E2A501FDCEFE08A67C20130000
XM5Q4EBwj76e9RGy2,Midway Nissan,2201 W BELL RD,PHOENIX,AZ,85023,A85023321387881B58FF8DD1DFFFCFCBC636A3B0BFA4E082050000
XNNxfXEgPGvEwmyWJ,Simmons Nissan,1994 ROCKFORD ST,MOUNT AIRY,NC,27030,A27030520263C1C4CCDB04EFC1EB222D234B0C0E79640AAF250000
XNk84br82knXYmvLo,AL Piemonte Nissan,1600 W NORTH AVE,MELROSE PARK,IL,60160,A6016013188184BAA025EA1A166B5E6208A45A392DD42D9CFE0000
XPcJR8XkKNoQYduZK,Burien Nissan,16042 FIRST AVENUE SOUTH,BURIEN,WA,98148,A981481457B309C94993E4FD50AFA43DA9068C2D0B1A8013A70000
Xba9ghTfo7XXcyaes,Riverside Nissan,400 RIVER STREET,HACKENSACK,NJ,07601,A0760159937E9BB0B307FB7F1A5AEA22F665E77ECE694E8D440000
Xc8nbFSdtKS8TWKch,Ricart Hyundai Kia Nissan,4225 S Hamilton Rd,COLUMBUS,OH,43125,A4312593797904DA56E927B910EC7F483AA63DC741480317AC0000
XfsZABTcWJxZFYmCx,Nissan of Yuba City,1340 BRIDGE STREET,YUBA CITY,CA,95993,A959933505116A11453662F45F117273378AB31BC7649423710000
XgcbawyKujbJFeFYZ,Star Nissan,20602 NORTHERN BLVD,BAYSIDE,NY,11361,A113613146B90ACEB44A42B1AC05BBD6804C8250B38C69A55D0000
XqiL8fQtNT9CoQ6Ww,Nissan of Roanoke Rapids,407 premier dr,ROANOKE RAPIDS,NC,27870,A2787050415F88BEA72834C3B22CB6FA0E59886041322824E40000
Xs5joCFjKjwbbqFeq,Barberino Nissan,505 N COLONY ST,WALLINGFORD,CT,06492,A06492316571B0B7AD2D5360F6A2C0CE2A2B151EBD8381831F0000
XuXjwF7WcGecqBuj5,The Autobarn Nissan of Evanston,1012 CHICAGO AVE,EVANSTON,IL,60202,A60202132411FD910146253C3D6CF021B2BD97E12D17F4B75A0000
XutKRDw2o6dvc7R3h,Campbell Nelson Nissan,24325 HIGHWAY 99,EDMONDS,WA,98026,A9802691387A67F5036C2EE3CCE3BA3D598224E37A02183F5A0000
Xxb6dPnZj6dLyyGwN,Miller Lincoln-Nissan,2930 2ND ST S,SAINT CLOUD,MN,56301,A5630138096AB32DF1782153E79FB7C19D2A86A4B531B0A8330000
Y9KuTaAKtrJMGnHW8,Serra Nissan,1500 CENTER POINT PKWY,BIRMINGHAM,AL,35215,A3521556702AAF42A4C88C6073C3FA7EA02CD249B4F1C354490000
YBiZyAnqC5J922HHy,Harbor Nissan,4336 TAMIAMI TRL,PORT CHARLOTTE,FL,33980,A339802122EC174DE50807AA4F9870043DAAE0F9C412A1B2080000
YCBZWxYMCAumPfkHg,Nissan of Downtown LA,635 W WASHINGTON BLVD,LOS ANGELES,CA,90015,A9001541119FC20F91A7986DA77C916D5007DDAC9E905EA9430000
YD3k5Mc9aFHbfFgCd,Ron Sayer Nissan,1175 N WOODRUFF AVE,IDAHO FALLS,ID,83401,A8340162842D94AC8869194362319E3C6D0C36F517A4E7C3D00000
YKBrDbztcM27E3hbt,Destination Nissan,770 CENTRAL AVENUE,ALBANY,NY,12206,A122061688212451C1A1B84A650F82CC7AF4585206758F0D930000
YXDELaHMXfzNeFHsq,Ed Hicks Nissan,3000 S PADRE ISLAND DR,CORPUS CHRISTI,TX,78415,A7841518140F7CE4DF860380975401B72DD26402BA99CB7C0F0000
Yaoqtto442huzCBxS,First Team Nissan of New River Valley,2130 N FRANKLIN ST RTE460,CHRISTIANSBURG,VA,24073,A24073111040E9880BAF23FA558001306B1853B027D6CEDA4A3587
YfdxKnkk6NJru7RvZ,Priority Nissan Newport News,12925 JEFFERSON AVE,NEWPORT NEWS,VA,23608,A2360816330241892DDFC3D45D32B8217D0679A9951A25EC750000
YrzW3sWciY68rhdEo,Fontana Nissan,16444 S HIGHLAND AVE,FONTANA,CA,92336,A9233612302108AB59607E11DA48EB7BCE841D4A038B2EBA240000
YtYoAssjyn4oXjGCC,Parkway Nissan,877 COMMERCIAL PARKWAY,DOVER,OH,44622,A44622315238DD4826665115657E83393EC07683286E29D5570000
YuAbjKWaCF8Q4W28m,Hugh White Nissan Lancaster,2480 N MEMORIAL DR,LANCASTER,OH,43130,A43130163734647C7CFCF7A0488F67FAFA812D5CA40D7F9B4F0000
Z3MygzvYkNv422aQp,Nissan of Hawthorne,1060 GOFFLE RD,HAWTHORNE,NJ,07506,A0750620208B916729E24A51440EDE6216D9FAA228AE46131D0000
Z3T3LbtQJGBioLbKh,Nissan of Queens,93-25 ROCKAWAY BLVD,OZONE PARK,NY,11417,A114172446D9F9AF9614965571F3A7EEECA976C9493F2618660000
Z4YXARvMCTF72hvia,State Line Nissan,10401 MADISON AVE,KANSAS CITY,MO,64114,A6411445426BE39F3AC8873D383AE623D19159ADCD0C2AFC580000
Z5MJ7KqFogosCCJPo,94 Nissan of South Holland,16269 VAN DAM RD,SOUTH HOLLAND,IL,60473,A6047326462786AB45D2AF700DCC8A393710C68DEFC97384EF0000
Z6uJTgKR49M9jB4eh,Nissan of St Augustine,2755 US HIGHWAY 1 S,ST. AUGUSTINE,FL,32086,A320866499FB545FDB08A4CD30C5FC70E8CD7E1E62C6A22BB30000
Z8eMTM3r4NniqNZuj,Country Club Kia Nissan,55 ONEIDA ST,ONEONTA,NY,13820,A1382021933CBF21D86534CC743CC93E7C8DA1BF611101EF7E0000
Z8sEuJGWBL3BrSXAF,Fairbanks Nissan,2610 S CUSHMAN ST,FAIRBANKS,AK,99701,A997016643781D51BE20E0BA55DEBF8867F6428081161661AB0000
ZAjcpwRbBDTTsbgrJ,Don Davis Nissan,1320 E INTERSTATE 20,ARLINGTON,TX,76018,A760182113EF7D68B8FF74A025FEC7169915C0F58FBAD774D70000
ZB3TH8879vMLjBG7k,Alan Jay Nissan,1700 FLARE RD,SEBRING,FL,33872,A338724033E11F022E9EB38D0F48BE2227DA920D030F09DE770000
ZHrJqXJnRSPKtsjqf,Edwards Nissan,920 32ND AVE,COUNCIL BLUFFS,IA,51501,A515018096827C34DA5CFDF40ED18BFA95ADA7E5507560F2390000
ZNFxGxNZchNjCHe8k,Nissan of Macomb,22100 HALL ROAD,CLINTON TOWNSHIP,MI,48038,A480381543EF3B761AC98DEAE59AC72FBC598B151FF787F8230000
ZNyxPyJ87TLcjX48g,MLady Nissan,5656 NORTHWEST HWY,CRYSTAL LAKE,IL,60014,A600148017D923842CE866A48B77C23D989FBB4FA0896AAB800000
ZPaBJN6957QFAneHm,Santa Barbara Nissan,425 S KELLOGG AVE,GOLETA,CA,93117,A93117380785A94DD7BD7DEEC41AA826D9BF14276116809C500000
ZQWkKfK83NmkDSRSE,Flagstaff Nissan,4960 E MARKET PLACE DR,FLAGSTAFF,AZ,86004,A8600400007B391964A22A6FF119CB6F2C7074F2D52DFE41780000
ZQsQbAs794ytPnz42,Texas Nissan of Grapevine,1401 W STATE HIGHWAY 114,GRAPEVINE,TX,76051,A760518607358D24C46A7A72DE9D347B71303F430C9E75BAAC0000
ZSa6SeF7vTKjgat46,Mccrea Nissan,601 7TH ST,EUREKA,CA,95501,A9550118202EC1A829F1438A77C7D3BD5B3C27845EFDF2FA220000
ZdgkzTczDv4Zz7T2Z,Green Nissan,4801 W WABASH AVENUE,SPRINGFIELD,IL,62711,A627117103582F05855515162F1A83EE547EAF63CA8ADACF570000
Zhmoo8AmuW3hERsn3,Bosak Nissan,220 Verplank Rd,Burns Harbor,IN,46304,A46304947743F7D4B62394701B1671A488985F9F1D2951B7CF0000
ZimDxxor9d3gJRCJB,Beau Townsend Nissan,1050 W NATIONAL RD,VANDALIA,OH,45377,A453771025A7B407502E3C8696F046C615083CA8A13FCA418E0000
ZjjgRSsyjWLJNpBaW,Hunter Nissan,1340 SPARTANBURG HWY,HENDERSONVILLE,NC,28792,A2879264427CBE6C8C003238D0AD78BEAE2B9BF7AA87DB10170000
Zk3HZpDCwLgXhrGBW,West Palm Beach Nissan,3870 W BLUE HERON BLVD,RIVIERA BEACH,FL,33404,A33404490317778A7541AFA813F42E9923FBA4326C64119CD60000
Zkh3B9atzByekpgX6,Rydell Honda Nissan of Grand Forks,3220 S WASHINGTON ST,GRAND FORKS,ND,58201,A58201717001971176C900470616ED0E4026FE598B444107AD0000
ZuiGsdqZ676Sa9vmo,Byford Nissan,114 ACCESS RD,ELK CITY,OK,73644,A7364429296B55889BB78EEA6A932C1B41069728B7F4C2750C0000
ZweumaeRe3yMPCqto,Mcdonough Nissan,1775 AVALON PARKWAY,MCDONOUGH,GA,30253,A302537663C702745770C19213453580E6DB22004D7FFA7C500000
Zysxk7bJtsc6w8m3S,Capital City Nissan of Topeka,1980 SW TOPEKA BLVD,TOPEKA,KS,66612,A666121413ABDC772821B3983B15C19724FFF56EE35359A51D0000
Zz2oEMTk5WGW4iX8B,Boch Nissan,525 BOSTON PROVIDENCE HWY,NORWOOD,MA,02062,A020625214CEEDF450A437FFC1A491986B9C39E1EB4179193C0000
a25j5DBjNuLJviMXv,Maguires Nissan,2001 CUMBERLAND ST,LEBANON,PA,17042,A170424470C370648563F4461F305784DE34973BCC51E5D66A0000
a2PP3eJCayHnJo8XT,Bill Ray Nissan,2724 N HIGHWAY 17/92,LONGWOOD,FL,32750,A3275061830C52B0604067452EC98D937A02A9FD70E3C6457A0000
a5CKQvmeLZGrZKbny,Criswell Nissan,19574 AMARANTH DR,GERMANTOWN,MD,20874,A208741202BC3B3F5F1425F0971C155A06FE5E11DFDDEC8F1F0000
a62pDPjPy9SSz7Ctq,Crossroads Automotive Group,11120 CAPITAL BLVD,WAKE FOREST,NC,27587,A27587451385E6829EDD095474157E2CE1A800508C7306A6670000
a9Dh33Bu6u2EKgh6X,Bob Rohrman Kenosha Nissan,8050 120TH AVE,KENOSHA,WI,53142,A531427300E45FA3D6F4FC6BAC5CF38C299EA876888AFC511B0000
a9FzX2NaaCjTqanrg,Nissan of Shelby,631 S. POST RD,SHELBY,NC,28152,A28152692837B52131B93438AA7D7106E0EF3D8C7F32F013080000
aCR8DKmdDP4FQEaWu,John Youngblood Motors,3505 S CAMPBELL AVE,SPRINGFIELD,MO,65807,A65807510353CF0C6C069687AE873402CBB11194F1C82011E50000
aF6khfxAoQN2RMwW4,Jim Keras Nissan,2080 COVINGTON PIKE,MEMPHIS,TN,38128,A381286982C66470295A5427D86046498AE47C706CF2CC484F0000
aK3b6B5x9WWnjyFng,Nissan of New Braunfels,2077 IH-35 NORTH,NEW BRAUNFELS,TX,78130,A781302509432335EA9829F6CF961690A16234F14545C7B82E0000
aKgtXQYcCfLeHQwff,Coughlin Nissan,1459 HEBRON RD,HEATH,OH,43056,A430561037F5242762412E8F0587833E5733268361741273BD0000
aLujJfHNWWNTFJ949,Town North Nissan,9160A RESEARCH BLVD,AUSTIN,TX,78758,A787586905AC50D2C027257E86F13193A4C792C734613F60239E8B
aQ7RsFQCpS2cbWcjy,Ingram Park Nissan,6990 NW LOOP 410,SAN ANTONIO,TX,78238,A782384198CB507CB987DA4DA190F82FAB0B5CE5B096573B470000
aSsN6fwsgc2uYN2RB,Smolich Nissan,1835 NE HIGHWAY 20,BEND,OR,97701,A977014832CFA48EB358A4D0C1BF401C3A0523981956E859690000
aTNWJweLtQGBZYjFS,Kims Nissan Chevrolet,2516 HIGHWAY 15 N,LAUREL,MS,39440,A3944018270D87E4B409DE921CE1C9709C409526DE20C587A10000
aYMcAAcFYFMXTXWtR,Poughkeepsie Nissan,1445 ROUTE 9,WAPPINGERS FALLS,NY,12590,A125904422BE56ABAAE7626EF9EDA21889AEC7DE984EEB61B30000
aZFB3BLFpNMnyDLt5,Kocourek Nissan,2700 N 20Th Ave,WAUSAU,WI,54401,A544011898C458F6ED88CFF577C10A3C06308542062198BC670000
aZm6u5DEDmrHnq8iC,Troy Nissan,110 US 231 N,TROY,AL,36081,A360811767D4525FABAB35F8E952A863D350FEC235F450D9300000
abzRQitFYNzPstECu,#1 Cochran Nissan Monroeville,3355 WILLIAM PENN HWY,PITTSBURGH,PA,15235,A152355242D9B494CA32CF61AA94F0EFAACD99F7138FC28FCD0000
adtNEwkewTAo6Mbop,Tracy Nissan,3195 N NAGLEE RD,TRACY,CA,95304,A953047319FDA8D929143FCDC304F3044E0512A6C7D1A8859A0000
aivePKyrA9nDLMYrY,Maus Nissan of Crystal River,937 S SUNCOAST BLVD,HOMOSASSA,FL,34448,A3444814599BAA3F50CF330CAACE75EFD6C146913B62D05BCC0000
ajtnCkToY7anZEtwt,Lee Ford Lincoln,4170 RALEIGH ROAD PKWY W,WILSON,NC,27896,A278969719A5C9CED958F47D9E78827E3761E559B2217D837E0000
aju7nMDe7usQqPHRe,Herb Chambers Hyundai of Westborough,75 OTIS STREET,WESTBOROUGH,MA,01581,A015813347941C93F004305BE441A245CB017198FEAFBFBE340000
anSjsMkW6DyCGA4Me,King Windward Nissan,45-568 KAMEHAMEHA HWY,KANEOHE,HI,96744,A967441944ECC7C266C0DCC7417271E4D2588F41506A8A2FD20000
at6EZKQEoTnRqXeZY,Crown Nissan of Decatur,165 W PERSHING RD,DECATUR,IL,62526,A625263242C7F51B09A2BF8821011E15C4BAE217D61C05A89C0000
atAYpYrDkgcrdoN2n,Granite Nissan,2626 E MALL DR,RAPID CITY,SD,57701,A57701794217BB058ECB87763A2FBC3294945F7CCBB2F1F0C10000
azda4ARmfL7aY9AK7,Mojave Ford of Barstow,1010 W MAIN ST,BARSTOW,CA,92311,A923112694BFCAA75B675F73C016BCBA2EAE16E3F725A55F640000
b2okiQtrijkp5Ztfa,McLarty Nissan of North Little Rock,5703 LANDERS RD,NORTH LITTLE ROCK,AR,72117,A721171922AD25F34417DACC88A628C1FCBC60A3D7E8AE2B530000
b6EjA5sfwm5yHSgwZ,Conklin Honda Buick GMC Nissan Hutchinson,1400 E 11TH AVE,HUTCHINSON,KS,67501,A675012712BDFA80164F964661A1DA5D5F261BCCC9EEFADDD70000
b7EzMca9hiDhSp6eQ,Mclarty Nissan of Little Rock,1 COLONEL GLENN PLAZA DR,LITTLE ROCK,AR,72210,A722102842B3FD7EC116E9D83BC3BBDE211733088C08B20EA10000
b8KSowSwqcFj9W7ia,Elite Nissan of Bergenfield,318 S WASHINGTON AVE,BERGENFIELD,NJ,07621,A076213710A9487CDF6A5F357F51B98F3AFE9C69E184829F8C0000
b8YkXzT95hJqHXTL3,Simmons-Rockwell Nissan of Hornell,1151 COUNTY ROUTE 66,HORNELL,NY,14843,A148439690F11BD287710376B85117DB658763A65A6B41BEC40000
bAmNLfqHbEAaKdgsk,Weakley County Motors,841 N LINDELL ST,MARTIN,TN,38237,A38237920787624D28251B7FB9782D7E9D888FC46FB541DD1E0000
bAwHMfjBSazf2yv6f,Champion Nissan,24111 CREEKSIDE RD,VALENCIA,CA,91355,A9135517350182C7EB15281FA21AF5B405C9353CEE5E697CBF0000
bCNuNAzNcujDfvrot,Garden City Nissan,316 N FRANKLIN ST,HEMPSTEAD,NY,11550,A115501304A519B008075B1BF00AD6A119C4CC7563539064050000
bD4nwKaT3zRSLsPMq,Roswell Nissan,2111 WEST 2ND STREET,ROSWELL,NM,88201,A882011701159A16A817B30790EE497C7D94CD6C7BE60024080000
bFcLAY7h38Jqzpwqo,Coyle Nissan,1400 LEISURE WAY,CLARKSVILLE,IN,47129,A4712977264AAD65133A3A1A80A649C35A3AF9FBBC8B1BAEC20000
bGHFC26t6wppCNErv,Vallejo Nissan,3287 SONOMA BLVD,VALLEJO,CA,94590,A94590298970C53ABE35882A802529D449CB5DD66ACA71BA060000
bKwzZgkX7BgDm8qu9,Port City Nissan,120 SPAULDING TPKE,PORTSMOUTH,NH,03801,A0380131983F99EB58CE0A1BDCB057F4180A8EE0C3151D0B430000
bLytzsmxr93YhaCYD,Burdick Lincoln Mitsubishi Volkswagen Nissan Dodge Chrysler Jeep RAM Kia Cicero,5885 E CIRCLE DR,CICERO,NY,13039,A13039898305CAEA11866BA35FD8660C6DE3A1885A460E06270000
bPb5JjNy6h92KSqxC,Ganleys Mayfield Nissan,6060 MAYFIELD RD,MAYFIELD HEIGHTS,OH,44124,A4412432254BAF3200A1896E31B5F23CF6B6B352065CCFE9F20000
bX2dhCoLmFAT74FXD,Carson Nissan,1505 E 223RD STREET,CARSON,CA,90745,A907454317E7823803502A5C4DF597CA5F1A10A42BC44CAAD70000
bY8cXc5sADRhtk9Cs,Speedcraft Nissan,885 QUAKER LN,WEST WARWICK,RI,02893,A028932146B2DDAACDCB0BB98146CBB2B4BB61488452FA53740000
bYgvMbmqSPKovNv5h,Glendale Nissan,484 NORTH AVE,GLENDALE HEIGHTS,IL,60139,A601393497245CEF500D51C321FAAE042FF9D5AC6A7E54EF7C0000
bZDXaHXvnLhSwTmHP,Star Chevrolet-nissan-volvo,5200 STATE ROUTE 30,GREENSBURG,PA,15601,A1560178738AD9555B6DFD2188D9CA0C1BD51C020B42861ED10000
ba9NRXHsYXtwHSe7Q,North Plainfield Nissan,545 ROUTE 22 W,NORTH PLAINFIELD,NJ,07060,A070603724ADF454DCF9EB6CBFB6AD6B93DDC268724BDFBC390000
bechWsxK62F9Z7KdX,Gray Daniels Nissan North Jackson,6080 I-55 N FRONTAGE RD,JACKSON,MS,39211,A3921126419F290C1933071A50EB9894169C33C9AA204D75A40000
bgNNKDNFyFNrxopWW,Speck Nissan,61 E ALLEN RD,SUNNYSIDE,WA,98944,A989449122FD98C80582FA57BABC7F0D96646CF481DA6BCCE00000
bjEifzC4vZiAmCs88,Mtn View Nissan,2100 S MARKET ST,CHATTANOOGA,TN,37408,A374082701AEA72C3F26543D0EA48E2A6F77D871C180C2917D0000
bjimscf8MFa73ND5t,Cochran Nissan of South Hills,3200 W LIBERTY AVE,PITTSBURGH,PA,15216,A15216232058540495F29BA828F53B7A821960C3A9282AE24C0000
bp39eGtLRFPQZQJw6,Gulf Coast Nissan,3000 NORTH 288 FREEWAY,ANGLETON,TX,77515,A775150000287E00EB06C238ADD801C6B6C03363279C8DA8C70000
bqgWs3sjXLkrMa6iv,Priority Nissan-Mazda,8525 LEESBURG PIKE,VIENNA,VA,22182,A2218224066445A27D1DF1102AF55B4B85741C8FBB7DA46F080000
brCefu2jeKPLcJEEH,LAUREL NISSAN,1880 BEDFORD STREET,JOHNSTOWN,PA,15902,A159023426BB340118D4500572DC89818788FD50CCBBD4274C0000
btXmFcAnbExpv6dc8,Brower Brothers Nissan,1525 DEWAR DR,ROCK SPRINGS,WY,82901,A82901570591B01EF7D43D191F131EB3FE706C3D6096EB35B60000
btYxrvFSmcYyHGAdH,Crown Nissan Greenville,2712 LAURENS RD,GREENVILLE,SC,29607,A29607382063646AFAF1056D5BC833BBA9629F84A5AA67DE990000
bvJLsWNpjAjpvCvge,Rockland Nissan,608 ROUTE 303,BLAUVELT,NY,10913,A1091311691C0F72859F28DD360B9FBCFF485DB675496798010000
bxXbxLfhPqcy3FBBH,Nissan of Ellicott City,8569 BALTIMORE NATIONAL PIKE,ELLICOTT CITY,MD,21043,A210434202B5A121C5825D1FA7EA710834F42762CDDC0291FC0000
bxabh8CRTLqp56bh3,NORTH SHORE NISSAN,24A COMMONWEALTH AVE,DANVERS,MA,01923,A0192336021F317D8C957BF44B5A687ABA50871071ED7AA0A09E8B
byQvFRNDGgjMFwrbC,Bender Honda Nissan,3000 Mabry Dr,CLOVIS,NM,88101,A88101837434F17EAACCF5DAF08CB808F0FDA595A0D449FF890000
c2EX79gxkpmtrxbgA,Gates Buick GMC Nissan,143 BOSTON POST RD,NORTH WINDHAM,CT,06256,A0625613022A24651B399F2B6653AA323C9B48A74CB2CBDBED0000
c4y5x46fYmWwrdfAj,D-patrick Nissan,4200 E DIVISION ST,EVANSVILLE,IN,47715,A4771586108EF68DB1CFC87C05F2081B1BDBD2A6C5D331434D0000
cBPWh99zoumHhibmY,Lithia Nissan of Eugene,2060 MARTIN LUTHER KING JR BLVD,EUGENE,OR,97401,A974012407E08701B69147FFB2B781B857D9074B5AA008DCDF0000
cBxL72Rp8TgfqE6vo,Woodfield Nissan,700 W HIGGINS RD,HOFFMAN ESTATES,IL,60169,A601694804347425195C56FA8BC6F605D281630218C38B48780000
cGqi8frZ5ok4TX3Jm,Permian Nissan,3600 N GRIMES STREET,HOBBS,NM,88240,A882401286900E8697849E305A8A4E0E990DEB51CC9DBB96CB0000
cKGkGhLHb62nPbd7Y,Jack Ingram Nissan,227 EASTERN Byp,MONTGOMERY,AL,36117,A361172084CE33F5F83DF92B460F051DE3DC25CBC9B111EB1C0000
cLLRJdgjwYoYbsN8i,Kelly Nissan of Woburn,95 CEDAR ST,STONEHAM,MA,02180,A0218021000201D65DFA41F0149D370E076DF34BCFACD58AFB0000
cLdmf5fwa3R68F4JP,Carlock Nissan of Jackson,495 VANN DR,JACKSON,TN,38305,A3830560189324DC69659A0F046802C9F5FCA2347BC2E6C3EB0000
cPdncaoH2qbJzxRfQ,All Star Kia East,27700 JUBAN RD,DENHAM SPRINGS,LA,70726,A707267915A6B0A1CAD69E1025D162861A806E4067BC22B2B30000
cRSbrJyseh8RYhmax,Cherry Hill Nissan,RT 38 AND CHURCH ROAD,CHERRY HILL,NJ,08002,A080021254EFC02A33F93C33BFE192A5D23351D65228F12A6C0000
cRkXdRzAsgPDrsrzo,Cerritos Nissan,18707 STUDEBAKER RD,CERRITOS,CA,90703,A9070353313E1A4063E8E569E0BBFB59346AFAC9ED43C34C780000
cRxgBpSKoYLWfeMQq,Newton Nissan of Gallatin,1461 NASHVILLE PIKE,GALLATIN,TN,37066,A370667167B7719E990389560A99F776A8DB29C989162B0D720000
cSAt985cw93zJhdWj,Fred Martin Nissan,3388 S ARLINGTON RD,AKRON,OH,44312,A4431252572F3FC9AD9D5ABAE8A6FFF23A690A01462F3D07120000
cT6s4o6uNTrJHxN33,Eddie Tourelles Northpark Nissan,955 N HIGHWAY 190,COVINGTON,LA,70433,A7043389234B022FFFDA88E423BFFD431FB25DB182AAB9FA700000
cbAtaChMhRNphCPmz,Town Nissan,555 3RD ST SE,EAST WENATCHEE,WA,98802,A988027821789067D6A995A76020713EB5CBCADC585EEB967A0000
cgXN2LSiiQmaDr9aK,Conicelli Nissan,1222 W RIDGE PIKE,CONSHOHOCKEN,PA,19428,A19428101147C400EEFD078D130A90DCA4F1AD53F12F181CF90000
cgzPQvuGGcDRz9uwB,Nissan of Huntington,850 E JERICHO TPKE,HUNTINGTON STATION,NY,11746,A117467505BC58FFB50B901B283276142CEB9FC523D4216ACB0000
ckE6mkKSx4QMin7ta,Nissan of Greenville,6403 I-30,GREENVILLE,TX,75402,A754027421A512856D65FB58F77879468B06A0D333202D4DDA0000
ckr4NhZnyyPKFb3tG,DAVE Wright Nissan Subaru,999 BOYSON RD,HIAWATHA,IA,52233,A5223312645A1F55E647753FE763DFA50D31DA691C66CA80800000
ckwiEMHN4jhvPpMTS,Carbone Nissan,4967 COMMERCIAL DR,YORKVILLE,NY,13495,A134951102F9893D5C94923D596667F8E1C57136D721ADF9E70000
coj2557BrCD79ta6i,Napoli Nissan,688 BRIDGEPORT AVE,MILFORD,CT,06460,A06460319611E3DC69F144A7A88DCD17D8F9E539FE1E9854450000
czgag8JsijyhpE9qj,Greenway Nissan of Venice,700 US HIGHWAY 41 BYP S,VENICE,FL,34285,A3428543286DEDB36C8C37D9E46680287246C2B26559ABDD750000
d7xwAa5NJT4J5be6K,Goodman Chevrolet Cadillac Nissan,1003 HAPPY VALLEY RD,GLASGOW,KY,42141,A4214112233A76CC51D3E510FA7CC6ED58BBBE11E475D56C2A0000
dDHgyctg2E3twC42v,Luther Nissan Kia,1470 50TH ST E,INVER GROVE HEIGHTS,MN,55077,A550771251217BCC750B963DB614BAB6EF3434DA69C354B1580000
dSEA5weAEmqnhM5vi,Orr Nissan of Fort Smith,6520 AUTO PARK DRIVE,FORT SMITH,AR,72908,A729087278DCD5FAD99052AEBBE538D66E606D6B283CE30EC90000
dTTrXnR6ZpTWfJLic,Nissan of Paducah,3164 PARK AVE,PADUCAH,KY,42001,A420014005A36AAEFF832E379041BC144F7F3A4B6F9EF3A30B0000
dXJ2aLNasxemhsySt,Robbins Nissan,18711 HIGHWAY 59 N,HUMBLE,TX,77338,A77338422378C6C3418B999E8479447D62C7658EA4C5352C7A0000
dZBX5pg87EoZDNJFR,Fort Collins Nissan,5811 S COLLEGE AVE,FORT COLLINS,CO,80525,A805253940FD1DC4F43938001DF01DFAE3BD541DA377B1C5D80000
dZtXvC7WmTwkfmsGG,Empire Littleton Nissan,5067 S WADSWORTH BLVD,LITTLETON,CO,80123,A801231265ED14F27C1BD90DD1332B2D338C014149B1B185810000
dcv7ZpXqyfDvGPP8y,Ferrario Nissan,200 SPRING STREET,SAYRE,PA,18840,A188401998F1960D338019396A1CA29410C63921D870ECF11C0000
ddpaQDYMnNNoHdy39,Hill Nissan,6401 CYPRESS GARDENS BLVD,WINTER HAVEN,FL,33884,A338843576E3F77A7AB247C0B8B25E5095F0CB41150E49C0A80000
deC7dFNrQv4GRZ6Xy,AutoNation Nissan Irving,1500 E AIRPORT FWY,IRVING,TX,75062,A750624893018925AD49D754F1CB0C761B4225FC2F6C1D313D0000
dfPeFuevXyWsdLnA4,Nissan of Stockton,3077 E HAMMER LANE,STOCKTON,CA,95212,A952122801C523F76A12162FD0AB8FEC1E0511943231EC572F0000
dixMZmrE42jGmWCLY,Loyalty Nissan,16301 PRIORITY WAY,CHESTER,VA,23831,A238310000A1195E56E0CB08E4E59B36DF27DA43A965266BAD0000
djFArxKcpQbB5kxik,Continental Nissan,5750 S LA GRANGE RD,COUNTRYSIDE,IL,60525,A605254098A0A0660E45EE7DC9B90624023251B21AFE7836740000
dkEDdhkQWge7pjWC6,Sutherlin Nissan Mall of Georgia,1855 LUKE KING PKWY,BUFORD,GA,30519,A305194964AFD52BEE8ED376747921A84795C7F8AA7DA4EE7E0000
dpzEvbBocLgng7FMo,Walser Nissan (MN),14750 BUCK HILL RD,BURNSVILLE,MN,55306,A5530661560F806E5E0165087847177664918BD53967692CDA0000
dtZsesMz4E7Huzur2,Wood Motor Company,600 hwy 62-65,HARRISON,AR,72601,A7260122026C81C86C806AE660AD9C1BC92752C3B490B271060000
duhPS9j9uAS7KfoDh,Nissan Kauai,3039 AUKELE ST,LIHUE,HI,96766,A9676614657B3113E406F10F33DCD262E5EBCB05AD270F2DD10000
dygy3Ac3H759NASma,Mossy Nissan Escondido,1546 AUTO PARK WAY,ESCONDIDO,CA,92029,A920292059BB195771E0045AFD2E28A38FF18E5EE69E1D926A0000
e2FXp7MJ6nNRNXHTD,Younker Nissan,3401 E VALLEY RD,RENTON,WA,98057,A980574918092C705079C3F5C7088089C9699556FC2186DD430000
e4WNmvYhkoHrCBXQD,Mcgrath Nissan,945 E CHICAGO ST,ELGIN,IL,60120,A601206888071FAF9FB793A47C2AB0A09F9C2D564835A624BF0000
e5CsQpbG7s8kdDH5G,Collins Nissan,4142 Bardstown Rd,LOUISVILLE,KY,40218,A402183245B6FBF540E8ACCE94CE0D93BA3B68968B5BC109390000
eAM4TQMztPSuifkRq,Coastal Nissan Pawleys Island,8519 OCEAN HWY,PAWLEYS ISLAND,SC,29585,A29585824748883DFC32E8ED51C0DC63C40B1FABAD952EEE040000
eBjwwKqZ7gxmPQFek,Bates Nissan,"5501 E Central Texas Expy,",KILLEEN,TX,76543,A76543559691C2F1A6CC0E5AB0811C8F13DB8CCE9F1F4043830000
eGpRiywJ4Lc3Ze2QC,Woody Folsom Nissan,1609 EAST 1ST STREET,VIDALIA,GA,30474,A30474880145EB6ACD0D244ACAD5A7478B920525BD6B87A2E80000
eN8WcjHxzjzKgKp5M,DARCARS Nissan,15911 INDIANOLA DR,ROCKVILLE,MD,20855,A2085521045B3CBEC591C4B57E5A8EE155943F6557BC2CAD4A0000
eS97SeM8sdLFJFDiM,Rockaway Nissan,600 BURNSIDE AVE,INWOOD,NY,11096,A11096136921DAC25B1636B691F48F28B49CE84EE1E448EE720000
eTBRxHTitAbGQwwDJ,Robert Woodall Automall,132 UNION ST BRIDGE RD,DANVILLE,VA,24540,A245401112E0DECE7B1E7EBCE51309DF572ED89F070DA9654C0000
eX7AodMucLsYtgjPH,Victory Nissan of Richmond,11401 W Broad St,RICHMOND,VA,23233,A23233112240011DE7E6747174238A233AC11C977D16AE099C0000
eYcmRhecX2ASuWJ6q,Pearson Nissan of OCALA,2060 SW COLLEGE RD,OCALA,FL,34471,A3447116183C8692A15C7AD0040E83BDF5FC43098BD4E080290000
eZQ32z4nLCYSNqWCX,DAYTONA NISSAN,950 N TOMOKA FARMS RD,DAYTONA BEACH,FL,32124,A3212420033160853EBC160C7ED0E7A8134782CDDDEF05F44A0000
eZcmYk2ohkpKt7snq,Memering Nissan Chevrolet,1949 HART ST,VINCENNES,IN,47591,A475915519F02BBFE0C49068F2373E7418CCFC74FE58751C350000
ecc8PYZvoSBkWmEoa,Gillman Nissan,26001 SOUTHWEST FWY,ROSENBERG,TX,77471,A774715679C6F313034F7B5CF14E66DCD6FF9B77465E8CD9660000
eeQf5XcdyNqSTirTs,Wallace Nissan,4313 S FEDERAL HWY,STUART,FL,34997,A34997594080CD0F5E5624A0FAD228F7BB620030C09FEB52A30000
eexNwS3MjjLRZ6KAu,Bill Robertson Nissan,928 N. 28TH AVENUE,PASCO,WA,99301,A9930145493578FA76081CA0E3EBBEF2940578F8CA318FB4930000
efBAy749uMgfJwcTQ,Martin Nissan,5240 GOLF RD,SKOKIE,IL,60077,A60077119935DE5E8A777362AE9DCF5FEA1857A2348946A0E50000
ehJfaHEhkbn8CuoZE,Tom Wood Nissan,4150 E 96th St,INDIANAPOLIS,IN,46240,A46240373819EA8A8E3FDA2693094E1DB556E132F3D92274340000
ehemZGqiz7JuMyjC3,Tri Star Nissan,4 SUPERIOR WAY,UNIONTOWN,PA,15401,A154012604042CB6002CE53D58078F7D42B7F926CAE07AF81D0000
ei4K9uQJM3JKSDDMQ,Clinton Chrysler Dodge Jeep,2850 Valley West Drive,CLINTON,IA,52732,A527327701A67F89FAEC9295E1693A70CA7B2B2CAA850475060000
ey9SuysMYZBhJAdT2,Gainesville Nissan,3915 N MAIN ST,GAINESVILLE,FL,32609,A326091499B927A082BD35CFC9CE8802BF4E376B675EF887CA0000
f6yRnNNQuEscoECAM,Ross Nissan El Monte,3428 PECK RD,EL MONTE,CA,91731,A9173132228989554D56A223DC832DD5868AE805FA6B1F33F70000
f8TgRzkTsYLQmjiYW,Hertrich Nissan of Dover,1378 S DUPONT HWY,DOVER,DE,19901,A199014496602C9D06A669B387A3687E9E6A6CA34CA57A01A30000
fDfEKYc9B9NSmh68F,Fuccillo Nissan of Latham,976 NEW LOUDON ROAD,LATHAM,NY,12110,A121102107D23B74C71E7465D465FF056966F45F01CB88F9C80000
fNytyCdJBpSz3v2RQ,Gettel Nissan of Sarasota,3530 BEE RIDGE RD,SARASOTA,FL,34239,A3423972338BCDC8D5BFF388B81F87A746F8D1E8E65B6417780000
fSHPCv8HbyEeBCq7Q,DARCARS Nissan of College Park,9330 BALTIMORE AVE,COLLEGE PARK,MD,20740,A2074013927BEA794C11071665A444062AB724978C6CBB37200000
fbGjcMQ9nozjG6wSY,Tacoma Nissan,4030 SOUTH TACOMA WAY,TACOMA,WA,98409,A984094619CCCF299613CDC2F7B7876DF7473D9064AA7148380000
fepYiYRmw94u5mPjA,Nissan Of Corinth,813 S Parkway St,CORINTH,MS,38834,A38834000033B0EA8635DC10BDFC0918F6E2F194F2967991B60000
fmC7qEcKg2WTNKAhS,Butler Nissan,4500 RIVERSIDE DRIVE,MACON,GA,31210,A312101328F4A84251E67D52007DA780C17118F8AEBFF2B6380000
fuMuAvKbSTRDt5EZy,Davidson Nissan,18423 us rt 11,WATERTOWN,NY,13601,A13601532733C7BB1DDE867D69C4E9DEC3018FB3F5AFB8D34D0000
fzwvTQZjY6ht8Jj4F,Casa Nissan,5855 MONTANA AVE,EL PASO,TX,79925,A799253388F100149573840FBCDC0CB0986285DB639729C9B10000
g3HMGGTmNTuhLzZi3,Nissan World of Red Bank,120 NEWMAN SPRINGS RD E,RED BANK,NJ,07701,A077011599362EF7B4EF503CFE97D53DCA50D6FE9A21A7BED30000
g4eKQhykYYan3jjke,Gerweck Nissan,15407 S MONROE ST,MONROE,MI,48161,A481613785052D2BF838866C2DE4D15DD68C1E1C120BF616460000
g4u68hNDP98Spmkz6,Simmons Rockwell Nissan,224 COLONIAL DR,HORSEHEADS,NY,14845,A148458400AE0BA824C0ADC7BCF50A9EB163D82F8D2663B08C0000
g72W4K6vxenz72Xey,Hart Nissan,6564 MECHANICSVILLE PIKE,MECHANICSVILLE,VA,23111,A2311136972E207C7969F25488BFBBDB52584A9E0512D5F9010000
g8sdrd2dRYnbCumaK,Kraft Nissan,3277 MAHAN DR,TALLAHASSEE,FL,32308,A323085536AA7C3071BC4E1C70DBBD40230D1D995CD48B410B0000
gD8FHEu5EDErQEmZn,Sorg Nissan,2845 N DETROIT ST,WARSAW,IN,46582,A4658222774A15D991F3947880305E65B2583EDEAFDBB631270000
gDF7fGNga6MSngN2S,Nissan 46,440 ROUTE 46,TOTOWA,NJ,07512,A0751218265DC21831221A3A2FDBF796D01FB22742E1F385E60000
gETEpE8nqt38KnyuZ,Nissan of Lithia Springs,811 THORNTON RD,LITHIA SPRINGS,GA,30122,A301224441FF1C619B2B764E7FC0EBA78B4EDE57FF39D76C190000
gPBjQRdpZw5prmrrc,KC Summers Nissan Mazda,2404 LAKE LAND BLVD,MATTOON,IL,61938,A619385952E88C4829F4F11893D90183764780A9C7E0952B5F0000
gQbkMnhFKjekDTcXL,Ron Marhofer Nissan,247 HOWE AVE,CUYAHOGA FALLS,OH,44221,A442214903BC1980066205207D0491B0B8D70CD1225C976EF40000
gXuiDvPygzjGDySdf,Pinnacle Nissan,7601 E FRANK LLOYD WRIGHT,SCOTTSDALE,AZ,85260,A85260100084887B287F191B6D28A5A4DACC57A13E8178C1B60000
gaGyPnXKTh5DHEdQp,Hudson Nissan,7331 RIVERS AVE,NORTH CHARLESTON,SC,29406,A2940646120FCB728DCB6A2681920324B146E4A8B8B9BE68F40000
gaNf72MH6Tj8pKgut,ED MARTIN NISSAN OF ANDERSON,5400 SCATTERFIELD ROAD,ANDERSON,IN,46013,A4601331963630560D71F6EF599B4ABCF23E1DDAE2DBE316F70000
gdJYLm7pZcHjDKoaf,Autocenters Nissan,1825 E EDWARDSVILLE RD,WOOD RIVER,IL,62095,A6209522759970C5B296E0294D6EB92037DFE5F97712EA61DD0000
gf9neXCDvtT8AiN6t,Five Star Nissan,839 WARREN DR,WARNER ROBINS,GA,31088,A3108807143ADD3874C051965BF8B4FF3E7F5F1796C18127ED0000
gvNFT7Q4aRRH5GaMM,Power Nissan of Salem,2755 MISSION STREET SE,SALEM,OR,97302,A973022055E308573128DA3D9959AE5BE27D8558D9F967E5BC0000
gxAQWqSfborgNR4E9,Garlyn Shelton Nissan,5620 S GENERAL BRUCE DR,TEMPLE,TX,76502,A765025822C6F8BACFD2D26617639B94FE881D70CFD88A7E7B0000
h3y7vJTQPpruNPBx7,Rolling Hills Nissan,3801 SHERMAN AVE,SAINT JOSEPH,MO,64506,A64506367763D80B17B7054E0E22369D0C3EE0E7837B54218D0000
h4xFEwzez2TK6Adpw,New City Nissan,2295 N KING ST,HONOLULU,HI,96819,A9681945052B6DD30ECB3F17E9F12A4FAF7031B98DE18706B10000
h7mhuEEdNXt68ss5x,Lynchburg Nissan,18588 FOREST RD,FOREST,VA,24551,A245514051D207D94CD4948C5C1FF9DDE0F2F1DD55378363880000
h9rgFLuRJXEXaGQGv,Russ Darrow Nissan of Milwaukee,11212 W Metro Auto Mall,MILWAUKEE,WI,53224,A532244408F3BB504CAC3505CB1E98D026779B67753FF319690000
hBPCAeegaZohSXhit,Suburban Nissan of Farmington Hills,37901 GRAND RIVER AVE,FARMINGTON HILLS,MI,48335,A483352831D5EBDA61A63FA138AD20CE07152965F70152E8860000
hHjPyfHJ9ep3SMz2j,Lynch Nissan / Auburn,140 WEST CREEK PKWY,AUBURN,AL,36830,A3683070073A9373438D79302D0D007C75E99C56D5B41172940000
hPKw7CvGe6gpP9Gev,Rock Hill Nissan,550 GALLERIA BLVD,ROCK HILL,SC,29730,A297306500C461078017AF57D6F468DCD444F54391C94F9B250000
hTJBN9JC7MtrkvfXy,Mckinnon Nissan,135 PRICE DRIVE,CLANTON,AL,35046,A350464374A74918547D70EA8B6CE9D860C0BFD090B3D97F850000
hpDjC6mk9GZtZeXZ7,Lithia Nissan of Clovis,370 W HERNDON AVE,CLOVIS,CA,93612,A936120242900DBF8DDEA8A84306D6C5106F0A242170D2D3ED0000
hr8YKLByPEEnQKGSY,Illini Nissan,615 W MARKETVIEW DR,CHAMPAIGN,IL,61822,A6182213691B8726E4A1B35E148E28CB1A1D44FAED5A66F4A40000
hu357LKzBdm7EycdH,Billion Nissan of Sioux City,3715 SINGING HILLS BLVD,SIOUX CITY,IA,51106,A51106514300F1246A6D65DA7F588A26D9BC55159F826F2FF80000
huhWZQk6At7rjNZZD,Hall Nissan Chesapeake,3417 WESTERN BRANCH BLVD,CHESAPEAKE,VA,23321,A23321510751218F8144F4DA9CD9F530E2358F9C2E3ECDF6C80000
hyffEdL8o5wwKfann,Tim Dahle Nissan Southtowne,11155 S JORDAN GTWY,SOUTH JORDAN,UT,84095,A8409544223374D81DD4917F137C2739E4C65DFC656349C4740000
iA7x386fB6WRCoweY,John Deery Nissan,6823 UNIVERSITY AVE,CEDAR FALLS,IA,50613,A506135128D347BA331FF74D1ECDA887C760CECB1C2E8165100000
iBXprY3HS6RHxc6Tz,Nalley Nissan of Cumming,1310 BUFORD HWY,CUMMING,GA,30041,A300418210FECC4570BA9271A558CB4E182DA3CB930A9D39E30000
iFtHvfBXEZkXaTbSS,Ardmore Nissan,265 e lancaster ave,ARDMORE,PA,19003,A190033229B2E64E667962A2B906C0EC189BA264F088CDC2320000
iFyqFMiz5eDYKiGkA,Matt Bowers Nissan Eastern Shore,29788 FREDRICK BLVD,DAPHNE,AL,36526,A365269584F9D6BDF3E6132D53C582D5AD83B4448AD84B2AE90000
iMrPdugz5FWKcDh4W,Faulkner Nissan Harrisburg,3925 PAXTON ST,HARRISBURG,PA,17111,A171111424AE30B96238EA48549A52B2F675922992B25C2D510000
iNhua2u6BWWdq7QWT,Straub Nissan,205 STRAUB DRIVE,TRIADELPHIA,WV,26059,A2605914299342BB1265AF649C4D4368D997C5AF7A7C563BFC0000
iQJ948W3eKdgewFhe,AutoNation Nissan Chandler,1350 S GILBERT RD BLD A,CHANDLER,AZ,85286,A85286149417C2104B824CDD9EE7C1C9A002E7FD2EFEC4D92D9E8B
iTteZqx5H2JHoRMZw,AL West Nissan Rolla,2540 NORTH HIGHWAY 63,ROLLA,MO,65401,A65401780392642089E92196B20536B4EEB0CF5A1AD74619800000
iW5bTXApDZiua4ciM,Nissan of Tustin,30 AUTO CENTER DR,TUSTIN,CA,92782,A927828401AA6CAF338EF18F449A9B69D84C463C17675E05BA0000
iX4tFgxNs9TN4BPX8,CMAs Valley Nissan,297 LEE JACKSON HWY,STAUNTON,VA,24401,A244015504F5E68EF2B44CA419239BE1D7A823DA675364E9130000
iYyaHCKjq8H3h9akr,Mears Nissan,4825 TUSCARAWAS STREET W,CANTON,OH,44708,A447085117398F2D971BB0D82EB79F58BAA0DF8D29CFAC548D0000
iaakwydeKKxSLM9aj,Gwinnett Place Nissan,2555 PLEASANT HILL RD,DULUTH,GA,30096,A3009647300DDD02F734CF419D2F2D52D0EDCC3DECA11C5D540000
iiHrkthHZYeAZK4Rw,Vission Nissan,4000 W RIDGE RD,ROCHESTER,NY,14626,A14626352897D40EDB10715422829DAEADEAE6C917FCED35890000
ikNXRrissxywXZoqk,Stuart Nissan,301 N INDEPENDENCE ST,ENID,OK,73701,A7370140290DA529C278A371533F1F0887BE829FDDB89F688C0000
imvNmkMKbeAGJRoMi,Tony Serra Nissan,1724 CHEROKEE AVE SW,CULLMAN,AL,35055,A35055539594AD0F6395633474C0E3A04F20FC5E0CF14BA8EA0000
indz9Zdn7WpX6yZDe,Montrose Ford Nissan,100 MERCHANT DR,MONTROSE,CO,81401,A814013017EB2B9F8338E1BBC9ED577928230108ED568B1CC30000
ipfictDS3DgD2t3sk,SUTHERLIN NISSAN CAPE CORAL,2201 NE PINE ISLAND RD,CAPE CORAL,FL,33909,A339091704901303F7B0E0DDBE6558A0208E9C3B5FA06102EF0000
irSXXWS7K3YHNt3fL,County Line Nissan North,522 WINSTED ROAD,TORRINGTON,CT,06790,A067902963B9CC7998255DA34331DBFD6F4064CFDE63649AF80000
iraNH8zAZx6XaRYyu,Selma Nissan,2525 HIGHLAND AVE,SELMA,CA,93662,A936623305A6B7025703BFE0D3FBCC45E9D6E8835FBD1158160000
j2mENuxq5HcWYmTui,Antwerpen Security Nissan,1701 WOODLAWN DR,BALTIMORE,MD,21207,A212074006169A648816CED8414D1E45100231FF75DAAD47970000
j3KtoWxY5JKtcuBJe,Rosen Nissan,5505 S 27TH STREET,MILWAUKEE,WI,53221,A5322141056F931E6BCF08F25B1353C2D01471966CD5EEEF640000
j4uBSFLEud4wT5wnc,Ron Bouchards Nissan,490 OLD UNION TPKE,LANCASTER,MA,01523,A0152330196748595446F873F2D3B6EDBFF6A700AF0E4DEC8B0000
jFcgaxbRSrgyzNHDz,Eastern Carolina Nissan,3315 HIGHWAY 70 E,NEW BERN,NC,28560,A2856069295AC21AADADD96F67333930FAD3DF82C5B0A65CEF0000
jMdNJQwCuFHkrWHkg,Nissan of Richmond,11401 WEST BROAD STREET,RICHMOND,VA,23233,A23233112240011DE7E6747174238A233AC11C977D16AE099C0000
jSNtjXfCbp5B3XCLk,Sims Buick GMC Nissan,3140 ELM RD NE,WARREN,OH,44483,A4448326104FD2E251E73B302EA313E5D0EAC43A79B7BE747E0000
jYbrudZxhyd3PPNXS,Rothrock Nissan,1648 PLAZA LANE,ALLENTOWN,PA,18104,A181049703F09D1E878759444C1D4D81DC6616D579E21E34ED0000
jh5e3zuF5ZxdJyfeg,ORR Nissan of Hot Springs,4111 CENTRAL AVE,HOT SPRINGS,AR,71913,A719137294841D786718D196C775DE1724BF642EAAC308A3450000
jhHJJP9frEamMcdDK,Napa Nissan,510 SOSCOL AVE,NAPA,CA,94559,A9455934063F7D5E148A686A1A5217242810F62E215205B32D0000
jidxJW5dcPL4ksS6W,Dick Smith Nissan,9940 TWO NOTCH RD,COLUMBIA,SC,29223,A292234381BD235518E9D673AD4257FFAFAF40C8BE76AEEAD70000
jnWx2oR9L8FLakzPC,Jim Johnson Nissan Hyundai,2200 Scottsville Rd,BOWLING GREEN,KY,42104,A42104410611149AA6E1B21C47332B6B2B4CA2C5C89ED86DAC0000
jvXEi4RunvQkWus3n,Covington Nissan,1915 HOT SPRINGS RD,COVINGTON,VA,24426,A244266104BE1F013313981ED9BCE0AD674C9308F3F6C9A9E10000
jzpeDgRT6zmpqMGS8,Larry H Miller Nissan Corona,2575 WARDLOW ROAD,CORONA,CA,92882,A928822873DE27F2933B5C2E3FEA0358163F735C455CE6F5E40000
k37wnvjfL8f4wYgex,Nissan of Bismarck,1026 NE 57TH AVE,BISMARCK,ND,58503,A58503635034B0DDFED31563F69E1386A584E6536181A837F00000
k97nHzkzbM5hxwenw,Superior Nissan,3372 N COLLEGE AVE,FAYETTEVILLE,AR,72703,A727033815E931BCEEB58B7C8D47C11E14CA0504C2986B3D090000
kCRSHZiJ6Sg69PX2z,West Herr Nissan of Lockport,6069 S TRANSIT RD,LOCKPORT,NY,14094,A140946392290B28D953F7B41E8E44CDD5427D6D84B6BC9ADE0000
kEivs2FwugqwEGkTD,Courtesy Nissan of Tampa,3800 W HILLSBOROUGH AVE,TAMPA,FL,33614,A3361456997BC93631A91164ED332ECC57F90FB769E05A9E030000
kHykdiqp3AxSMCwEz,Nationwide Nissan,2085 YORK RD,TIMONIUM,MD,21093,A21093424212CCB8C123F8A774404BE87928FC6F25ECB3B1390000
kLifyZyATe4q6DagX,Williams-woody Nissan,3600 S LIMIT AVE,SEDALIA,MO,65301,A653010503736ABA69344FF924D3E75C7119BA3514F9D7A5920000
kN7efp5N9xbdpprqy,Ray Brandt Nissan,4000 LAPALCO BLVD,HARVEY,LA,70058,A700582373635EB9D3E7C217F1ECB4B3EBFC91215C6B8DB4BF0000
kRkS6NK4KNezg8RgF,Post Falls Nissan,1800 E POLSTON AVE,POST FALLS,ID,83854,A838545730723CF9C5224A135EE4E406B964629AB97735A66A0000
kRkpzYSEPWm6CPjA2,Nissan of Jefferson City,3219 MISSOURI BLVD,JEFFERSON CITY,MO,65109,A65109572217CAFC4552F445C83C11200722806F8FFA0F784C0000
kcW4AB3oeBKajqJtP,Sheehy Nissan of White Marsh,5361 Nottingridge Rd,White Marsh,MD,21162,A211620000386F4B5897E6A04A63F3428620FB2F5C41B89DE90000
kfvDmgES48vnLpPi6,Sutherlin Nissan Cherokee County,101 HARBOR CREEK PKWY,HOLLY SPRINGS,GA,30115,A30115954511ED9E147BBBB50A77692FB0AF6289C8A77CD9910000
kpiTHxZWYdxnFCNZk,Georgesville Nissan,1260 Auto Mall Dr,COLUMBUS,OH,43228,A4322825679DC82E50737CC9C0CB6F1D6188C76786E8ED729A0000
ky2acneTsqgqGG239,Kerry Nissan Hyundai,8053 Burlington Pike,FLORENCE,KY,41042,A4104212473B55DEE0BCE29B56227B2AA1EDEB5D36CAF9AE970000
kydnFzTJBsXPA7hqT,Nissan of Newnan,783 BULLSBORO DR.,NEWNAN,GA,30265,A302651035D8451CE7A19DBE7F4263D2B92901E0274E05827F0000
m49q5SwE3d9yv5nH7,Timbrook Nissan,10345 MOUNT SAVAGE RD NW,CUMBERLAND,MD,21502,A2150249259A3BF2B8F6578809F32B2429A18D28670E381ABA0000
m9wY62DpXdk2CPc5c,Ben Mynatt Nissan,629 JAKE ALEXANDER BLVD S,SALISBURY,NC,28147,A281479056779026B01F56966904BED535A18B888600B68B660000
mD2LNxn4qi4mnEPq7,Mike Smith Nissan,1515 I-10 South,BEAUMONT,TX,77701,A777014758921A40E6ED688F1FCF46B347F8D4A0872DB83A780000
mDfLqQY5yonP2v2zo,#1 Cochran Nissan West Hills,7900 UNIVERSITY BLVD,MOON TOWNSHIP,PA,15108,A151082594F684CAC23883B8735EAD8EE31578F1A073F4C11C0000
mLHNuyshzgaAsP2rp,Porter Nissan,303 E CLEVELAND AVE,NEWARK,DE,19711,A19711379328C17992346671CBE18D4C6254740124154EDB680000
mNLA4iqKJMwEADLow,Matthews Nissan Volvo,3101 VESTAL PKWY E,VESTAL,NY,13850,A138502207B380FC597250009B2CFACD9D437FBD83CC84F8A80000
mNTDvf4aWWsNufZHu,Warner Nissan,1070 BRIGHT RD,FINDLAY,OH,45840,A4584069876794B047287FB0C118F0C827FB9828AA450ACA9C0000
mT2aJb9RBhuTuNR67,Battles Nissan,60 MACARTHUR BLVD,BOURNE,MA,02532,A0253239187774DDA7FC85A69C2EBC0D955A0BA956AD30E2700000
mTFhPvz63SiuyiDer,Friendship Nissan of Forest City,156 OAK STREET EXTENSION,FOREST CITY,NC,28043,A2804335801216DE3497FD5CB8A599D055AE590CF97E7AF84D0000
ma2aNJDhpTgBCod35,Asheboro Nissan,1635 E DIXIE DR,ASHEBORO,NC,27203,A272038852D331739441D0278A4ACD8302B30DDDE38EA4831D0000
mezCMK7CwPNcGonLn,Quirk Nissan,600 SOUTHERN ARTERY,QUINCY,MA,02169,A02169461262F7E5B79A043A53E370C3A9593C0C42486BACFA0000
mf9Fj56vicMAMgoDW,Watermark Nissan of Madisonville,1801 LANTAFF BLVD,MADISONVILLE,KY,42431,A4243194038C9A6994E169016DF619171AFB87E76E4BA0DB2A0000
mipAzEESNnBfduiFQ,Girard Nissan,425 GOLD STAR HWY,GROTON,CT,06340,A063406214EB4C0BE0EB877A9423DD1B2D8500B2CEF9A5492F0000
mjoxvT9xQoawJevrL,Boardwalk Auto Center,1b Bair Island Road,REDWOOD CITY,CA,94063,A94063276433533818054B288E095FA02542B90F15E9F2305CCF31
mmXpSB5vij3JTjJ9T,Valley Nissan,1010 S 1st St,YAKIMA,WA,98901,A989013404012ECAA599D4B81DDFA5988943B2205CF26A88ED0000
mp9mkfiX9DRoK9Gbe,Mossy Nissan Chula Vista,1885 AUTO PARK PLACE,CHULA VISTA,CA,91911,A919116179AAD422463A7D71260D2E4396DE8C57D4826718C00000
mtnRY6c3zXkETdnG9,Patriot Nissan,93 S BROADWAY,SALEM,NH,03079,A0307930254B4703A44281105B4D99040F8A5CCA63E83E3DD10000
mz6ZqozGKEaoBsN73,ORR Nissan of Wichita,10625 E KELLOGG DRIVE,WICHITA,KS,67207,A67207191394BA39D24ED8BE8436699832B9D80B53CB7788CA0000
n26aPy9mTseTqZdjY,Boulder Nissan,2285 28TH ST,BOULDER,CO,80301,A8030111101DF411A5DE022284B7DF35E65E00F924D923F1330000
n4QhukkPCpdxYGhK5,Grubbs Nissan,310 AIRPORT FWY,BEDFORD,TX,76022,A760226404925274D31DAAC936AFA6CD3D21C44AA90C16F1AD0000
n4bkXxz9odviYEFuR,RAY BRANDT NISSAN SO MISS,11600 BOBBY ELEUTERIUS BL,DIBERVILLE,MS,39540,A3954087123E7B11403AF5B61AA2D91B61114C38420FEC6B4C0000
n8sFCLzkykeed3tRL,Lee Johnson Nissan of Kirkland - ReviewPro,11930 124th Ave NE,KIRKLAND,WA,98034,A980348111246C17043868EEB0CBAD287AFFFC4B4D1E8212D00000
nA6uiz3iYZ4T2tpHK,Tonkin Nissan,26700 SW 95TH AVE,WILSONVILLE,OR,97070,A970709206E99177B223F69F257489EFB90B832D9BFF18C0170000
nAPuujQtMdK9imgG6,Prestige Nissan of Legends,1900 N 100TH TERRACE,KANSAS CITY,KS,66109,A66109378308A44FFF6B5D2F00599A1BFE0D75BC94662704520000
nCCu5RtQQJzrohh4Q,Rob Green Nissan Hyundai,1080 BLUE LAKES BLVD N,TWIN FALLS,ID,83301,A8330133039890BE3E68746F1A68FB7EC765498A6B4F8C61800000
nD9nGyiGiEAZYRb8f,Deland Nissan,2600 S WOODLAND BLVD,DELAND,FL,32720,A3272086402A2AA6728FBF8DE4C5EE9BE2FEE34DF15E31BB610000
nDEcpt7p6RJDf4oEf,Freedom Nissan,1095 SHELBURNE RD,SOUTH BURLINGTON,VT,05403,A054036929BB2C24F81C39732445F4765E445A3074F4ADB1AF0000
nFyDmviLLwFd35EhZ,Advantage Nissan,5101 AUTO CENTER BLVD,BREMERTON,WA,98312,A98312334322A0E7AACFFDAFF5FEACCFBAB4894A98896644FD0000
nGGAc8qpurkGqR7uC,ORR Nissan,2323 VIKING DR,BOSSIER CITY,LA,71111,A711112133175AEF032ACB9850D6F4AB24F476D4F8C7314C2A0000
nGurLaDq7eQX9hDRA,Bayou Nissan,13050 I-10 SERVICE ROAD,NEW ORLEANS,LA,70128,A701283510F706576804524FB9C661D5A0F25786AA7C5F55F50000
nJgANZRxyEGzKSvDM,Grainger Nissan,1550 CHATHAM PKWY,GARDEN CITY,GA,31408,A3140830240564A59204D1681164572C46E038208F10647ACF0000
nL9GefBba6YhozXL6,Hall Nissan Virginia Beach,3757 BONNEY RD,VIRGINIA BEACH,VA,23452,A234523405B20429B864F0D4372AA312690E56C8CFB7DB4D330000
nNt29km2LFWXx6iPy,Sparks Nissan Kia,1100 AUTO MALL DR,MONROE,LA,71203,A712035522801DF871D4AB4CF20609C0782C30FA36F73DB7130000
nYLkWMbujZEntjFnh,Bommarito Nissan Hazelwood,661 dunn rd,HAZELWOOD,MO,63042,A630421725D26644C5BA85A91A51DD15AFAFB94B37EFB538690000
nbYXtFf6DX7tmye9y,Mclarty Daniel Nissan,2501 SE Moberly Ln,BENTONVILLE,AR,72712,A7271242932B9B984AC7E197EC521BDC384D59B397F2B98DEB0000
nhfptxGEcoDHw5GzE,Nissan of Victoria,6003 N. NAVARRO STREET,VICTORIA,TX,77904,A779041766B5BA56A40EFBA8F497CD831D391F868F089DBC780000
nqNWtXfgiBrgBDXFx,Dick Smith Nissan,5536 SUNSET BLVD,LEXINGTON,SC,29072,A290729262FE40288F58B9D1919EAE540AE9E833453D39313A0000
nqZb5FyGiaSnJiMyc,Landers McLarty Nissan,6520 UNIVERSITY DR NW,HUNTSVILLE,AL,35806,A358061718C4C5D7EBC9CF8830830D7E0CF3134ED3782526F90000
nrg5hGYpYReMKaMHR,Lorenzo Nissan Fort Lauderdale,1051 S. Federal Hwy,FORT LAUDERDALE,FL,33316,A33316121540D90654AC8099E2F2E0DFB7C275D7DCE2BD00040000
nw8m8JxTv4DmTY5eW,Red Rock Nissan,2582 HWY 6 AND 50,GRAND JUNCTION,CO,81501,A8150157052ABA5F5B409CE972BC43972E446190D212F100370000
nwJjPmiRDpJkab4r5,Jeff Wyler Eastgate Nissan,1117 State Route 32,BATAVIA,OH,45103,A451032380D4953721C63FCD815E9A99EFD9841694D0B1926E0000
nzg2xpHtRfRPuKv5M,Beck Nissan,252 N HIGHWAY 17,PALATKA,FL,32177,A3217796068F6C99BEE6199A8A836D404DE50485514FC3065F0000
o9kejurZB55LKLM83,Cowles Nissan,14777 JEFFERSON DAVIS HWY,WOODBRIDGE,VA,22191,A2219134160950461E21FDA6FA42051EDE6FDA3924CC76BF3E0000
oCncNWKCJ5HbxgxeF,Herb Gordon Nissan,3131 AUTOMOBILE BLVD,SILVER SPRING,MD,20904,A209044996CFC65B3E77C60574B4E4878AF8D4DEFD40D338300000
oD6QeHrzqKWjwK2Ar,Nissan of Lafayette,1 N Creasy Ln,LAFAYETTE,IN,47905,A479054410112A7032E2020939618A2B488F00B1EB6943EB420000
oDyifMGPMAJbfyFFh,Team One Nissan of Alberville,9736 US HIGHWAY 431,ALBERTVILLE,AL,35950,A359500108FCE9D075C0009AC296498141A0E7214BA7A354360000
oHFeB42Si2pf34kx3,Auffenberg Nissan,1690 NEW CAR DR,O FALLON,IL,62269,A622691670C696121993595A76C6990A118CE0FEAECE8BC0EE0000
oKNFEu8ABc4K29gfZ,Ed Martin Nissan,802 N SHADELAND AVE,INDIANAPOLIS,IN,46219,A462194800A02B5C11FEC00BA43F7EEA1900D9659A4FB7C0170000
oLrLg8zvktyXvd5SJ,Cardinale Nissan,1661 DEL MONTE BLVD,SEASIDE,CA,93955,A93955423938EBE72865C77747CB96D2ADF41F0EAB697B25EE0000
oY52ouPxLZXS6WbD4,Nissan of Elk Grove,8590 LAGUNA GROVE DR,ELK GROVE,CA,95757,A957578707DA065F0225821B6BC7D0104C2CB9390640DFA5A40000
ot4pDkoYStXqHSeYP,Mtn. View Nissan of Cleveland,131 pleasant grv rd,MCDONALD,TN,37353,A373536045498F0AEFFC8249A6A8F3CB0896FC125E5D4F77A90000
oviiaZfD4z3bQZAcb,Fenton Nissan of McAlester,1441 S GEORGE NIGH EXPWAY,MCALESTER,OK,74501,A74501725829983F4EC78A69BE10E2EAE879158DA80404C43F0000
p3kjp6JkcuvZqPFZw,PETERS NISSAN OF NASHUA,280 AMHERST ST,NASHUA,NH,03063,A030631706EF642B754723B177DB015F073E7C19872E324C360000
p3wns86bQDE4tCZey,Greenway Nissan of Florence,248 COX CREEK PKWY,FLORENCE,AL,35630,A35630157111A09DDB4A20161568F8E315285B98F2FD0773D00000
p7rBdNRyZuqNhXwJf,Nissan of Sumter,1260 BROAD STREET,SUMTER,SC,29150,A291501942915F1C22956E8F4BA39559CE3EE9015D45EDC8ED0000
pCnaoBhs8k4hH379D,Crown Nissan Greensboro,3900 W WENDOVER AVE,GREENSBORO,NC,27407,A27407190348FE3CF7C1B685E4A9C7446B2E4A2B95897A6AD90000
pDm2Gjj6Gci3LaumR,Greeley Nissan VW,2625 35TH AVE,GREELEY,CO,80634,A8063441246E2107D740467865BA595BA34F203E57EB12785B0000
pENZyNM9fWDSF9usX,Surf City Nissan,17331 bch blvd,HUNTINGTN BCH,CA,92647,A926475910C38CB75069E3549E6A2FA6C1E7C25500F22018BF0000
pEpvXoBaxJQqYJKtH,Nissan of Yorktown Heights,3495 CROMPOND RD,YORKTOWN HEIGHTS,NY,10598,A105983515EDBBC0C7EDD9576E8517109C8CCB749728E74F1A0000
pKzBwQnXPArMSbxNG,Charlie Clark Nissan Brownsville,2547 N EXPRESSWAY 77/83,BROWNSVILLE,TX,78520,A785209098DEE42EEB5F36C68457079D6D999ED9260F95315731FC
pRipADLQwm2KsRySN,Napleton Nissan,1301 INDIANAPOLIS BLVD,SCHERERVILLE,IN,46375,A46375131358D70F503E8F8797F05BB1FB92ADCBFCE5AB67FE0000
pT6qSYcEztymC7BFM,Crown Nissan,5151 34TH ST N,SAINT PETERSBURG,FL,33714,A337142432C8D4A5108E64FAED4D502577F11B91AA5ECEB4F20000
pYGL48F7FfBibchKC,Gateway Ford Lincoln Toyota,1055 W ANDREW JOHNSON HWY,GREENEVILLE,TN,37745,A377451437A815740AFF18BD068E662C53039448F0AB73C4ED0000
pZto8qWbvdrDPvTuM,Uftring Nissan,7400 N ALLEN RD,PEORIA,IL,61614,A6161411106B90DB38DA9DAF975C78B9373C87C13C95A9CC770000
paTHyDTW8G75wGiRm,Reineke Nissan,1350 N CABLE ROAD,LIMA,OH,45805,A458051408991D3D62AAE90CFA13C50ACC5BB42C597BC99CDF0000
pbGP8RDFy2Tv6Ev9s,Darlings Honda,114 SYLVAN RD,BANGOR,ME,04401,A044014221A50A558D8D812F9679096ADC512F9B259A50E1110000
pbjL5M6isnSM75TnH,Cedar Park Nissan,2121 SOUTH BELL BLVD,CEDAR PARK,TX,78613,A78613649002DD93E6005ED8CF598597F04AAC30BBD030E2C00000
ph6pTJje8dthpFqtA,HGreg Nissan Kendall,17305 S DIXIE HWY,PALMETTO BAY,FL,33157,A331574365FE4048B1C851165AFCC238D75C399A6CA4C0B3AC0000
pifwkC8QhsrEy5Jtp,Larry H Miller Nissan Highlands Ranch,1320 PLUM VALLEY LANE,HIGHLANDS RANCH,CO,80129,A80129190509E7E438A4C6E017B098516241EB73C9C3C7A7AB0000
pkp2WarXi8F3KG5Eg,Nissan of Keene,544 MONADNOCK HWY,SWANZEY,NH,03446,A03446213367A4E966A9B94DB6CDAFC0F356250AA72F171F2B0000
pmjQxsKjwHZsf6k4Y,Royal Subaru Nissan,3901 Route 281,CORTLAND,NY,13045,A1304589801A1F9C8967F1529C8C464D44936DFC00C456B6410000
prwkemoCZWA36pzCG,Lebrun Nissan,396 GRANT AVE,AUBURN,NY,13021,A1302182013AA922A5BD56C0F279F80B2BB924F12A06C4CEC60000
ptR4DndxJisvp9nKw,Hove Nissan,1405 N. KINZIE,BRADLEY,IL,60915,A609151415A70FE7C79C327A35EAB08476AF0941177C8CCBEB0000
pyKDTaky6jm9QQTXB,Nissan North,8645 N HIGH ST,COLUMBUS,OH,43235,A4323510001B4669F865DC417F8A70DC454F5E1326A0B4E1210000
pzGgzH2ZWBP8J2A6R,Valley HI Nissan,15722 VALLEY PARK LANE,VICTORVILLE,CA,92394,A9239408453A6CC4B10A846B163AD839CA2DDABC6F7128C2020000
pzMunDMwFCL8K3LYX,Hyundai Serramonte,1500 COLLINS AVE,COLMA,CA,94014,A940143210572B7084364B5976BE77EE04D0DBEA1FC5F0138B0000
q57n3ESbSmaGtTXpS,Superior Nissan of Conway,1090 COLLIER DR,CONWAY,AR,72032,A72032858701AA9C41866D696E4C7D5790B91037DFD95322860000
qAEXPJGSaCfBSnttb,Exton Nissan,200 W LINCOLN HWY,EXTON,PA,19341,A19341262346243CF217EA29A1268D824A75CF629690BD07910000
qDod6dL2nFW7RdA8e,Twin City Nissan,3247 AIRPORT HWY,ALCOA,TN,37701,A377013201C4BE256DB55D40AA5B78A046FE4106186CF5DD500000
qKhTFaxwrwr9zQX8F,Lithia Nissan,4560 GRUMMAN DRIVE,MEDFORD,OR,97504,A9750491651A219B041879BD1E7EE21EAA530B6BFAC2863B920000
qLaLYu7Duo9SBMQRn,Berman Nissan of Chicago,3456 N KEDZIE AVE,CHICAGO,IL,60618,A6061856204DD0697D18AF51C689BE07764C2D21FFF9C2082B0000
qLk52MgWTpBAqi223,Nissan of Lewisville,1601 S STEMMONS FWY,LEWISVILLE,TX,75067,A7506763886002CE94D9EBD35769D1A52DE9CFCCD01D6BF78A0000
qNPEWijBZmTE3X87T,Reliable Nissan,9951 COORS BLVD NW,ALBUQUERQUE,NM,87114,A87114440519D18AB0754665CC2225C96FB6708470D9FCD62B0000
qQyFaLDgtLPZBhvsM,Dennis Dillon Nissan,8727 FAIRVIEW AVE,BOISE,ID,83704,A8370482081C3C54EA1AD4A0962648E875921BD9B648E7974D0000
qR2qee4PaSCMWxkMW,Kona Nissan,76-6353 KUAKINI HWY,KAILUA KONA,HI,96740,A967402228D530614FC9D0257BC617DB6A67C78A53BA29B11F0000
qWvezYfQxozH7Yvg9,Bill Cole Nissan,2701 WINCHESTER AVE,ASHLAND,KY,41101,A411011928F0CC108E4B6D77F5D74C0E6C433EDE72092E2EF90000
qdbx3LjXvZw7GyMFw,Gezon Nissan,3985 PLAINFIELD AVE NE,GRAND RAPIDS,MI,49525,A4952516734F9296296DAC3B8CFC84E182B36D2A41410C663F0000
qiwFyFWwMSYztW7Ep,Priority Nissan Williamsburg,6390 RICHMOND RD,WILLIAMSBURG,VA,23188,A23188173441908AACD78A26F2A1D35C1D4F83B1630365E7E40000
qn5fstTDnrGDcyqit,Modern Nissan of Lake Norman,18615 STATESVILLE RD,CORNELIUS,NC,28031,A280316751F6F0EACC498528E0E446475209C679F3DE7143610000
qoyticKD63vgKyWQ6,Headquarter Nissan of Columbus,1725 WHITTLESEY ROAD,COLUMBUS,GA,31904,A3190430523BB519CAFE0352085F9609FA356A630AB438E6780000
qp3ns3SkgZGXqydJD,Awesome Nissan of Brunswick,251 Chapel Crossing Rd,BRUNSWICK,GA,31525,A315250564F775799E95300FB5A252F90378D9D0C05029AB700000
qpPoL8TioPdLe7BCe,Franklin Nissan,705 JAMESTOWN ST,COLUMBIA,KY,42728,A427281115C67E297B94D19A6A2DE96D0F03F9BA03723D57A50000
qrZXnucyWgDW5Qh2f,Stephen Wade Nissan,230 W HILTON DR,SAINT GEORGE,UT,84770,A84770222663B998F1974262528D4724773E12AD3BC15BC6300000
qtXHYeWwAJbw2t8ga,Galesburg Nissan Corp,2080 N HENDERSON ST,GALESBURG,IL,61401,A614011300384C68D7D7D41CD2E66E3E3C28B4A194B5741C2E0000
qxpb4hoKKxmzfvS6y,Dorsett Nissan,105 W MAYFAIR DR,TERRE HAUTE,IN,47802,A478024487C144E9A09C495E4B062E82F13825AD1476DE91E50000
qyEZrKH5axhhiNN5r,John Sinclair Nissan,478 SIEMERS DR,CAPE GIRARDEAU,MO,63701,A63701496889E7A6B8271A01E434897446B42F082FFFE012F50000
qyJotpWsmkcXqYPA8,Classic Nissan of Statesville,1244 E GARNER BAGNAL BLVD,STATESVILLE,NC,28677,A286776965DDAF3D95477018118F437798C901A845C753D2B80000
r48jrBuhhwAt3NvwQ,Robert Allen Nissan Helen,3135 PROSPECT dr,HELENA,MT,59601,A596019734F04104803B4E22076FE5B9649EB104E428D8C8E70000
r5PQFovTdeHywHKNK,MAUS NISSAN,3939 US HIGHWAY 19,NEW PORT RICHEY,FL,34652,A34652617987E77A5CC1B754E3A3DD1E07C4DC713B5AEF314B0000
rGfYLXRW3hrn82Yu9,Nissan South Morrow,6889 JONESBORO RD,MORROW,GA,30260,A30260295616D438E978EE816D37EFAF0B71814BCE28C8003A0000
rJNaFJHfWxvkKYFdK,Nissan of Stanhope,59 route 206,STANHOPE,NJ,07874,A0787432626A1EDBFEB4D116527E2324444127A9B26F7F7A020000
rNYD8oF5sDBSi9sqa,Eau Claire Nissan,3214 MALL DR,EAU CLAIRE,WI,54701,A547016842B49DD15BF3EF5C6BC6E26CF2639B0E68C0A28FAC0000
rP3HAJZw4HXHejw5n,Pocatello Nissan Kia,1900 Flandro Dr,POCATELLO,ID,83202,A8320219751E6AAF4CA0BD6A52D2035B4E2C75E6984F8337770000
rQ8gCfy88TAyAJuny,Fort Wayne Nissan and Infiniti,4909 LIMA RD,FORT WAYNE,IN,46808,A468084120F3FD3165BD2B9309FD543D18875E1725EA4882F70000
rSfW9n5zQmsjGndcR,Delaney Nissan of State College,3280 W COLLEGE AVE,STATE COLLEGE,PA,16801,A168012598BB03344B78143AE6B9FFDC1BFFF05D553AEA72210000
rZ38aFMXQ3T2Pkh2m,Pete Mankins Nissan,3707 SUMMERHILL RD,TEXARKANA,TX,75503,A7550335002AAE21611CC67D214331729DDB72929CF46285EA0000
rZKixx3QwZCrYpnz6,Chico Nissan,575 MANZANITA AVE,CHICO,CA,95926,A959261322A0375675D87F95703717AAD863B1BC0A1D98D1000000
rZa8qJdtM6yKKhXMj,Peltier Nissan,3201 SSW LOOP 323,TYLER,TX,75701,A757019204AF77AE9D0D77B51C56D45079418BD96F9FA9D55D0000
raPN3khsHSt8HFuvJ,Watermark Nissan of Marion,3209 BANTERRA DR,MARION,IL,62959,A6295963810A9353E8AE2E71531C7A602804C5CAD149E432670000
rbbCQ5tW7dS8r7cNq,Kelly Nissan of Lynnfield,271-275 BROADWAY,LYNNFIELD,MA,01940,A0194023137BA15D95A4A6DD1E54CC3970846203E816DDBCD348E2
rbiRkyWya6uPC4KeS,AutoStar Nissan of Boone,135 INNOVATION DRIVE,BOONE,NC,28607,A2860747838F1F196E987EA513D7840133173A4355B24734A10000
rdqDukGaW4Nz3jFP7,Walser Nissan Wayzata,15906 WAYZATA BLVD,WAYZATA,MN,55391,A553911477144FA3C2C8D6195BDFCEB4D1CA8EA805FE8070F40000
reHo4bG6kZYKvtHZP,Temecula Nissan,41895 MOTOR CAR PKWY,TEMECULA,CA,92591,A925914666E1923E1656971E4AE6484080DDA4B0F4D68660DA0000
rikLJ6XPN3bmEaqL7,Walters Toyota Nissan,30 Walters Lane,PIKEVILLE,KY,41501,A41501705638037C1B90460F34356DBB6476A59DD097EC40960000
rkeFKjeca6FnLFwv7,Kelly Nissan of Woburn,95 Cedar St,WOBURN,MA,01801,A018012104B57B45F7331B5F04BB9D909EC0B06392CF6E47050000
rkkiJZiqBRg5MeEAB,Joe Machens Nissan,201 NEBRASKA AVE,COLUMBIA,MO,65203,A652033923300DB34A141D07E7B5126B0F2643FB7EC5D5BF7D0000
rnTfF6YBWSLkFcJJR,Benton Nissan of Bessemer,5487 ACADEMY WAY,BESSEMER,AL,35022,A350228500DC4C3F192E08D0E616246C5D6BC59C9D63D6ECD60000
rpn7j7HNXFGAQsq8x,Lee Nissan,793 ctr st,AUBURN,ME,04210,A04210645474C26F2BA6F3BFD7E26F2A897023E73CAE2E32290000
s5uorTNcPtS2zmj7X,Colonial Nissan,117 Bustleton Pike,FEASTERVILLE,PA,19053,A190536447BCE676A27CCA55AE63A310E12C13B81314C35EE70000
s7bhtJv5eJxka8Gx4,Dave Solon Nissan,2525 W US HIGHWAY 50,PUEBLO,CO,81008,A81008165693D53DC8F706436EC4A1770B814D3BBBC90E71F90000
sNhuBXhBq7ybqk8uG,Ciocca Nissan Of Quakertown,520 S WEST END AVE,QUAKERTOWN,PA,18951,A18951140810C043941E16D44BEB46503E250FCB9393A1DAEB0000
sWeBxoK3W77pDon75,Future Nissan of Folsom,12610 AUTO MALL CIR,FOLSOM,CA,95630,A95630809945E4516610D47CDB75BBFF26E290C127B25460B30000
sYJSAuiaz4SLJw3P9,Paul Miller Nissan,930 KINGS HWY E,FAIRFIELD,CT,06825,A068255420F065407A42EC2ED67C0DFF61A36D9E98A58DF0A50000
sakvD7RzJLKpACXKR,Reed Nissan Clermont,16005 STATE ROAD 50,CLERMONT,FL,34711,A34711625864C7ED4201F16C60D6C9B923E9813F8AB46B469F0000
scu7rn8eoSrEbxK6F,Melloy Nissan,7701 LOMAS BLVD NE,ALBUQUERQUE,NM,87110,A871107413BA3ABBF1C2BB591283632E473A047711C3BA5A220000
sfHPCHji5KjRbg9TK,Michael Jordan Nissan,3930 CHAPEL HILL BLVD,DURHAM,NC,27707,A277072522600D41AC76824DF0CE1CC27B5573FCF77E41B0980000
siLBKDJuCRLQxc7D2,Nissan of Sacramento,2820 AUBURN BLVD,SACRAMENTO,CA,95821,A95821180555B7A38BA7983E91A06BEE2AF212C0692F6D4EA20000
siZmtPRShN57yn2vg,Nissan of North OLMSTED,28500 LORAIN RD,NORTH OLMSTED,OH,44070,A44070400610AF48312EC018A6B5327450DFDDE5420FEACBB80000
sikQDJXD8s3K2S59d,Maus Nissan of North Tampa,11001 N FLORIDA AVE,TAMPA,FL,33612,A33612663583562E69A2A71B3B2E5E49377C8CE93EC40816980000
skZMRFjq3CavtBvJp,Janesville Nissan,2627 MORSE STREET,JANESVILLE,WI,53545,A53545033598E0FEB6A094F4032AF50D481C3FF18F1AF231920000
skaWpRcLxhvvQHTd8,Tamaroff Nissan,28585 TELEGRAPH RD,SOUTHFIELD,MI,48034,A480341928AE18C7F6049C851F56F71A5832A9B29F920925BA0000
skwRDjYHKNixNzm5t,Loving Nissan,1433 S MEDFORD DR,LUFKIN,TX,75901,A759016219C636D6152C3B75AAA02539AE3E3967ACF08116A70000
sn89fhQ3h2wbtW2HE,Nissan of Dearborn,24501 MICHIGAN AVENUE,DEARBORN,MI,48124,A481241710962B27CECC85E2C5D97D09047CAC7E97E2488F8F0000
snWfCsqZJNRYoAsAs,Wesley Chapel Nissan,28519 STATE RD 54,WESLEY CHAPEL,FL,33543,A3354332111C25A5F7068ACC108E3442BCA2B81A7A7FDF90140000
sofFJJgWNhw3YnL6F,Antelope Valley Nissan,451 AUTO CENTER DR,PALMDALE,CA,93551,A935513709E238774A370C360B9D3AE39D73D2D5681D0BEBF70000
stu7aLkqqnuCvrBW3,Nissan of Fort Worth,3451 W LOOP 820 S,FORT WORTH,TX,76116,A7611666469FAB492F8ECFCBDBA4F8D5124A2B4E6CB2E955A20000
sue9SvNpv5RLdTwvP,Landers Nissan,371 GOODMAN RD E,SOUTHAVEN,MS,38671,A386719509F099E2358E5E706F1AA43E2333A5E0369372D91D0000
sv9Mk93HSjj64gXct,Ted Russell Nissan,8565 KINGSTON PIKE,KNOXVILLE,TN,37919,A379195371C1BD41F3DA932720338E3ED86239766AFFB630DC0000
szCbXK32qLzYNRm2j,Glendale Nissan,727 S BRAND BLVD,GLENDALE,CA,91204,A912042109C7C954C224E7A5BCA052EAACC7E58620B35475EE0000
t4HBtF4yqJxLbhsKe,Nissan of Lawton,201 W GORE BLVD,LAWTON,OK,73501,A735013734E2D231FC137A968803C2B363D5A23BB53ED72AB50000
t5JbnBzL6a6SNakJG,Somersworth Nissan,285 ROUTE 108,SOMERSWORTH,NH,03878,A038781522AF18A3A2AF5BD242CA1FD18F1EDDB00BB2F094C00000
t5vvmwa8WSYSqy2e9,Benson Nissan of Spartanburg,1100 N PINE ST,SPARTANBURG,SC,29303,A29303316880378B6A32E90B1D9E5468A3D2628C29CC5EF1DB0000
t9BkS36ECc4CPLdKd,Charlie Clark Nissan,3500 W EXPRESSWAY 83,HARLINGEN,TX,78552,A785523599CC2ACAEECEAE2BEE34626D82720E3422D6D403C30000
t9mhNqZGynGkWXvZA,Mitchell Nissan,1640 E PARK AVE,ENTERPRISE,AL,36330,A363304276F73328F79787D20FA7D953EAE9D8B2C867757B8F0000
t9zc4ZqJjzLmXx8i9,Ancira Nissan,10835 W INTERSTATE 10,SAN ANTONIO,TX,78230,A78230130188788FA313EAE22F2E314EE6A457317C1908114C0000
tDBcQDvxr7yjTj3gL,Rocking Nissan of Springfield,6570 AMHERST AVE,SPRINGFIELD,VA,22150,A221502807622AC493125675B38CDB87FDAC091BDD5AC6D75A0000
tESoNkXyE8yvvpPhN,Bertera Nissan,569 OXFORD ST S,AUBURN,MA,01501,A0150118099A2E1D575A3967EFC2599ED2FB5BD12EC3A5908E0000
tEgh5KzaufEmx3xS3,Tom Hesser Nissan,900 ONEILL HIGHWAY,DUNMORE,PA,18512,A185121711182CF34E90C83825B8ED00B87784552C29109E6A0000
tLbr7sKTwchNcFdGS,Wright Nissan,10520 Perry Hwy,WEXFORD,PA,15090,A1509097195B4611CC47A9EC2A055BD3514898695DDF5000EE0000
tMRpnKBLNFx9BjfaW,Nissan of San Marcos,2980 S INTERSTATE 35,SAN MARCOS,TX,78666,A786665931AA5E2391582560978D20541DCA4C5DEE926FD9B10000
tPd3rzxNvwaShKYxJ,Concordville Nissan,452 WILMINGTON W CHESTER,CONCORDVILLE,PA,19331,A1938047254EC00C007865F574E727DD92D2D2FBE9F93EA3F50000
tTX5LwDxDCspfDYuF,Mike Erdman Nissan,4640 FL 250,Cocoa,FL,32926,A329260000D2E43A248E1BC605C99E5F7B5B6A8DD8B73E69E41AF6
tYpq5AGkW8ZMYiG4N,Wegner Auto Company,330 E SIOUX AVE,PIERRE,SD,57501,A575013139798DC0DEA94AEE4E6F3B670E26A2A97CCF71D6390000
tYrsJWhZKZs5bFXm8,Pine Belt Nissan of Keyport,111 STATE ROUTE 36,KEYPORT,NJ,07735,A0773514249663EE7B09B5C40D3EC21840BF47E215FEF73FD10000
tgFFHKCWpDCL5Emok,Tynans Nissan,780 SOUTH HAVANA STREET,AURORA,CO,80012,A800123096DF649EEF0982392319BC1A6800B6906408B558710000
tgrPsiLLFGuuAEEFd,Jim Click Nissan,800 W AUTO MALL DR,TUCSON,AZ,85705,A857056013E06B3C7D932DE2284359705A7962045F4950BDB60000
tj6PHo4qnYH6SyCxb,Nissan of Westbury,939 OLD COUNTRY RD,WESTBURY,NY,11590,A115905615D977C58F4198F0B9C677F7A0A1F3C5723CF106DE0000
tmfzwWJ9GaJkKv6NR,Legend Nissan,268 JERICHO TPKE,SYOSSET,NY,11791,A117914540910DD5D43BB50887880F2B8362AD3140BB167C960000
tmwTTgwPwSCZovtH3,Germain Nissan of Columbus,4300 MORSE RD,COLUMBUS,OH,43230,A432301524F11315D3EBB842792FBFA7050BACEEE8983B1F5F0000
todS7DTvZipCpcWF9,Royal Nissan,9325 AIRLINE HIGHWAY,BATON ROUGE,LA,70815,A7081541967528F3F51B1425876CAE0668BF4DDD22007A28740000
trzruC7toNWTrR3bx,Banister Nissan of Chesapeake,930 BATTLEFIELD BLVD N,CHESAPEAKE,VA,23320,A2332048044E60F3F4492FA8CC516893950F4EC5A6E75955700000
uDnY8G9WvcY9xqgCA,Zeigler Nissan Of Gurnee,18850 W Grand Ave,LAKE VILLA,IL,60046,A600467521D606384B4C59F804CC725979A405EC327DB1A9260000
uLvRdbFit72RszjKH,Nissan of Greer,14125 E WADE HAMPTON BLVD,GREER,SC,29651,A29651155886EADD8897CC719FC1C34316B9F62C2CCD3CC3120000
uNZYerDda7jWvKXgL,Nissan of Van Nuys,5425 VAN NUYS BLVD,SHERMAN OAKS,CA,91401,A914015686C61FFAF3802B64444BECBE6C7986734D23B3E7500000
uP47MDwuwrN5hueKK,Childre Nissan,126 roberson ml rd,MILLEDGEVILLE,GA,31061,A3106149337133258F72F03A1F4B528D643B104F754690F41C0000
uSpHSgHTQiAmXfMHe,MANKATO NISSAN,1815 E MADISON AVE,MANKATO,MN,56001,A56001549654C335E5FDFFB646BDB3EB31D9AE132E923DCF0F0000
uWS49buyzksydEZGa,Metro Nissan of Redlands,1665 INDUSTRIAL PARK AVE,REDLANDS,CA,92374,A923742830EF9198B40FFBB3A4243FD9D736BE8145B74E2B9E0000
uZfJYtM3wKsQF9Gd4,Halladay Nissan,1880 WESTLAND RD,CHEYENNE,WY,82001,A82001333954718500E70CEA01848B74594C2D3D932F0FF5AD0000
uc3rWgHc4e3ZBJW7S,Nelson Nissan,800 W QUEENS ST,BROKEN ARROW,OK,74012,A74012179956D71E6AD5D2319E5BCA4F200135C1862318FFEA0000
ufLAfDch9jTaN98GM,Cannon Nissan of Jackson,905 I-20 FRONTAGE RD,JACKSON,MS,39204,A3920458019C89B001686425CD40C4E1E9D991375FF57AA96E0000
uhAo4GDWTEMwcRkif,Palm Springs Nissan,68-177 KYLE ROAD,CATHEDRAL CITY,CA,92234,A922346538155DA42922E579AAD3F29C1B95D949D28B23CB190000
ukqiRBPvdSke86D8u,Bergstrom Hyundai Mazda Mitsubishi Nissan,3023 VICTORY LANE,APPLETON,WI,54913,A5491379584F8820C0A208E284BCB8C929E6AF56C8D55D4C0E0000
unsZr8mfx2Z7ruCG5,Pedder Nissan,200 CARRIAGE CIR,HEMET,CA,92545,A925459774A99B13204301BB03D724A9F4CEC871C86F4B737C0000
unwC8gjaPHiBaTusm,Napleton St. Louis Nissan,10964 page ave,SAINT LOUIS,MO,63132,A631321003A2087DACECED85DCF14D46F3AE6AF1E347AF218F0000
usK7Ft3dprZ5C2Q7y,Berlin City AutoPlex New Hampshire,485 MAIN ST,GORHAM,NH,03581,A035811024AA487A86CDDC7C8ED4D50AEEC7167EF155D9975E0000
uuTCtbB5arSWGKxyD,Nissan of Gadsden,1701 RAINBOW DR,GADSDEN,AL,35901,A3590155018D3D2626BE5D44A9060B06B895629F3991CC68150000
uuTRwuq3QYJrGAXvC,Hummels Nissan,4770 MERLE HAY RD,DES MOINES,IA,50322,A503221963EE2F8C18B11DB50D70033F72E02773948D4E14600000
uyi874d7ScMXJ6Zho,Fred Anderson Nissan of Raleigh,9225 GLENWOOD AVE,RALEIGH,NC,27617,A2761775106F3693E02F696FEAAC1B2E7FF4986175EC7FABB10000
v32YotEAj69Bb84Mn,Berlin City Nissan of Portland,227 MAINE MALL RD,SOUTH PORTLAND,ME,04106,A0410623123E1312E7AB15EA503AAFBEDB62CE2A9ADE164B420000
v8vzb3QjBJfcDdfC7,Great River Nissan,264 DEVEREAUX DR,NATCHEZ,MS,39120,A391203752B69276DBD220FA5BE52B15A01BB7E759DE2F8ECA0000
vCARr4YQdr5gfLPn2,Hayward Nissan,24644 MISSION BLVD,HAYWARD,CA,94544,A945441636E123418104BD227345A39751BD333F45EDD085A20000
vCRSp7Nikaz4RGx4t,Nissan of Union City,4080 JONESBORO ROAD,UNION CITY,GA,30291,A30291226012AF96EF18D9F4FAF4D169997B7F0289B1BF72380000
vMpNk92bFqoghxdSn,Bay Ridge Nissan,6501 5TH AVE,BROOKLYN,NY,11220,A112204998C8EC6B4227EA6AB5DA44D2FD6EB4D76090F61E000000
vP7iM2AxRLzwWDSCd,Crest Nissan of Frisco,6600 STATE HIGHWAY 121,FRISCO,TX,75034,A750349497E7B646E8D1854BDC43A43FA72C8C4F852C7F43740000
vTv43eLKYaNdFhgpT,Action Nissan,307 THOMPSON LN,NASHVILLE,TN,37211,A3721124879D76927B94EDED4306F1B6B7DC8872A7323E252C0000
vY4bXeMs4pqngJJPF,Legacy Nissan of London,395 W HIGHWAY 192,LONDON,KY,40741,A4074124196DA90185D8ED317480B5EE364414426CD31A56CD0000
vYEe59fv5T3CDDSBY,Reedman Toll Nissan of Drexel Hill,5018 TOWNSHIP LINE RD,DREXEL HILL,PA,19026,A19026452807DD66DEFC395A389D674481C32A930993EE61210000
vb7hFQeTN5ynqnNBa,Mark Arbuckle Nissan,1080 PHILADELPHIA ST,INDIANA,PA,15701,A157011676768FBBBB3C5B9A78F6470818F85D4AF4C732FDFF0000
vcGyYxp4hRxo27pnw,Coral Springs Nissan,9350 W ATLANTIC BLVD,POMPANO BEACH,FL,33071,A330716937FB010481BB4C8AA8092274BD4274D8A4C2F6873D0000
vn8Thbv8Et76eJwda,Giles Nissan,6137 JOHNSTON ST,LAFAYETTE,LA,70503,A7050356186009C8111ABFDC18630B3119C2151936C9C1854D0000
vpK5x3cNgCDwqEL5L,Douglass Nissan of Waco,5605 LEGEND LAKE PKWY,WACO,TX,76712,A7671269648BBD57CE420C90A4CB14B67CAFF0544C8C74629A0000
vqx5XGpBy7DXnizYf,Chuck Colvin Ford,1925 North Hwy 99w,MCMINNVILLE,OR,97128,A971282749991757E15411EABCB6E1F823DC628FFC98D5D9340000
vrBvcoqRpfnGF36u2,Nissan of Costa Mesa,2850 HARBOR BLVD,COSTA MESA,CA,92626,A926263911C3F2F14A7BC953D0340F2BDDBD18323399A07D480000
vt9CRCWm2h8G4BFm7,Pohanka Nissan of Fredericksburg,5200 Jefferson Davis,FREDERICKSBURG,VA,22408,A22408269553F9C863A8CF0A9D53585C94423AB5C805EE42DA0000
vvAc2rfGjHF93KLfr,Boucher Nissan of Waukesha,1451 E MORELAND BLVD,WAUKESHA,WI,53186,A531863960A40B7BCF22E57A70DE64EA2373C29200E71FD45C0000
vvBLW3JXfkcGbtcJy,Middletown Nissan,1153 NEWFIELD ST,MIDDLETOWN,CT,06457,A06457181767A042AB600322CFC2220ABFFB40D76E383056EF0000
wBRwfbgf8GjzxcEtW,Lewiston Nissan,2239 3rd Ave N,LEWISTON,ID,83501,A8350116231CD960340069D1E57F8D4B7D5C39A697444502270000
wEyet36Fwj8zykjef,Thruway Nissan,79 ROUTE 17K,NEWBURGH,NY,12550,A125505009268408DE247B1F9C72AD984C4217808F719FD7030000
wJhntviBF5gipZKoi,Nissan Infiniti San Francisco,1395 VAN NESS AVE,SAN FRANCISCO,CA,94109,A9410955456D90CD33CB9B047E3890A4A12457590E994085A80000
wLsddX4MFJMDEFAZL,Acme Nissan,2050 U S 130,SOUTH BRUNSWICK,NJ,08852,A08852306021309624B06E669381C06830D3B0DC3E248CB7180000
wMqZkRyiNmXFeCTRi,Prestige Nissan Tiffany Spring,9600 NW PRAIRIE VIEW RD,KANSAS CITY,MO,64153,A64153181810155BE724CBF80A91C3FECCA6FC701DDB5A4BE70000
wPyAeL8hiyJbEFMpf,South Shore Nissan,200 SUNRISE HWY,AMITYVILLE,NY,11701,A117012505B62B2B55F7ABA1E77A07770424261AD19C02B9190000
wSn5L3pfuQDroQP7W,Maguire Nissan of Syracuse,716 W GENESEE,SYRACUSE,NY,13204,A1320232014659069A187A4659EA7AFB523D0FB4A38D0BEEC10000
waGx5z6BgGregANwK,Grainger Nissan of Anderson,3510 CLEMSON BLVD,ANDERSON,SC,29621,A296211313DCCCCAF37974DFE3C3355DC98675FEF80177A6070000
wcpyYRbFNY7uMqWWS,CENTRAL NISSAN,2907 E PARKER RD,JONESBORO,AR,72404,A72404780950B85EDF30A8699B455EEB2353F5862B01316DBF0000
wfojGxTdt55XqvWH3,Katy Nissan,25550 Kingsland Blvd.,KATY,TX,77494,A774942002CACE51569CE8CB4E3AB891EDF7896E63839877960000
wh8T8Cie52qcKtdpQ,Mathews Nissan,185 HIGHWAY 76,CLARKSVILLE,TN,37043,A37043410490B3954420CD3EA1771B5EFE62066D938B4587840000
whxD7BBWyNpBogQAQ,Nissan Of Athens,4735 Atlanta Hwy Bldg C,ATHENS,GA,30606,A306060716A421B78D619F823DE311498DA529885DF4ACC12DFFA7
wmPq84tyuvcCYPrWJ,Boch Nissan South,685 S WASHINGTON ST,NORTH ATTLEBORO,MA,02761,A02760362497DDA8392C87F070C69A4317C5FDCA19B8BA8E910000
wpZZ27j8oYqntY6Eg,Woodhouse Nissan,7801 NEBRASKA DR,BELLEVUE,NE,68005,A680054100E63D74156487D490DE925E7B41407B1D6EC985770000
wrthJoFfuS3EDWukB,Woodmen Nissan,6840 VINCENT DR,COLORADO SPRINGS,CO,80918,A8091831542A985E8BE4A5A613BFF25C47FC0391A1D500F2A70000
wuyjGsTbPY9A5juP9,Vaden Nissan,10421 ABERCORN ST,SAVANNAH,GA,31419,A314191137AB9FA80C145F939F9E1C446A2CCEC534C94587B60000
wvXcow7ciS9BPk53p,Route 33 Nissan,951 US HWY 33,HAMILTON SQUARE,NJ,08690,A08690270764456228F96DE6E5971331D90B276D5AD7D657680000
wwKQyhyZzbapwCWvY,Tony Nissan,94-1299 KA UKA BLVD,WAIPAHU,HI,96797,A967976206CED658941AE356926A2CFFFB346BBE31576C07830000
xECF9vKcLnJ8xk9Fj,Brandon Nissan,9920 E ADAMO DR,TAMPA,FL,33619,A3361926186DC243F4A257A55DCAC6B7CB31AD8088BC2828A60000
xEGFYY8GvXLsLw9Gt,Nissan of Devon,459 W LANCASTER AVE,DEVON,PA,19333,A1933315094196D3BB02FD1096D97F6C8CCA8514E9D2653B860000
xFKxNqpHfx7FfxLjX,Mount Holly Nissan,1513 ROUTE 38,HAINESPORT,NJ,08036,A080362968B893F89F04EFC921F9CE556E88E7F84263DB54110000
xFhHbts3BbAt5Lb2R,Relieance Nissan of Alvin,3485 FM 528 RD,ALVIN,TX,77511,A7751175NDCA4720B2462684EB883A3860FD2F32C19720064C0000
xFyMHmMzAWcsGgWfp,Bondys Nissan,3693 W MAIN ST,DOTHAN,AL,36305,A3630510596D1F3141753A0AD27200DACBE207F028C0CFC5580000
xGARtgWPP3Eqahq6n,Mossy Nissan Poway,14100 POWAY RD,POWAY,CA,92064,A920644927CEF3CA96A0664E7AC2C1A2196653DC1E38AC15440000
xK6dM5RC5pGMSW8ac,Nissan of Melbourne,440 S HARBOR CITY BLVD,MELBOURNE,FL,32901,A329011326BCD07CA41734C5FD6735670FA5E5E70E144061010000
xQm3mEYHZj8oPqHtQ,FAULKNER NISSAN OF MECHANICSBURG,6627 CARLISLE PIKE,MECHANICSBURG,PA,17050,A170501707735354A3BE00B84C5A4A1BB4D9A38A050DBDB0AE0000
xRwAhSdDwf6kGu9Eb,Naples Nissan,3640 PINE RIDGE RD,NAPLES,FL,34109,A341093851764A5FFCD1DC6EC0323124AF783FE5AD4346FC670000
xTCZeoqeMaSYjcrz2,Ed Martin Nissan of Fishers,13397 BRITTON PARK RD,FISHERS,IN,46038,A46038350071A5588328AB135689505FE65E144F4DC2BA9E5D0000
xTi3GJxeaxQdqip3G,Nissan of Irvine,32 AUTO CENTER DR,IRVINE,CA,92618,A926182802A16B3E862F73D5BF49C84E3961C41985493B11C00000
xYmwc7LhzN49xfX2h,Mossy Nissan El Cajon,1170 W MAIN ST,EL CAJON,CA,92020,A920203126FE312E5005D2533F2ABF5429D02DBC9885D547320000
xcPdn5zkLRk4q9SDN,Coggin Nissan of the Avenues Jacksonville,10859 PHILIPS HWY,JACKSONVILLE,FL,32256,A322561552D128C76D3839AABBCA2131562C8190E34FA9BA570000
xdZsjqchdJ6xwYjPq,Loughead Nissan,755 S CHESTER RD,SWARTHMORE,PA,19081,A1908127941794988F8A7F0DC6CD11F953F1FD0084A5D6ADA00000
xdiATTzAffF6sgHS6,Stateline Nissan,845 TAUNTON AVENUE,EAST PROVIDENCE,RI,02914,A029141614EBD34159E687D912421131933DFCFB39D5086A620000
xh5fdGKzRBhGWoaYv,Performance Nissan,1345 S FEDERAL HWY,POMPANO BEACH,FL,33062,A330627299BAFEE07CB1DC575EDD32234E8C191499547314D90000
xmcRYHLDodzg8gwRJ,Keating Nissan,333 INTERSTATE 45 S,CONROE,TX,77301,A773013486128BB9B8A556EE6372F945A717C7D667324A27B40000
xuP9L9DNXAKZeCF8b,Clear Lake Nissan,2150 GULF FWY,LEAGUE CITY,TX,77573,A775735142F5B6C756526C77252E5BD460D5768E908B878A0A0000
y4RSMZrz9Bn4CtrEw,Southwest Nissan,3050 FORT WORTH HWY,WEATHERFORD,TX,76087,A7608787716377E9F8B54E4441A191657A30EBCEA343824B160000
y584BfpYPL2ySv9iZ,Central Valley Nissan,4530 MCHENRY AVE,MODESTO,CA,95356,A9535695458E02E2EFAA897164C33450F2161B0EAC4462A2160000
yAGSiSxhYCoFTEewT,Taylors Automax Nissan Volkswagen,4100 10TH AVENUE SOUTH,GREAT FALLS,MT,59405,A5940556206918012B52C647DA95C0240E54E933F72D4127030000
yC3vxsbaXSXBkMQdv,Quality Nissan of Greenwood,1724 MONTAGUE AVENUE EXT,GREENWOOD,SC,29649,A296499013CDB386D543E3C542DC73D6BC728E78FBE91EBD150000
yDvvWYota9KGQsQFN,Cole Nissan,RT 460 GREEN VALLEY,BLUEFIELD,WV,24701,A247015231E999B766814CE7E659904ED7259F578DE8C1159B0000
yEvbmFoSXEmSo9x5v,Charlie Clark Nissan El Paso,6451 S DESERT BLVD,EL PASO,TX,79932,A7993285156CEBF2F49B51774D4515082670823DC5FC9519D90000
yHHsYe5DKeWm2Km9s,John Sisson Nissan,470 WASHINGTON RD,WASHINGTON,PA,15301,A153012704CDF1084CA8ED4BC0426B14705DB1288E7936FB250000
yJ7rYZbPP4nN6767n,Johnson Nissan,804 S 1ST AVE,SAFFORD,AZ,85546,A855462137DAE2E1CBCEA09B35BE4B4C06F21541B3080BB9530000
yLdvz2ARinAsSBF3r,Rocking Nissan of Stafford,1 COACHMAN CIR,STAFFORD,VA,22554,A2255417416FCE43693AB97B5BA47024FB5A5D75A3213432790000
yZJujwh455qMcDT3W,Arlington Nissan,1100 W DUNDEE RD,ARLINGTON HEIGHTS,IL,60004,A6000414309FE4E406A35DB6AC75851209C58DC7FDCE2702910000
yfYa4JuZDtMcSP56B,Five Star Nissan of Florence,311 N CASHUA DRIVE,FLORENCE,SC,29501,A29501209579CD7E2678D5DD167465E871932C5282D32A09900000
yjqZ3euYD6TWhaqaP,Pat Peck Nissan,9480 U.S. HIGHWAY 49,GULFPORT,MS,39503,A395034213BC7449699260544EEBFD6C455E70A3CA8565C2AC0000
yqr68uxvKbAGKomvZ,Ken Garff Nissan of OREM,285 W UNIVERSITY PKWY,OREM,UT,84058,A840587301E5A0F9112073CA982C75CF07DDBDBFA583CB94C00000
ywW62Tcq7LSP4BZ2G,Bill Korums Puyallup Nissan,101 VALLEY AVE NW,PUYALLUP,WA,98371,A983713301AF79A4FFCC9D5D3DB76D1237D30B2397BB9DD8690000
z2k4TwCNyHxLw5Sef,Hanlees Hilltop Nissan,3277 AUTO PLZ RD,RICHMOND,CA,94806,A9480619315AD13F2C64AB283D25EEBC5AEC0A36249BD6062D0000
z46aSrPMGN7fAfSYL,DAddario Nissan,329 Bridgeport Ave,SHELTON,CT,06484,A06484386083AA811FF045165CDC0D73D35B3FC7C93C4B4D9B0000
z4WXMLaTfH2kt3fbt,Edison Nissan,401 us route 1,EDISON,NJ,08817,A0881744323509FD068A1FD376A089A039227E8681FBC577DA0000
z8jdxxR5YLJXwyRYH,Lamb Nissan,440 PRESCOTT LAKES PRKWAY,PRESCOTT,AZ,86301,A8630165328B5ADC8889F665EA96F1A2C922174B1F4A73BC6F0000
zEsbdBFdu6y2xHmJC,Ken Garff Nissan Downtown,777 S WEST TEMPLE,SALT LAKE CITY,UT,84101,A8410127464478D94C95C3B71E8D08C8B8F630BF58E99B1ECA0000
zLTGLzA5JMp9XMnJP,County Line Nissan,2191 STRAITS TPKE,MIDDLEBURY,CT,06762,A067621800C2460878A1D1416CC474CDB4047F08160F4931BA0000
zLtDeJdCFcQEaebDn,Mason City Nissan,4600 4TH STREET SW,MASON CITY,IA,50401,A50401270083104C16FDEF596315098C23E45BED7C34D6D5830000
zNwFjXFCd65Tfq3hF,Briggs Auto Group,2500 STAGG HILL RD,MANHATTAN,KS,66502,A665023128E901498312301EF3146E641D4B49A3AEFA57FDB20000
zQ4s4cu4BCLynAAPK,Kingston Nissan,140 ROUTE 28,KINGSTON,NY,12401,A124017444DF6C74616B611B348647FF99C00ABA63A03542880000
zY38c2QJNpN8ZDAt8,Campbell Nissan of Everett,10500 HIGHWAY 99 SOUTH,EVERETT,WA,98204,A982043866E3DF049C41A548F4DEE53ACBD60983565FE8E8670000
zaJBj5ZiBwXBqwphm,Baron Nissan,235 GLEN COVE RD,GREENVALE,NY,11548,A11548102071621DA68A98F865073EA133E5A4B0B075C84C730000
zcwLKdGuF896k5kMb,Autofair Nissan Stratham,45 Portsmouth Avenue,STRATHAM,NH,03885,A038852522A99D8D1963E0783F187105A1FD1BC7826185D83D0000
zeFsWCoqdx3xsQYE4,John Lee Nissan,120 E 23RD ST,PANAMA CITY,FL,32405,A3240545022786F7C999FED5584C1EF68D148148A2F45F01030000
zf5rWYwpY2ToEWttz,Nissan of Lumberton,1949 ROBERTS AVE,LUMBERTON,NC,28358,A2835831191BBD7A6ACD3C12140524C6B23125371770DBC1850000
zjm6d9NdwHFyXzFva,Riverside Toyota Nissan,3330 US Highway 41 W,MARQUETTE,MI,49855,A498559484A758EB202B441D20F4720636ADAF02B59F2990D40000
zndGiAbd6atNwc2dj,Teddy Nissan,3660 BOSTON RD,BRONX,NY,10469,A104692604FE0C6E5A13AC2AF4839D3CB32D566F4FD41830530000
zxtEgajP4jXmBoGjA,Kamaaina Nissan,471 KALANIANAOLE AVE,HILO,HI,96720,A9672047548749CA0B15A28826B06B46467932E0A70B50EE950000
