"buckloc_id","name","address","city","state","zipcode"
"223fgWFmvgcdhEYfH","#1 Cochran Nissan Cranberry","22030 ROUTE 19 PERRY HWY","ZELIENOPLE","PA","16063"
"2AZWdScfWW3DheCGh","Nissan of Cool Springs","212 COMTIDE COURT","FRANKLIN","TN","37067"
"2EmMFmdbf9Hubca7q","Haddad Nissan","25 W HOUSATONIC ST","PITTSFIELD","MA","01201"
"2FxXXAMYTtA6Ay4t6","Fred Haas Nissan","24202 TOMBALL PKWY  SH249","TOMBALL","TX","77375"
"2GHKbFDq9qaXXgrv3","Niles Sales and Service","3500 N ROOSEVELT BLVD","KEY WEST","FL","33040"
"2GbnpaH5CxNuDCcp5","Bosak Nissan","220 Verplank Rd","CHESTERTON","IN","46304"
"2Trne2AHbDE4cGykY","Action of Nissan","172 US HIGHWAY 202","FLEMINGTON","NJ","08822"
"2aLW7oP5Bu7YHyCNm","Bob Richards Nissan","5590 JEFFERSON DAVIS HWY","BEECH ISLAND","SC","29842"
"2cDkTYCvzmZLNZjb5","Nissan of Las Cruces","1801 S MAIN ST","LAS CRUCES","NM","88005"
"2f8zBA2MHnctNicsY","Neil Huffman Nissan of Frankfort","1220 VERSAILLES RD","FRANKFORT","KY","40601"
"2hGo9jxaDsMAu3ATy","Pine Belt Nissan of Toms River","229 ROUTE 37 E","TOMS RIVER","NJ","08753"
"2k6CeM8ERuDFcZAjh","Anchor Nissan","1041 EDDIE DOWLING HWY","NORTH SMITHFIELD","RI","02896"
"2maXozAxCz3n4fHzY","Fred Beans Nissan of Doylestown","4469 W Swamp Rd","DOYLESTOWN","PA","18902"
"2migbXMTf4aiMxYNB","John Amato Nissan","5200 N Port Washington Rd","MILWAUKEE","WI","53217"
"2oHpwEAEwMcmvitBj","Riverhead Auto Mall","1800 OLD COUNTRY RD","RIVERHEAD","NY","11901"
"2pCFxX8ixCovgoJHW","Tri Cities Nissan","3602 BRISTOL HWY","JOHNSON CITY","TN","37601"
"2pscdrACvWuacmjws","Woodhouse Place Nissan","8508 S 145TH STREET","OMAHA","NE","68138"
"2ukLsznW7X6FDb37A","TROTTER NISSAN","1910 W. HILLSBORO","EL DORADO","AR","71730"
"2vKnFLQQzSSPfbNQ6","Colonial Nissan","100-104 MYSTIC AVE","MEDFORD","MA","02155"
"3A4iZArW2Buu8Q4W8","Townsend Nissan","2620 SKYLAND BLVD E","TUSCALOOSA","AL","35405"
"3Bw2NhS5uzwQ3Q6C5","Kelly Nissan","3830 EASTON NAZARETH HWY","EASTON","PA","18045"
"3DuYtnJ8utRMwdyPz","RAMSEY NISSAN","401 ROUTE 17 SOUTH","SADDLE RIVER","NJ","07458"
"3ENhgDnPZZvjZYMPH","ORR Nissan South","1240 E BERT KOUNS INDUSTR","SHREVEPORT","LA","71105"
"3GXoAkX26faYRGjrZ","Buena Park Nissan","6501 AUTO CENTER DR","BUENA PARK","CA","90621"
"3L44RZnktHycucEQQ","McNeill Nissan","1933 US HIGHWAY 421B","WILKESBORO","NC","28697"
"3LQYcgQEmCwDBycAG","Petro Nissan","6248 HWY 98 W","HATTIESBURG","MS","39402"
"3Wen8tRnBGzC2xSvf","Clay Cooley Nissan","39690 LBJ FREEWAY","DALLAS","TX","75237"
"3aaMYopa8DMokpuBf","Gregoris Motors","555 W MERRICK RD","VALLEY STREAM","NY","11580"
"3cZ42P4BgcNWgFPuh","Central Houston Nissan","2901 SOUTH LOOP WEST","HOUSTON","TX","77054"
"3cizzzZXsTR4daXFW","Nissan of OMAHA","17410 BURT STREET","OMAHA","NE","68118"
"3ddrv4mwigiKhpS4C","East Tennessee Nissan","5496 W ANDREW JOHNSON HWY","MORRISTOWN","TN","37814"
"3escHfC9d9Wk7Szc3","Benoit Nissan","18944 JOHNNY HALL MEM HWY","DE RIDDER","LA","70634"
"3ftFQ4M7RwDvuENkr","Waxahachie Nissan","1900 W HWY 287 BYPASS","WAXAHACHIE","TX","75167"
"3jLjajKJ24kkbA7iZ","Heritage Nissan","1500 VETERANS MEM HWY","ROME","GA","30161"
"3ngcD5StKPyvirBDj","Billy Navarre Nissan","1700 SIEBARTH DR","LAKE CHARLES","LA","70615"
"3suq7ZpgcJA758KSD","Hoffman Nissan","46 ALBANY TPKE","WEST SIMSBURY","CT","06092"
"3vuxrupsaPMSjtTxk","Nissan Sunnyvale","680 E EL CAMINO REAL","SUNNYVALE","CA","94087"
"3xKpK8hNwfJSxwyfe","Gastonia Nissan","2275 E FRANKLIN BLVD","GASTONIA","NC","28054"
"3yPCzEwKM9DLh6bzg","Zeigler Nissan of ORLAND Park","8550 W 159TH ST","ORLAND PARK","IL","60462"
"436aS7432JHCgRcik","Balise Nissan of Warwick","1350 POST RD","WARWICK","RI","02888"
"45S7KPEx2t3SoRkx9","AutoNation Nissan Las Vegas","5800 W SAHARA AVE","LAS VEGAS","NV","89146"
"46jp3RvAkRWC5MteX","Colonial Auto Center","100 MYERS DR","CHARLOTTESVILLE","VA","22901"
"47hYiJNZtNP5s3jvB","AutoNation Nissan Memphis","4140 HACKS CROSS ROAD","MEMPHIS","TN","38125"
"4E6zXNXrpeBjt4Jit","Jim Bone Nissan of Santa Rosa","1275 SANTA ROSA AVE","SANTA ROSA","CA","95404"
"4HhZgYnrmDFs8gRQL","Henderson Nissan","295 AUTO MALL DR","HENDERSON","NV","89014"
"4JzSGzM8fLEM4ouQ3","AutoNation Nissan Marietta","925 COBB PARKWAY SE","MARIETTA","GA","30060"
"4LgGAoN35avX5Rtxx","Monroe Nissan","5510 WEST HWY 74","INDIAN TRAIL","NC","28110"
"4ds3ohtaDQJBFLKJC","Gabe Rowe Nissan","851 N WESLEYAN BLVD","ROCKY MOUNT","NC","27804"
"4iYiaRwS32oerp5Km","Carolina Nissan","1329 HUFFMAN MILL RD","BURLINGTON","NC","27215"
"4isEeJywtQCkrPPdW","Jeff Wyler Kings Nissan","9819 Kings Auto Mall Rd","CINCINNATI","OH","45249"
"4jYruoCn6tqYMZ8sR","Crowley Nissan","1451 FARMINGTON AVE","BRISTOL","CT","06010"
"4rHGhboMckvXNRoNL","Tim Dahle Nissan","4528 S STATE ST","MURRAY","UT","84107"
"4sjQJo9MdJGvzYSZJ","Stevens Creek Nissan","4855 STEVENS CREEK BLVD","SANTA CLARA","CA","95051"
"4xyeSuXHAhgQk4BN3","Thoroughbred Nissan","5163 E 22ND ST","TUCSON","AZ","85711"
"534JrvzrFLzL6Bhxt","Nissan World of Denville","3057 ROUTE 10","DENVILLE","NJ","07834"
"54qjvNxZX4opbY8BQ","Nissan of Chattanooga East","2121 CHAPMAN RD","CHATTANOOGA","TN","37421"
"5ACQJomuGyD4TpKeo","Bowser Nissan","1001 CLAIRTON BLVD","PLEASANT HILLS","PA","15236"
"5EcSb3RnKbt6L2a8t","Jim Falk Motors of Maui","260 HANA HWY","KAHULUI","HI","96732"
"5Jx3HzyYKKFDPFoZy","Gateway Hyundai Nissan","441 38TH ST S","FARGO","ND","58103"
"5MphyAq7xTX5Brnjr","Passport Nissan","5000 AUTH WAY","SUITLAND","MD","20746"
"5PrAnCZNmzxE2zZ9p","San Leandro Nissan","1152 MARINA BLVD","SAN LEANDRO","CA","94577"
"5SDAJJDJ8zdauwxii","Bellingham Nissan","1516 IOWA ST","BELLINGHAM","WA","98229"
"5XAhAmruaYm8oqGyr","Nissan of Staten Island","1976 HYLAN BLVD","STATEN ISLAND","NY","10306"
"5ZfJn2qqcoc45xK7d","Grand Blanc Nissan","8346 N. HOLLY RD","GRAND BLANC","MI","48439"
"5ayjqcfhrYFo9rQy7","Prestige Nissan of Lees Summit","1091 S.E. Oldham Pkwy - Cdj 1025 S.E. Oldham Pkwy - Nissan","LEES SUMMIT","MO","64081"
"5beCETrud96xasEqr","Hoselton Nissan","66 MARSH RD","EAST ROCHESTER","NY","14445"
"5keafxft8abyQ3vxE","Rosen Nissan of Madison","2510 W Beltline Hwy","MADISON","WI","53713"
"5mDp2knQggXCncoY3","Jenkins Nissan of Leesburg","10234 US HIGHWAY 441","LEESBURG","FL","34788"
"5rFdk563ar8bbi8Di","Jeff Wyler Nissan of Cincinnati","8680 Colerain Ave","CINCINNATI","OH","45251"
"5rp6pFkfz3nyokXfu","Downtown Nashville Nissan","25 VANTAGE WAY","NASHVILLE","TN","37228"
"5tEj5wfWzvoCvu7YB","Bob Moore Nissan Norman","3901 JOURNEY PKWY","NORMAN","OK","73072"
"5wKKKH5middgHEAQE","Dick Smith Nissan","3670 FERNANDINA RD","COLUMBIA","SC","29210"
"5xs7MXcvnvx8jqKzc","Gerald Nissan of Naperville","1575 W OGDEN AVE","NAPERVILLE","IL","60540"
"5xxxEpsJPvsTt6BcM","Marshall Nissan","3550 S 9TH ST","SALINA","KS","67401"
"64W6aWdQb5tbPq974","Serra Nissan of Traverse City","1331 S GARFIELD AVE","TRAVERSE CITY","MI","49686"
"65XY36BGYG9w7s5X5","Nissan of Rockwall","1700 E INTERSTATE 30","ROCKWALL","TX","75087"
"69sR4uBf5CTtZmLmp","Sullivan Brothers Nissan","1 CRANBERRY RD","KINGSTON","MA","02364"
"6AS8tFuRwqQFirYib","Hudson Nissan","585 state route 440","JERSEY CITY","NJ","07305"
"6B2D8rqP92kLeYac5","Nissan of Midland","4800 W LOOP 250","MIDLAND","TX","79707"
"6BHvc2x7TBmh7GoeE","Steven Nissan","2275 E MARKET ST","HARRISONBURG","VA","22801"
"6BTjbR43ofTn4BE8F","Gates Nissan","4098 ATWOOD DR","RICHMOND","KY","40475"
"6EDbbQtygiK53hFtk","Nissan of Atlantic City","6021 BLACK HORSE PIKE","EGG HARBOR TOWNSHIP","NJ","08234"
"6EoYMAzQkDdNRqxgk","Sutherlin Nissan of Fort Pierce","4815 SOUTH US HIGHWAY #1","FORT PIERCE","FL","34982"
"6FHXC5CdFkho6zt8y","Moses Nissan St Albans","300 MACCORKLE AVE","SAINT ALBANS","WV","25177"
"6GQgYMvuhoDZqY7HP","Palmetto 57 Nissan","16725 NW 57TH AVE","MIAMI GARDENS","FL","33055"
"6J2xcrEP9hk6q8hxM","Community Nissan of Bloomington","2200 SOUTH WALNUT STREET","BLOOMINGTON","IN","47401"
"6LcC93LDFJrqf7KtD","Langway Nissan of Newport","295 EAST MAIN ROAD","MIDDLETOWN","RI","02842"
"6MX5yEKywtp7n65ZG","Wallace Nissan Mitsubishi Kingsport","2733 E STONE DR","KINGSPORT","TN","37660"
"6NBMZXWhT4bzRHnXD","Nissan of San Juan Capistrano","33633 CAMINO CAPISTRANO","SAN JUAN CAPISTRANO","CA","92675"
"6TKpx49WNrokBaRWm","Deery Brothers Toyota Nissan","200 S GEAR AVE","WEST BURLINGTON","IA","52655"
"6WkEZuj3JbcSniZNQ","Dartmouth Nissan","483 STATE RD","NORTH DARTMOUTH","MA","02747"
"6X4pDG8Rvu7uGLZZh","MIKE Erdman Cadillac Nissan","445 E MERRITT ISLAND CSWY","MERRITT ISLAND","FL","32952"
"6X95Y6sRWYyvhDdrw","West Covina Nissan","205 N CITRUS ST","WEST COVINA","CA","91791"
"6bv5MqWwbCLCekc2p","Metro Nissan of Dallas","4707 LBJ FREEWAY","FARMERS BRANCH","TX","75244"
"6dzqQuBT2z2A9iqAn","Nissan of Torrance","20550 HAWTHORNE BLVD","TORRANCE","CA","90503"
"6fanhryp8AvM5xdRf","Rountree-moore Nissan","4262 WEST US 90","LAKE CITY","FL","32055"
"6h7DoFxaSgWsaoj8d","Peruzzi Nissan","165 LINCOLN HWY","FAIRLESS HILLS","PA","19030"
"6hdqRau6KbN3PEhmb","Carlock Nissan of Tupelo","3969 N GLOSTER ST","TUPELO","MS","38804"
"6kjvqwiyEs4SNXx3h","Cannon Ford of Blytheville","305 N SERVICE RD","BLYTHEVILLE","AR","72315"
"6mh4zYRCnsBmaPb36","Vaden Nissan of Statesboro","686 BRANNEN ST","STATESBORO","GA","30458"
"6qyLFqxqKMs9XA6zu","Nissan of Bakersfield","2800 PACHECO RD","BAKERSFIELD","CA","93313"
"6y32kTR2j72MK7XL2","Kings Nissan","2758 CONEY ISLAND AVE","BROOKLYN","NY","11235"
"6yY6JpRZBsE79525W","Jackie Cooper Nissan","9898 S MEMORIAL DR","TULSA","OK","74133"
"75E96eyvg8BcxZHMQ","Frank Fletcher Nissan","2327 S RANGE LINE RD","JOPLIN","MO","64804"
"786GWMq3m6YQFcwB5","Mossy Nissan","12150 KATY FWY","HOUSTON","TX","77079"
"7AdqFWKbSS8SEMpii","Walt Massey Nissan","600 West Bypass","ANDALUSIA","AL","36420"
"7Asv6PRRQhHPC2pNp","Mike Barney Nissan","3676 SHERIDAN DR","AMHERST","NY","14226"
"7DHviTQZTYCGZZ7ey","Lancaster Nissan","5340 MANHEIM PIKE","EAST PETERSBURG","PA","17520"
"7Qf4sqSahiAMhHYKM","Byerly Nissan","4027 DIXIE HWY","LOUISVILLE","KY","40216"
"7ZGYDQJ2SfmQTM8D7","Apple Nissan","1510 WHITEFORD RD","YORK","PA","17402"
"7fyJJ4Js7YiX9hXKt","Deacon Jones Nissan","3305 MCLAIN STREET","GOLDSBORO","NC","27534"
"7gLLnnk3YxFMysvRn","Krenzen Auto Mall","2500 Mall Drive","DULUTH","MN","55811"
"7gpFRZKXkkTPM5J7A","Garden Grove Nissan","9222 TRASK AVE","GARDEN GROVE","CA","92844"
"7iNTYkivsyxjj7WQD","Metro Nissan of Montclair","9440 AUTOPLEX DRIVE","MONTCLAIR","CA","91763"
"7jfZLj3csRDtZJ3dv","Treiber Nissan","320 N COMRIE AVE","JOHNSTOWN","NY","12095"
"7nADxP3XigpkX3eg4","Bert Ogden Nissan (TX) (S1)","721 N JACKSON RD","MCALLEN","TX","78501"
"7qsFTbp6sofqdREgC","Ed Corley Nissan","1000 WEST JEFFERSON","GALLUP","NM","87301"
"7rGSYnYwps8f6RnWZ","Town Center Nissan","2310 BARRETT LAKES BLVD N","KENNESAW","GA","30144"
"7ssYm2KYvr2yD6Nkj","Griffin Nissan","1780 E BROAD AVE","ROCKINGHAM","NC","28379"
"7tGxNMA8u3sP7ZTfz","Jackson Nissan","2400 SEYMOUR RD","JACKSON","MI","49201"
"7uKBbnZieTbWnzRDc","Country Nissan","40 RUSSELL ST","HADLEY","MA","01035"
"7v6JqzGjJutk7ta2G","Premier Nissan","1120 W CAPITOL EXPRESSWAY","SAN JOSE","CA","95136"
"7vPYt6LzucWXJEuRP","Route 22 Nissan","56 ROUTE 22 EAST","HILLSIDE","NJ","07205"
"7wvg4Zgw79CtuR6yo","Lia Nissan of Saratoga","2906 ROUTE 9","MALTA","NY","12020"
"82Janq2BgAqxzsdM7","Rairdons Nissan of Auburn","713 35TH ST NE","AUBURN","WA","98002"
"84od6nkcTr8ak7qHT","Sutherlin Nissan of Orlando","8125 EAST COLONIAL DR","ORLANDO","FL","32817"
"8A3agEsDQ8SwXvmwv","North Strand Nissan","2592 SC-9","LITTLE RIVER","SC","29566"
"8BbsvzjEiF7XGqNoN","Moses Cadillac Buick GMC Nissan","5200 Us Route 60","HUNTINGTON","WV","25705"
"8GpqHpiFmj5SZcufr","Don Williamson Nissan","310 WESTERN BLVD","JACKSONVILLE","NC","28546"
"8Gu2KGRsncmuKpwQT","Raceway Nissan","6030 SYCAMORE CANYON BLVD","RIVERSIDE","CA","92507"
"8Tc7HawGaF78wi6Gw","Bronco Motors Nissan","15885 IDAHO CENTER BLVD","NAMPA","ID","83687"
"8YD6zjDJrcbyBYmfq","Five Star Nissan of Albany","1100 EAST OGLETHORPE BLVD","ALBANY","GA","31705"
"8ZJbW7aAySwg7HJLF","East Valley Nissan","6354 E TEST DR","MESA","AZ","85206"
"8bJWhkQG78GbmmquT","Morlan Nissan","1532 W BUSINESS hwy 60","DEXTER","MO","63841"
"8cJD3CpvBgjMpYGHp","Vaden Nissan of Hilton Head","210 FORDING ISLAND RD","BLUFFTON","SC","29910"
"8cNFsq5jNHneqmehq","Gunn Nissan","750 NE LOOP 410","SAN ANTONIO","TX","78209"
"8dKMuZZpX7q7AMSLo","Scott Evans Nissan","725 BANKHEAD HWY","CARROLLTON","GA","30117"
"8iLWpj5bhDPg7TSg2","Serra Nissan of Sylacauga","80 JAMES PAYTON BLVD","SYLACAUGA","AL","35150"
"8jgqgDHosCui4EEpx","Banister Nissan of Norfolk","1250 N MILITARY HWY","NORFOLK","VA","23502"
"8jpoz5LNzQQapq6W5","Antioch Nissan","1831 AUTO CENTER DR","ANTIOCH","CA","94509"
"8mKg4Dr2BzN4pWsqA","Planet Nissan","5850 CENTENNIAL CENTER BLVD","LAS VEGAS","NV","89149"
"8mRQZ2AMhFFmhw8uX","Mansfield Nissan","1455 PARK AVENUE WEST","MANSFIELD","OH","44906"
"8nhmqTkY7zNBauFvi","Suburban Imports of Troy","1800 MAPLELAWN DR","TROY","MI","48084"
"8oTGPchdYRa2LZmf4","Coastal Nissan","109 ACCORD PARK DR","NORWELL","MA","02061"
"8v7DhnH8kNqPRhdAj","Nissan of Casper","111 SE WYOMING BLVD","CASPER","WY","82609"
"8vSvWyBDcXZA894hG","Gunn Nissan of Denton","5650 S INTERSTATE 35E","CORINTH","TX","76210"
"8xhRNSkaBJQZZoQan","Gray Daniels Nissan South Brandon","108 GRAY DANIELS BLVD","BRANDON","MS","39042"
"8ywEP9fC8bgvP48pX","Hanover Nissan","75 W EISENHOWER DR","HANOVER","PA","17331"
"8zaKNh7ATb2K7biNz","Sansone Jrs Windsor Nissan","590 ROUTE 130","EAST WINDSOR","NJ","08520"
"93GjPapZREpRCW63s","Ken Nelson Auto Plaza","928 N. GALENA AVE","DIXON","IL","61021"
"95mz9ZZ4fTRSz7jZ9","John North Ford","3002 W HIGHWAY 50","EMPORIA","KS","66801"
"95pmYEGAeXPxLd5KP","Brown Nissan of Del Rio","2300 VETERANS BLVD","DEL RIO","TX","78840"
"9FF6FeqagHj2Nj39i","Estabrook Nissan","3689 14TH ST","PASCAGOULA","MS","39567"
"9a2e2vjJiTM2MZd7u","Cornhusker Nissan of Norfolk","307 E NORFOLK AVE","NORFOLK","NE","68701"
"9aFPm5M8Pus9pWwcG","Nissan of Streetsboro","885 CLASSIC DR","STREETSBORO","OH","44241"
"9bNwAotXJqECqLhLa","Paul Barnett Nissan","845 BROOKWAY BLVD","BROOKHAVEN","MS","39601"
"9c6h8FbK2iZMCrcdo","Sheehy Nissan Glen Burnie","7232 RITCHIE HWY","GLEN BURNIE","MD","21061"
"9f7PoD3jP8K5pxZ2g","Hanlees Davis Nissan","5009 CHILES RD","DAVIS","CA","95618"
"9fTWT8aFEbgkzqJpd","Jeffrey Nissan","30800 GRATIOT AVE","ROSEVILLE","MI","48066"
"9k5JEDG72zToRg4YH","Alexander Nissan","10 ALEXANDER DR","MUNCY","PA","17756"
"9yN25xjCWGy4o5jKf","Nissani Bros","5750 Mesmer Ave Suite B","CULVER CITY","CA","90230"
"A6FCsc5kQGP3udak3","Nissan of Turnersville","3400 ROUTE 42","TURNERSVILLE","NJ","08012"
"A7km22N5DG6Z7qhqn","Dorschel Nissan Kia","3817 W HENRIETTA RD","ROCHESTER","NY","14623"
"A7omZrMDPk2YWq3Yh","Bennington Chevrolet Buick GMC Nissan","24 PERFORMANCE DRIVE","BENNINGTON","VT","05201"
"A9Hm5u7fLaYxFKNzG","Cronic Nissan","2624 N EXPRESSWAY","GRIFFIN","GA","30223"
"ADxtBErCdtHhNQrum","Nissan of Columbus","3580 N NATIONAL RD","COLUMBUS","IN","47201"
"AGxetfCrFbmCiHnEm","Tri-state Nissan","1230 MILLWOOD PIKE","WINCHESTER","VA","22602"
"ALPs387r8wD3GnKwE","Lee Johnson Nissan of Kirkland","11930 124TH AVE","KIRKLAND","WA","98034"
"ALQgx4qLb3TnLNgjC","Fitzgerald Chambersburg Toyota Scion Nissan","1436 LINCOLN WAY E","CHAMBERSBURG","PA","17202"
"ARoofhrKBnZBtPSfR","Kline Nissan","3090 N HIGHWAY 61","MAPLEWOOD","MN","55109"
"AWfjQevgeY4sMmSe7","Nissan of Elizabeth City","1712 N ROAD ST","ELIZABETH CITY","NC","27909"
"AWwAbMZKgCaxZqGwL","Sutherlin Nissan","13985 S TAMIAMI TRL","FORT MYERS","FL","33912"
"AcKB2P2aeo3BCBLuW","Carriage Nissan","2400 BROWNS BRIDGE RD","GAINESVILLE","GA","30504"
"Ah6P4xGazHSAuX7iA","Larry H Miller Nissan Mesa","2025 W RIVERVIEW AUTO DR","MESA","AZ","85201"
"AjHDcEsTAXRKtRgKy","United Nissan","3025 E SAHARA AVE","LAS VEGAS","NV","89104"
"AjSgv6eA7vktnWaeF","Hyman Bros Nissan","11841 MIDLOTHIAN TPKE","MIDLOTHIAN","VA","23113"
"AkJDh2umMcAjKguMx","Riverside Mazda","8330 INDIANA AVE","RIVERSIDE","CA","92504"
"Aqowg3pP7sGFkDGHu","Horne Nissan","2046 HIGHWAY 60","GLOBE","AZ","85501"
"AvpiobHsMMZQ6Po6u","Smithtown Nissan","535 MIDDLE COUNTRY ROAD","SAINT JAMES","NY","11780"
"AvyQiySQ7yRoPZKqQ","Bill Kays Downers Grove Nissan","1601 OGDEN AVE","DOWNERS GROVE","IL","60515"
"AwbuPmQSrfeeddGM6","Flow Nissan of Fayetteville","4559 RAEFORD ROAD","FAYETTEVILLE","NC","28304"
"Ay8sSu39rfabQAMix","Valley Nissan","1005 KEN PRATT BLVD","LONGMONT","CO","80501"
"Ayk22o2LRwNSTzNEJ","Flowers Nissan","1630 E JACKSON STREET","THOMASVILLE","GA","31792"
"B2DdeeRd8xfCotERm","Jim Bass Nissan","4052 W HOUSTON HARTE EXPY","SAN ANGELO","TX","76901"
"BEzpYBsP3DW7wtf5d","ORR Nissan of Searcy","3131 E. BEEBE CAPPS EXPWY","SEARCY","AR","72143"
"BLt9TkGE7hfqmAjgv","Razzari Nissan","1675 AUTO CENTER DR","MERCED","CA","95340"
"BRu2ZGXR7vr5rXgNb","WHARTON NISSAN","1237 7TH STREET","PARKERSBURG","WV","26101"
"BXpmnhChybkwFBT3a","Wilson Ford Lincoln","328 N MAIN ST","LOGAN","UT","84321"
"Bck5FxX4LnozMePoj","Courtesy Car City","2301 39TH AVE","MOLINE","IL","61265"
"BfJodedW7Jd7HXxuR","Obrien Nissan of Bloomington","2029 IRELAND GROVE RD","BLOOMINGTON","IL","61704"
"BgDyDMktfnp3piwuv","Family Nissan of Laredo","3701 E Saunders Ste C","LAREDO","TX","78041"
"BhzH46awasySM3YXL","South Austin Nissan","4914 s i h 35","AUSTIN","TX","78745"
"BiQmPmZuav6eDEEJx","MARC Motors Nissan","1357 MAIN ST","SANFORD","ME","04073"
"BkN4sqNTAWiE2Lc8m","Marlboro Nissan","740 BOSTON POST RD","MARLBOROUGH","MA","01752"
"Bpih39fiHPcbNv8oq","Key Nissan of Lebanon","51 EVANS DR","LEBANON","NH","03766"
"BuXxxtiSN6gxarmLp","Nissan of Murfreesboro","814 MEMORIAL BLVD","MURFREESBORO","TN","37129"
"BucFAPAoecPZx4bNG","Nissan of Reno","865 KIETZKE LN","RENO","NV","89502"
"BzSY9EmdKN7FnfBN5","Trophy Nissan","5031 N GALLOWAY AVE","MESQUITE","TX","75150"
"C6guZeBnCbkWGH2mY","Modern Nissan","5795 UNIVERSITY PKWY","WINSTON SALEM","NC","27105"
"CAFm8x7meieQ5v6ra","Team Nissan Manchester","1801 AUTO CENTER DR","OXNARD","CA","93036"
"CAe9oSTM24ZR9wyHe","Dublin Nissan","6450 DUBLIN CT","DUBLIN","CA","94568"
"CF2TZBqWvN2M7ZF8E","JIM SIGEL AUTOMOTIVE CENTER","1601 NE SEVENTH ST","GRANTS PASS","OR","97526"
"CFisMBX4QK73M59EK","Twin City Nissan","10549 HWY 69","PORT ARTHUR","TX","77640"
"CHi47WnhDPnfnpgna","Nissan of Vacaville","671 ORANGE DR","VACAVILLE","CA","95687"
"CK8bsZWTkAPCdk9a7","Gardena Nissan","1670 W REDONDO BEACH BLVD","GARDENA","CA","90247"
"CLbdKwcp4RfCKM5uS","Don Franklin Chrysler Dodge Jeep Ram Nissan Somerset","1147 S HIGHWAY 27","SOMERSET","KY","42501"
"CSLB2qgkiLKKYRmjr","Balise Nissan of West Springfield","500 RIVERDALE ST","WEST SPRINGFIELD","MA","01089"
"CSunNzWAk9zjyMbGg","Cannon Chevrolet Nissan","69900 HIGHWAY 82 W","GREENWOOD","MS","38930"
"CSwEphwqEmsPMp3Sd","Crown Nissan (FL)","300 E CYPRESS AVE","REDDING","CA","96002"
"Cc6BC3zhjx6CPzjaq","World Car Nissan Hyundai","12908 INTERSTATE HWY 35 N","SAN ANTONIO","TX","78233"
"CcxyRLBGXd2f9JjXM","Tilton-Jax Nissan","3750 N HARRISON ST","DAVENPORT","IA","52806"
"CdC2HiZpA66hwuGYM","Stevens Point Nissan","301 GREEN AVENUE NORTH","STEVENS POINT","WI","54481"
"CeGgos7XZ2WdQMLST","Bommarito Nissan Ballwin","14747 manchester rd","BALLWIN","MO","63011"
"CjDRBia3PF2p2WiYp","Sonora Nissan","3160 S PACIFIC AVE","YUMA","AZ","85365"
"CjdtBTrTfnZcCg2WX","East Charlotte Nissan","6901 E INDEPENDENCE BLVD","CHARLOTTE","NC","28227"
"CuhvTAZKvYknpycvp","Bob Howard Nissan","13200 BROADWAY EXT","OKLAHOMA CITY","OK","73114"
"CuiR6MvSGxTbQadAw","Tony Serra Highland Nissan","2530 E HIGHLAND RD","HIGHLAND","MI","48356"
"CvpXzdHN2vgxqCaoJ","St.Charles Nissan","5625 Veterans Memorial Pkwy","ST. PETERS","MO","63376"
"D4FCmQfhmNoYYc6d8","Classic Nissan of Sanford","3305 NC HWY 87 S","SANFORD","NC","27332"
"D5B3MEELCjgAaXb9p","Dave Smith Nissan of Spokane","6901 E SPRAGUE AVE","SPOKANE VALLEY","WA","99212"
"D68zqNGXp4ugDji5y","Reed Nissan Orlando","3776 W COLONIAL DR","ORLANDO","FL","32808"
"D96cSKEPYJWxE9fmi","Geri Lynn Nissan","1772 MARTIN LUTHER KING","HOUMA","LA","70360"
"D9EoGXNkatobqJGaC","Nissan of Middletown","4961 ROUTE 17M","NEW HAMPTON","NY","10958"
"DBBDZsnwtYzQPyKBC","Vann Yorks High Point Nissan","1810 S MAIN ST","HIGH POINT","NC","27260"
"DGYj7ntJibDYA4gMY","Nissan of Bradenton","1611 CORTEZ RD W","BRADENTON","FL","34207"
"DJ7HzutgbTjkJkLix","Jeff Schmitt Nissan","725 ALPHA RD","BEAVERCREEK","OH","45434"
"DPdu8HqTWxuPkS8S6","Jimmy Cleveland Nissan Of Wichita Falls","4000 KELL BLVD","WICHITA FALLS","TX","76309"
"DQxzwjeHZNuf2DMD9","Pomoco Nissan of Hampton","1134 W MERCURY BLVD","HAMPTON","VA","23666"
"DSmXeYKgiPR4DYvSc","Sansone Route 1 Nissan","90 U.S. ROUTE #1","AVENEL","NJ","07001"
"DXLe2vpXMfd2kaa3G","Ken Pollock Nissan","229 MUNDY ST","WILKES-BARRE","PA","18702"
"DZ3PRsiR4v7SWyMYv","Benton Nissan of Hoover","1640 MONTGOMERY HWY","BIRMINGHAM","AL","35216"
"DepzWocoPmuBy227k","Kiefer Nissan Volvo of Corvallis","900 NW 4TH ST","CORVALLIS","OR","97330"
"DfYeBGjD2F8FeeGmy","Eden Prairie Nissan","12790 PLAZA DR","EDEN PRAIRIE","MN","55344"
"Dg3Bpz6zQv4fmM9ts","Ryan Nissan","3915 S BROADWAY","MINOT","ND","58701"
"Djn383ziJiTWD8viB","Victory Nissan of Dickson","2219 HIGHWAY 46 S","DICKSON","TN","37055"
"Dqrnodbkcxw8AAq7v","Faulkner Nissan of Jenkintown","900 Old York Rd","JENKINTOWN","PA","19046"
"DtYwpMkB7sDu2bkme","Gandrud Nissan","1001 AUTO PLAZA DRIVE","GREEN BAY","WI","54302"
"Dxvs5KhmcwETsuEXg","Hendrick Nissan of Kansas City","8400 SHAWNEE MSN PKWY","MERRIAM","KS","66202"
"E6PcHwsPDoy5WxzQj","Benson Nissan","4676 CALHOUN MEMORIAL HWY","EASLEY","SC","29640"
"E7Jn8LQDavhMZfN3p","Patterson Nissan of Longview","3114 N EASTMAN RD","LONGVIEW","TX","75605"
"E7c5A5aAJktoqWvYp","Nissan of Rivergate","1550 gallatin rd n","MADISON","TN","37115"
"E8B88dJ5NcMxS3fvW","Preston Nissan","4307 PRESTON RD","HURLOCK","MD","21643"
"E9xsfPokMcNbGBBJa","Fiesta Nissan","2005 SAINT MICHAELS DRIVE","SANTA FE","NM","87505"
"EB6e3MSMmb8gmFech","Fuccillo Nissan of Clearwater","15232 US HIGHWAY 19 N","CLEARWATER","FL","33764"
"EBHr4Z8kNZKoJyxFr","Wendle Motors Nissan","9000 North Division St","SPOKANE","WA","99218"
"EE6SowpmDyL4XRc6F","Greenville Nissan","991 GREENVILLE BLVD SW","GREENVILLE","NC","27834"
"EGkFQQDSoYko9dgCY","Hudson Nissan of Charleston","1714 SAVANNAH HWY","CHARLESTON","SC","29407"
"EHJYyqhv7AtY86KWf","Lewis Nissan","1 PLZ CTR","BECKLEY","WV","25801"
"ELt6cn4qEtgXswwco","Jeff Wyler Nissan Fairfield","5829 DIXIE HWY","FAIRFIELD","OH","45014"
"EMtJ9KEQ9F8CLhpYS","Nissan of Mckinney","3800 S CENTRAL EXPY","MCKINNEY","TX","75070"
"ERfW2Etqka879czHg","McLarty Nissan of Benton","19960 I-30 NORTH","BENTON","AR","72019"
"EZ5F4h9rwE22wi4z9","West Herr Nissan Infiniti of Williamsville","8137 MAIN ST","WILLIAMSVILLE","NY","14221"
"Ef2oNbgnSzZqFiDJF","Tenneson Nissan","535 OLD OMEGA RD","TIFTON","GA","31794"
"EhLtD6Bz9winheT5g","Maguire Nissan","504 S MEADOW ST","ITHACA","NY","14850"
"EibCBnoiWDbB9mXBQ","Continental Nissan of Anchorage","5115 OLD SEWARD HWY.","ANCHORAGE","AK","99503"
"EjiSjKEbCsb4QbC83","Momentum Nissan","2545 AUTO MALL PARKWAY","FAIRFIELD","CA","94533"
"Ekir5ydhaEPMFYvtc","Interstate Nissan","8890 PEACH STREET","ERIE","PA","16509"
"Ene7gaieESGfaecSQ","Baker Nissan North","19630 NW FWY","HOUSTON","TX","77065"
"EpPJfFhBabRsFXTgs","Ada Nissan","420 LONNIE ABBOTT BLVD","ADA","OK","74820"
"EpwvKQyCNZEHDTDKo","CARR NISSAN","3855 SW CEDAR HILLS BLVD","BEAVERTON","OR","97005"
"EqyMTrdAq7bwPeRMj","Harte Nissan","165 W SERVICE RD","HARTFORD","CT","06120"
"EvsdhtpvWraz59QMe","Abc Nissan","1300 E CAMELBACK RD","PHOENIX","AZ","85014"
"Ew4HCW6H4C8RsLEaa","Moken Chrysler Jeep Dodge Ram","1739 W MCCORD ST","CENTRALIA","IL","62801"
"F49aGCwQR5gDRm564","Lynnes Nissan East (Nissan & Subaru)","318 BLOOMFIELD AVE","BLOOMFIELD","NJ","07003"
"FD4CvP4KktmfPsG5x","LIA Nissan of Colonie","2233 CENTRAL AVE","SCHENECTADY","NY","12304"
"FEcuyoAR59ZaZxrsu","Harr Honda Toyota Nissan","4255 6th Ave Se","ABERDEEN","SD","57401"
"FFBH7LeMrMXoo9iDA","Universal City Nissan","3550 CAHUENGA BLVD W","LOS ANGELES","CA","90068"
"FGmYgvqzMzvycGpQd","Grenada Nissan","2105 SUNSET DR","GRENADA","MS","38901"
"FJ2Ltw8zkxjG9uZTi","Vision Nissan","2409 STATE ROUTE 332","CANANDAIGUA","NY","14424"
"FLajJEi7nxeLspiuW","Puente Hills Nissan","17320 e gale ave","CITY OF INDUSTRY","CA","91748"
"FLnMocZbC83yMxxHy","Larry H. Miller Nissan of San Bernardino","735 SHOWCASE DR S","SAN BERNARDINO","CA","92408"
"FM3B8EtsD5oswyJ2W","Mcgavock Nissan Amarillo","4700 SONCY ROAD","AMARILLO","TX","79119"
"FMzhbf4Ag8n9APdcA","Harry Green Chevrolet Nissan","1858 E PIKE ST","CLARKSBURG","WV","26301"
"FTJY2SurCNtJgR9RA","George Harte Nissan","426 DERBY AVE","WEST HAVEN","CT","06516"
"FaPij7Ma6m89druGs","Lithia Nissan","2901 S Duff Ave","AMES","IA","50010"
"FcF4aiGSLhcG6BRMB","Bill Dodge Nissan of Saco","852 PORTLAND ROAD","SACO","ME","04072"
"FeALpaFX4YjAmQTCp","Elhart Nissan","870 CHICAGO DR","HOLLAND","MI","49423"
"FhmMzFSKQkGfow83f","Blue Ridge Nissan","1405 E MAIN ST","WYTHEVILLE","VA","24382"
"FiBxHoTWWs3ob9AGv","Antwerpen Nissan OWINGS Mills","11405 REISTERSTOWN RD","OWINGS MILLS","MD","21117"
"FoZmf85AhvoXGctk6","Premier Nissan of Metairie","6636 VETERANS MEMORIAL BLVD","METAIRIE","LA","70003"
"FpJJqoS8fpwPHKFma","James Ceranti Nissan","3130 HIGHWAY 82 E","GREENVILLE","MS","38703"
"FuSZ28YF6haq4K8ri","Nissan 24","1016 BELMONT ST","BROCKTON","MA","02301"
"FugC5dbyRyaZHdDnS","Green Nissan","2915 U.S. 93 S","KALISPELL","MT","59901"
"FujfF35SM9Rbuyzny","Mastria Nissan","1305 NEW STATE HWY","RAYNHAM","MA","02767"
"FwoJhahv3yZeDwf89","Freehold Nissan","4041 ROUTE 9 N","FREEHOLD","NJ","07728"
"G2WFQFmqQS3hnB9Ej","Star Nissan","5757 W TOUHY AVE","NILES","IL","60714"
"G36XvZ5dA52d7AgGg","Causeway Nissan","435 ROUTE 72 W","MANAHAWKIN","NJ","08050"
"G6zvL8iJFnPREhh5k","Don Moore Toyota Nissan","4216 Frederica Street","OWENSBORO","KY","42301"
"G7H7ChDNHXfaZPqnu","Nissan of Canton","42175 MICHIGAN AVE","CANTON","MI","48188"
"GBqQzju9TvhY5GY4s","Leglue Nissan","6400 COLISEUM BLVD","ALEXANDRIA","LA","71303"
"GCnTz8ztSyxo2bdK9","WL Nissan","2039 N SUSQUEHANNA TRL","HUMMELS WHARF","PA","17831"
"GGzfxf36z4g2tF7TW","Pischke Motors Nissan","517 SOUTH 3RD STREET","LA CROSSE","WI","54601"
"GK9tzPD2bC7r6eASN","Manchester City Nissan","30 TOLLAND TURNPIKE","MANCHESTER","CT","06042"
"GKfLbZuSqY3ZAJ7Mw","THAYER NISSAN","18039 N DIXIE HWY","BOWLING GREEN","OH","43402"
"GMALHtzjn8vaxT8Jy","Avondale Nissan","10305 W PAPAGO FWY","AVONDALE","AZ","85323"
"GS6iMBWKDurCQNmMD","First Team Nissan","6520 PETERS CREEK RD","ROANOKE","VA","24019"
"GS9e6BBQfAvsarNyv","Ardmore Nissan","1625 N ROCKFORD","ARDMORE","OK","73401"
"GTaxsNQrNmusNZsgb","Mtn View Nissan of Dalton","1706 E WALNUT AVE","DALTON","GA","30721"
"GYrtPKdWsMdspnuLh","K H Nissan","1158 HIGHWAY 51-98","SUMMIT","MS","39666"
"Ga65vq8MCxFv4cGkS","Southern Pines Nissan","10910 s us hwy 15-501","SOUTHERN PNES","NC","28387"
"GaRuDq4fY46Xm6mCZ","Russ Darrow Nissan West Bend","2665 WEST WASHINGTON ST","WEST BEND","WI","53095"
"Gcuhq24Y6Aa6usEo2","Concord Nissan","175 MANCHESTER ST","CONCORD","NH","03301"
"GfuzcZ4qNCgMHY5rA","Bob Allen Motor Mall","801 N MAPLE AVE","DANVILLE","KY","40422"
"Gh39yyCnWa7wwEsDT","Nissan of St. Albans","4 FRANKLIN PARK W","SAINT ALBANS","VT","05478"
"GoFKMk34QTwcbuRjg","Chapman Nissan","6723 ESSINGTON AVE","PHILADELPHIA","PA","19153"
"GpntigNjMFCkGugis","First Nissan of Simi Valley","2325 1ST ST","SIMI VALLEY","CA","93065"
"Gx3tdGEp76wtDgehM","Mccarthy OLATHE Nissan","683 N RAWHIDE RD","OLATHE","KS","66061"
"H8ZFonZuZwZ2wCyMa","Missoula Nissan Hyundai","2715 BROOKS ST","MISSOULA","MT","59801"
"HFGsvd6LiuRqzHfDL","Benton Nissan of Columbia","1525 Nashville Hwy,","COLUMBIA","TN","38401"
"HFKCCC7CtziNAtup5","Nissan 422 of Limerick","55 AUTOPARK BLVD","LIMERICK","PA","19468"
"HNu8RhKWXfYWTiv8m","NISSAN CARSON CITY","2750 S CARSON ST","CARSON CITY","NV","89701"
"HP7Fajxb25fPBhFny","Bridgewater Nissan","1400 ROUTE 22","BRIDGEWATER","NJ","08807"
"HS8LXQ5hDSSKzXuJp","Modern Nissan of Hickory","840 US HIGHWAY 70 SE","HICKORY","NC","28602"
"HWQvzJZEFfT2aB7zF","Mossy Nissan Kearny Mesa","8118 CLAIREMONT MESA BLVD","SAN DIEGO","CA","92111"
"HXbZ8SqKMo3tLbK2G","Ken Ganley Nissan","5180 MONTVILLE DR","MEDINA","OH","44256"
"HaSJs9imB4XDErTaa","Sisk Nissan","10800 Eagle Way","HOPKINSVILLE","KY","42240"
"Hb3c53L7fd65LcpbW","Peoria Nissan","9151 W BELL RD","PEORIA","AZ","85382"
"HbAxmnzPgP78iFDjM","Buckeye Nissan","3820 PARKWAY LN","HILLIARD","OH","43026"
"HbEH9pKwxWpHZ4DmG","Granbury Nissan","4601 E HWY 377","GRANBURY","TX","76049"
"HbQhfg8266BEmz4et","Dick Hannah Nissan","19505 MCLOUGHLIN BLVD","GLADSTONE","OR","97027"
"HehZA6RqnowQ7BNHM","Horace Nissan","4300 E MAIN ST","FARMINGTON","NM","87402"
"Hf5Rps87roCAYf2hi","SUNTRUP NISSAN VOLKSWAGEN","6000 S LINDBERGH BLVD","SAINT LOUIS","MO","63123"
"HmKD8SZAzNxzcqPqj","Nissan of Muskogee","841 N MAIN ST","MUSKOGEE","OK","74401"
"HmhttL8P8nW7tWemS","Sheehy Nissan Hyundai of Waldorf","2950 CRAIN HWY","WALDORF","MD","20601"
"HotQQCbo8StggzvWE","Burleson Nissan","300 N BURLESON BLVD","BURLESON","TX","76028"
"HqdCrD7rcjkchnFwc","Newton Nissan South","2801 HIGHWAY 231 N","SHELBYVILLE","TN","37160"
"Hwwzc9ambsfDBxmAf","Bill Summers Ford","I-80 & Us 83","NORTH PLATTE","NE","69101"
"HyXpdogauCZ2nZngJ","Jeff Wyler Nissan of Louisville","4136 Shelbyville Road","LOUISVILLE","KY","40207"
"HzjHEsJves8sLwdcY","Jenkins Nissan","4401 STATE ROAD 33 N","LAKELAND","FL","33805"
"J62Br2iqgtXxpbwT2","Price Leblanc Nissan","14295 AIRLINE HWY","GONZALES","LA","70737"
"J75BWvGzbzj5A4kXy","Miracle Nissan of Augusta","3300 WASHINGTON RD","AUGUSTA","GA","30907"
"JGEXjH3jKgGoF9W5Y","Viva Nissan","1310 N ZARAGOZA RD","EL PASO","TX","79936"
"JKCJaDep3jJYJNYBv","OLYMPIA Nissan","2220 CARRIAGE DR SW","OLYMPIA","WA","98502"
"JNvu6aHwxcd6XrigF","OAK Ridge Nissan","101 S ILLINOIS AVE","OAK RIDGE","TN","37830"
"JQgvJmSxsEu9HQiaF","Fox Nissan of Grand Rapids","4430 28TH ST SE","KENTWOOD","MI","49512"
"JSGc4Ku5E55Yz38o6","Huttig Nissan","4670 STATE ROUTE 9","PLATTSBURGH","NY","12901"
"JayHJwSE3WDfdsoQD","AutoServ Nissan of Tilton","40 EAST MAIN ST","TILTON","NH","03276"
"Jc4Gx6yYFAGqytqbG","Orr Nissan East","5108 SE 15TH ST","DEL CITY","OK","73115"
"Jctw2Bz4RWbaEv52K","AutoNation Nissan Tempe","7755 S AUTOPLEX LOOP","TEMPE","AZ","85284"
"JebRSYvhhcHeLhWpz","South Colorado Springs Nissan","1333 S ACADEMY BLVD","COLORADO SPRINGS","CO","80916"
"JgBW7uLkmFBJzzcF3","Vaden Nissan of Hinesville","1009 E OGLETHORPE HWY","FLEMINGTON","GA","31313"
"JhKLui85T4xW398Ju","Graff Nissan of Okemos","1728 GRAND RIVER AVENUE","OKEMOS","MI","48864"
"Jne77M7mYMrhYrw7T","Scott Clark Nissan","9215 SOUTH BLVD","CHARLOTTE","NC","28273"
"JokQk57na22ssH9p7","Browns Dulles Nissan","45155 TOWLERN PL","STERLING","VA","20166"
"JqYzACNo6d2fFrr9z","Douglass Nissan","1001 EARL RUDDER FWY S","COLLEGE STATION","TX","77845"
"JvAdiC7nnXkJ3RKvX","Bellevue Nissan","14762 SE EASTGATE WAY","BELLEVUE","WA","98007"
"JxvHXLET4B9faP49K","Southern 441 Nissan","9405 SOUTHERN BLVD","ROYAL PALM BEACH","FL","33411"
"K37CFiYpeaAMCMwCB","Lia Nissan of Enfield","10 PALOMBA DR","ENFIELD","CT","06082"
"K6ZukJYXj4cDCiFsN","Blackburn Nissan","2195 NORTH FRONTAGE RD","VICKSBURG","MS","39180"
"KAScXpKPsn3RcY664","Lee Nissan","107 MAIN ST","TOPSHAM","ME","04086"
"KE2JQYPP7Lra3uKNp","JP CHEVROLET - GEO - NISSAN - COMPANY","3675 FRONTAGE RD","PERU","IL","61354"
"KE3NLuEvN2FiPkawX","Empire Lakewood Nissan","14707 W. COLFAX AVE","LAKEWOOD","CO","80401"
"KEicbp8g6vjCPyuvL","Nissan City of Port Chester","225 BOSTON POST RD","PORT CHESTER","NY","10573"
"KL6atrqt2xvHYv8QH","Sheridan Nissan","114 S DUPONT HWY","NEW CASTLE","DE","19720"
"KXkpeZTc9RzSEd3ah","Mossy Nissan OCEANSIDE","3535 COLLEGE BLVD","OCEANSIDE","CA","92056"
"Kabcp5hj4hKJMc9EC","Southlake Nissan","4201 E LINCOLN HWY","MERRILLVILLE","IN","46410"
"KgMZrsWt8DxWCNcfg","Montrose Nissan","1455 N HERMITAGE RD","HERMITAGE","PA","16148"
"Kj3RrEcekrw8yWX4w","Nissan of Meridian","1106 N FRONTAGE RD","MERIDIAN","MS","39301"
"Kk6rsP9Xvf4MMZ9mw","Classic Nissan of Texoma","2010 US HIGHWAY 75 NORTH","DENISON","TX","75020"
"KmfGM4YYaWBxXWiEA","Younger Nissan of Frederick","7418 GROVE RD","FREDERICK","MD","21704"
"KpY7ia7EBJDhkfawH","Nissan of Gilroy","400 AUTOMALL DR","GILROY","CA","95020"
"KpmSjCeGEw3hyfJBd","Sutherlin Nissan Vero Bch","946 S US HIGHWAY 1","VERO BEACH","FL","32962"
"KrHHXZE2qdf9ZPS7N","Denny Menholt Billings Nissan","2100 KING AVE W","BILLINGS","MT","59102"
"KsAXtazqao2CHAvRE","FOX ANN Arbor Nissan Hyundai","3977 JACKSON ROAD","ANN ARBOR","MI","48103"
"KuXAm7mKwNoQjuGeq","My Auto Import Center","1860 E STERNBERG RD","MUSKEGON","MI","49444"
"KutjEmZ52czjKoQzM","Matt Castrucci Nissan","3013 MALL PARK DR","DAYTON","OH","45459"
"Kx3Av4SkPz4RA7qJf","Billion Nissan","4400 W 12TH STREET","SIOUX FALLS","SD","57107"
"KyeuiWmodLfnfZ5XM","Concord Nissan","1290 CONCORD AVE","CONCORD","CA","94520"
"L5owac7KrefiWQzin","Dave Syverson Ford Lincoln Volkswagen Nissan","2310 E MAIN ST","ALBERT LEA","MN","56007"
"L9trrkXZJejLtHv4C","Bill Seidi Nissan","10500 NW 12TH ST","DORAL","FL","33172"
"LDWTKbs9JBZCXgCxa","TEAM NISSAN","70 KELLER ST","MANCHESTER","NH","03103"
"LHgTGjMFhLYQF7NSr","Conyers Nissan","1420 IRIS DR SW","CONYERS","GA","30094"
"LMAc6RsvdsBb2puSj","Sansone Jrs 66 Kia","3401 ROUTE 66","NEPTUNE","NJ","07753"
"LNMXZNMLDScMBEefG","Swope Nissan","1100 N Dixie Hwy","ELIZABETHTOWN","KY","42701"
"LRQNfjXPFq2qH29Qp","Commonwealth Nissan","ONE COMMONWEALTH DRIVE","LAWRENCE","MA","01841"
"LTSXiuXc5wPj64GeC","Greenacres Nissan","5353 LAKE WORTH ROAD","GREENACRES","FL","33463"
"LX6tgsCbHNZXXFGRZ","Nissan of Paris","1490 MINERAL WELLS AVE","PARIS","TN","38242"
"LfJBndgxFEhnFhfCu","Bruce Bennett Nissan","978 DANBURY RD","WILTON","CT","06897"
"LfYcXEkjBMW3ojGgo","AutoNation Nissan Miami","3345 SW 8TH ST","MIAMI","FL","33135"
"Lq9n2dJFM56CEjPTn","Lawley Nissan","2960 E FRY BLVD","SIERRA VISTA","AZ","85635"
"LsiDSi66C3hBGj8Fj","Central Avenue Nissan","1919 Central Park Ave","YONKERS","NY","10710"
"LtZjuhDmZ7ph4z6gu","Gunter Nissan of Martinsville","4760 GREENSBORO RD","RIDGEWAY","VA","24148"
"LwTCstywuBwf68Kwm","Bob Bell Nissan","7900 EASTERN AVE","BALTIMORE","MD","21224"
"M3crsctKLm6ZxHnwX","Tanner Motors","620 W Washington","BRAINERD","MN","56401"
"M5B4uuYA827WoP4qs","My Nissan and KIA","222 AUTO CENTER CIR","SALINAS","CA","93907"
"M6ESsdSdwtnPyH5bk","Andy Mohr Nissan","4302 LAFAYETTE RD","INDIANAPOLIS","IN","46254"
"M8EfcTBPuBqS7vTfC","Lewis Nissan of Garden City","1221 LAREU ROAD","GARDEN CITY","KS","67846"
"M9EMAhTRvi2WLRCYo","Jones Motor","1260 WAYNE RD","SAVANNAH","TN","38372"
"MEx2uMMzwWLCLB3LH","Hawkinson Nissan","5513 MILLER CIRCLE DR","MATTESON","IL","60443"
"ML4j7cgPcwqqui2Hu","Columbus Nissan","100 HIGHWAY 12 E","COLUMBUS","MS","39702"
"MLmRDAu3FNtXFqDAj","Valdosta Nissan Cadillac","3715 INNER PERIMETER RD","VALDOSTA","GA","31602"
"MRtnyvpCeQh46MBeH","Stone Mountain Nissan","4275 HWY 78","LILBURN","GA","30047"
"MYsJ3Wh5njoJ94H4e","Torre Nissan","79-125 HIGHWAY 111","LA QUINTA","CA","92253"
"MZ95qQ7bmWDJtaToc","CHARLIES NISSAN","465 WESTERN AVE","AUGUSTA","ME","04330"
"MaFkX7z3pGNir44pR","Modern Nissan of Concord","967 CONCORD PKWY S","CONCORD","NC","28027"
"MaXXtkJxEJZJryCt7","McCarthy Nissan of Lawrence","2101 W. 29TH TERRACE","LAWRENCE","KS","66047"
"MfnYvyutiApHjziqF","Nissan of Cookeville","501 NEAL ST","COOKEVILLE","TN","38501"
"Mkb52o7RQTqA4hKgg","Nissan of New Rochelle","2533 PALMER AVE","NEW ROCHELLE","NY","10801"
"MkqgJ4EcH9yRgGRjb","Bill Gatton Nissan","235 CENTURY BLVD","BRISTOL","TN","37620"
"MmBeqCJu5BFYdXM6m","Tim Dahle Nissan Bountiful","955 N 400 E","N SALT LAKE CITY","UT","84054"
"MmgkmmAmhRKovwEkr","Koeppel Nissan","74-05 - 74-15 NORTHERN BL","JACKSON HEIGHTS","NY","11372"
"MoAGHrKaTMiyzCPTD","Nissan of Norwich","691 W THAMES ST","NORWICH","CT","06360"
"Mp25yKf46oN7hf4X5","Browns Fairfax Nissan","11010 FAIRFAX BLVD","FAIRFAX","VA","22030"
"Mrs7jJjn2PMSoHgGQ","Nissan of Durango","20704 HIGHWAY 160 W","DURANGO","CO","81303"
"MtL4wgsjXg3GWb4cw","Garvey Nissan","78 ROUTE 7B NORTH EXT","NORTH CLARENDON","VT","05759"
"N22aKWm39ECswS9Xg","Lynn Layton Cadillac-Nissan","2402 HIGHWAY 31 S","DECATUR","AL","35601"
"N3CQp4hMhqS2k26pW","Future Nissan of Roseville","600 AUTOMALL DR","ROSEVILLE","CA","95661"
"N5YSDYM39AapFJwF3","North Bay Nissan","1250 AUTO CENTER DR","PETALUMA","CA","94952"
"NCDJK3nMhDJkoJb7N","Downey Nissan","7321 FIRESTONE BLVD","DOWNEY","CA","90241"
"NCdgK8vu6NaF9ofhZ","Nissan of Clinton","412 SOUTHEAST BLVD","CLINTON","NC","28328"
"NFuQC6i9CJutBpiny","Mentor Nissan","6960 CENTER ST","MENTOR","OH","44060"
"NJcRdqj9hHX6cDnAF","Gurley Leep Nissan","5210 N GRAPE ROAD","MISHAWAKA","IN","46545"
"NPaCw2cc73DBLAscB","Chevrolet Nissan of Walla Walla","1395 DALLES MILITARY RD","WALLA WALLA","WA","99362"
"NTc8437tmEzZjKJpb","Orr Nissan West","8800 NW EXPRESSWAY","OKLAHOMA CITY","OK","73162"
"NWRG8a7AMGayCEwJv","Route 66 Nissan of Tulsa","8190 E SKELLY DR","TULSA","OK","74129"
"NXbz77PfkqKT7vGxp","AutoNation  Nissan Pembroke Pines","8890 PINES BLVD","PEMBROKE PINES","FL","33024"
"NZy4PnD94MiTQvNMo","Courtesy Nissan","1777 N CENTRAL EXPY","RICHARDSON","TX","75080"
"NbsJACsZ3SKDQztTa","Reidsville Nissan","1123 FREEWAY DR","REIDSVILLE","NC","27320"
"NdMdcaj8ocByrpi24","Round Rock Nissan","3050 n ih 35","ROUND ROCK","TX","78681"
"NdSvcGy6p3SSh7QZv","Anderson Nissan","6555 EAST STATE STREET","ROCKFORD","IL","61108"
"NeY9i88psrzdFgBAi","Beaver County Nissan","2777 CONSTITUTION BLVD","BEAVER FALLS","PA","15010"
"NeiQBGMziSfohywtB","West Texas Nissan","4307 n john ben shepperd","ODESSA","TX","79762"
"NheC49Npnj68CZFJc","Anderson Nissan","3842 N HIGHWAY 95","LAKE HAVASU CITY","AZ","86404"
"NrBif9fsG2o6nZqWc","Sid Dillon Buick Nissan Hyundai Saab","2627 KENDRA LN","LINCOLN","NE","68512"
"Nudf7pkhK2ocgzGBG","HGreg Nissan Delray","2200 S FEDERAL HWY","DELRAY BEACH","FL","33483"
"NzZhTzCeEr35QqKRK","Grand Strand Nissan","4701 HIGHWAY 501","MYRTLE BEACH","SC","29579"
"P2rmi4dsSyDqhZYHf","Sames Kingsville Nissan","2501 S US HWY 77","KINGSVILLE","TX","78363"
"P3y549M56Ynu3oQxd","Greenway Nissan of Jacksonville","1726 CASSAT AVE","JACKSONVILLE","FL","32210"
"P4ztEJojSQNSGEXLt","Weston Nissan Volvo","3650 WESTON RD","DAVIE","FL","33331"
"P6fzPhXwiBtT4ruwr","Nissan of Duarte","1434 BUENA VISTA ST","DUARTE","CA","91010"
"P73ZXHhsupANKYKEx","Nalley Nissan of Atlanta","2551 THE NALLEY WAY","ATLANTA","GA","30360"
"P84n7T62wXByDjDdS","Rogers & Rogers Nissan","2361 hwy 86","IMPERIAL","CA","92251"
"PANqrQ4xjrqDnLnke","Walser Nissan Coon Rapids","3300 129TH AVE NW","COON RAPIDS","MN","55448"
"PJZdoxWgx2242CJ7e","Moyer Nissan","6210 W PENN AVE","WERNERSVILLE","PA","19565"
"PKd7BgR2oHb5YnKWK","Deery Brothers Nissan of Dubuque","600 CENTURY DR","DUBUQUE","IA","52002"
"PLwj9krgwBsXAw8Ln","Coulter Nissan","13301 N AUTOSHOW AVE","SURPRISE","AZ","85388"
"PWtSP4QYHjCejgdj9","Rustom Nissan of Portland","1212 NE 122ND AVE","PORTLAND","OR","97230"
"PX8x8nn78AqCQd3uS","Giles Nissan OPELOUSAS","4383 I-49 S SERVICE ROAD","OPELOUSAS","LA","70570"
"PabTgfMTRQfGYQFfM","Milford Nissan","320 E MAIN ST","MILFORD","MA","01757"
"Pb4Mpk4aENSG4HBdD","Lee Nissan","235 MIRACLE STRIP PKWY SW","FORT WALTON BEACH","FL","32548"
"Pdok3W8fD57n4QL3L","Nissan of Lagrange","1050 LAFAYETTE PKWY","LAGRANGE","GA","30241"
"PfW49mvKAfjEfobZp","Leith Nissan","2000 AUTO PARK BLVD","CARY","NC","27511"
"PhJbsLYGnM5DXrG8T","Western Avenue Nissan","7410 S WESTERN AVE","CHICAGO","IL","60636"
"Php5DG7WMcpibbRGa","Orr Nissan Central","200 E I 240 SERVICE RD","OKLAHOMA CITY","OK","73149"
"Phyb9CfKmoMhJCuF2","Mission Hills Nissan","11000 SEPULVEDA BLVD","MISSION HILLS","CA","91345"
"PkyTfShGyBJuz8krw","Empire Nissan","1377 kettering loop","ONTARIO","CA","91761"
"PpDSq5BowHNkG3irm","LARRY H MILLER NISSAN ARAPAHOE","10030 E ARAPAHOE RD","CENTENNIAL","CO","80112"
"Pt6qDJTjuWdCufDmu","Nissan World of Springfield","146-162 RT 22 WEST","SPRINGFIELD","NJ","07081"
"Q5tHKQi8xGvqfqhot","Lokey Nissan","27758 US HIGHWAY 19 N","CLEARWATER","FL","33761"
"Q6pqgGwrsbS3RdETx","Grainger Nissan Beaufort","219 ROBERT SMALLS PKWY","BEAUFORT","SC","29906"
"Q9Qm7rws2TwF7uyNC","Nissan of Burlingame","101 CALIFORNIA DR","BURLINGAME","CA","94010"
"QBX9vR63teEPaPeQS","Liberty Volkswagen Nissan","920 S MILWAUKEE AVE","LIBERTYVILLE","IL","60048"
"QPFcomjPYEG9BzPr2","Tom Naquin Chevrolet-nissan","2500 W LEXINGTON AVE","ELKHART","IN","46514"
"QQQ98C39kr2NgHiZK","Formula Nissan","1504 US ROUTE 302","BARRE","VT","05641"
"QZvHxXM6RKqctFAn3","Pat Fischer Nissan","1128 S HOPKINS AVE","TITUSVILLE","FL","32780"
"QaqDmsQti8coufocj","Boardman Nissan","7809 MARKET ST","BOARDMAN","OH","44512"
"QebbiEv6QKJePKbEM","Coggin Nissan","10600 ATLANTIC BLVD","JACKSONVILLE","FL","32225"
"QetSdWpZSnS8jGXSE","Lia Nissan of Glens Falls","373 DIX AVENUE","QUEENSBURY","NY","12804"
"QirzaK3KzrMj3JCf4","John Roberts Nissan","2747 HILLSBORO BLVD","MANCHESTER","TN","37355"
"Qm3AAs6jSYBibCn9L","Nissan of Visalia","830 S BEN MADDOX WAY","VISALIA","CA","93292"
"QnCZHWjbqrDkw3RHt","Nissan Of Lexington Park","22757 Three Notch Rd","CALIFORNIA","MD","20619"
"QpQdDhouE4Pyzik3J","Nissan of Orange Park","7447 BLANDING BLVD","JACKSONVILLE","FL","32244"
"QpZqPCJMoe4DCdxK7","Ourisman Nissan","3510 FORT MEADE RD","LAUREL","MD","20724"
"QsnGEYBJX79setrTc","Wolfchase Nissan","2956 N GERMANTOWN RD","BARTLETT","TN","38133"
"QttuCvijmkaCFA5QA","Tates Nissan","1251 NORTH AUTOMALL PKWY","SHOW LOW","AZ","85901"
"R5LXccQJkeHiJnrHW","FIESTA NISSAN","5001 S 169C","EDINBURG","TX","78539"
"R5zhnFuMMTWAPCwoD","GARBER NISSAN","5450 BAY RD","SAGINAW","MI","48604"
"R6cdPT7vseurr7yex","Don Franklin Lexington Nissan","3360 RICHMOND RD","LEXINGTON","KY","40509"
"R73SjTLdyQdH32fAn","Thomas Nissan of Joliet","1421 N LARKIN AVE","JOLIET","IL","60435"
"R7H7ZHj6ivZaXg64q","Mossy Nissan National City","2700 NATIONAL CITY BLVD","NATIONAL CITY","CA","91950"
"R9BoWe2JmYhX34oqW","Autoeastern Nissan of Englewood Cliffs","340 sylvan ave (rt 9w)","ENGLEWOOD CLIFFS","NJ","07632"
"RA5oQPY35ocQ5Buy3","Morries Brooklyn Park Nissan","7875 BROOKLYN BLVD","BROOKLYN PARK","MN","55445"
"RBXWeBWCxR2Q8YG2k","Hicks Family Nissan","3002 IH 69 Access Rd","ROBSTOWN","TX","78380"
"RHJknJzncdQLHH5qP","Team Nissan","1715 S DELSEA DR","VINELAND","NJ","08360"
"RJaom2tWGrqxdTgq4","Gerald Nissan of North Aurora","213 HANSEN BLVD","NORTH AURORA","IL","60542"
"RKvZKcQoC9itosgNj","RAY SCHULTENS NISSAN","2400 W 6TH ST","THE DALLES","OR","97058"
"RRYPa396ZQ76JiRnJ","Pohanka Nissan of Salisbury","2012 N SALISBURY BLVD","SALISBURY","MD","21801"
"RSRuJ8GNofrDzcR48","Hubler Nissan","8435 us hwy 31 s","INDIANAPOLIS","IN","46227"
"RThSyc57vB9P3vHon","Nissan of Boerne","31805 INTERSTATE HWY 10 W","BOERNE","TX","78006"
"RWvFL4t74x7GqWz2T","Nissan 112","730 ROUTE 112","PATCHOGUE","NY","11772"
"RZaPL7t8EWertvbo5","Nissan of Picayune","239 FRONTAGE RD","PICAYUNE","MS","39466"
"RZpmkMM9ZAvQw367Y","Andy Mohr Avon Nissan","8867 E US HIGHWAY 36","AVON","IN","46123"
"RcmzuBYrDzhNQoGsw","Welch Motor Company Nissan","2505 S OLIVE ST","PINE BLUFF","AR","71601"
"RcrCu5k5ussPMGsbq","Bergstrom Nissan","3265 S WASHBURN ST","OSHKOSH","WI","54904"
"RcycLTdAdeFDru3TR","Curry Nissan Chicopee","765 MEMORIAL DR","CHICOPEE","MA","01020"
"RdSEKc5FYmv5z43gz","Performance Nissan Of Butler","1567 State Rt 23","BUTLER","NJ","07405"
"RiJvh5tTqftcFW8S4","LARRY H MILLER NISSAN 104TH","2400 W 104TH AVE","DENVER","CO","80234"
"RiNQBYBoFCr9PJzFb","Supreme Nissan of Slidell","400 EAST HOWZE BEACH RD","SLIDELL","LA","70461"
"RkprYr8edYW4BGcdQ","Mills Toyota","3700 US HWY 71 SOUTH","WILLMAR","MN","56201"
"RmwFPPHsghMsnA5mJ","Kelly Nissan","4300 W 95TH ST","OAK LAWN","IL","60453"
"RnjdmtXeXAZZYgXat","Mcgavock Nissan","6312 MILWAUKEE AVE","LUBBOCK","TX","79424"
"Ro4HDichc2san6EWo","Rusty Wallace Nissan","4515 CLINTON HIGHWAY","KNOXVILLE","TN","37912"
"RqBDk7B5b2j79grhq","Dutro Nissan","131 S 5TH ST","ZANESVILLE","OH","43701"
"RwQ2KHaoHwxfEZmMz","Bayside Nissan","2542 RIVA RD","ANNAPOLIS","MD","21401"
"Rxm9wZNFEypPHfJ2a","Stadium Nissan","1140 W KATELLA AVE","ORANGE","CA","92867"
"RyTb9MiAyvDmwL3tR","Dublin Nissan","2046 VETERANS BLVD","DUBLIN","GA","31021"
"Rz3jeiiEoJYz5yyJX","Lithia Nissan of Fresno","5580 N BLACKSTONE AVE","FRESNO","CA","93710"
"Rz84dHQSWSAMA7iJH","Nissan of Bowie","2200 CRAIN HWY","BOWIE","MD","20716"
"S7kmcTo6PrSSTHEqR","Executive Jeep Nissan","900 UNIVERSAL DR N","NORTH HAVEN","CT","06473"
"S7th3HXbhcLK868QS","West Herr Nissan","3580 SOUTHWESTERN BLVD","ORCHARD PARK","NY","14127"
"S9YXMkmZ6sme4teP9","Ken Garff Nissan Riverdale","615 W RIVERDALE RD","RIVERDALE","UT","84405"
"SFYEh8x2bRRNWcBn7","Alan Webb Nissan","3608 NE AUTO MALL DR","VANCOUVER","WA","98662"
"SJASfXaEPCnbcHKxb","Sheehy Nissan of Manassas","9010 LIBERIA AVE","MANASSAS","VA","20110"
"SJAXqTtPLoZWbaeYZ","Fuccillo Nissan","3893 ROUTE 31","LIVERPOOL","NY","13090"
"SW9qNgqxm3jCupGQb","Yark Nissan","5957 W CENTRAL AVE","TOLEDO","OH","43615"
"Sa8cpMgadrkPbetZY","Courtesy Motor Sales","3100 Pleasant Valley Blvd","ALTOONA","PA","16602"
"SbcSaAwbihjpdqTbr","Antwerpen Nissan","12451 AUTO DR","CLARKSVILLE","MD","21029"
"SeYar4aQ8XW83gR5S","AutoEastern Nissan of Meadowlands","45 ROUTE 17 SOUTH","HASBROUCK HEIGHTS","NJ","07604"
"SkWuJHTJzYFhAnJR2","Mcgavock Nissan Abilene","818 E Overland Trail","ABILENE","TX","79601"
"SkxW6g8K6NEF6znHS","Priority Nissan Chantilly","14840 STONECROFT CTR C","CHANTILLY","VA","20151"
"SoMWw7sEYRaLcbAJ3","Pocatello Nissan & Kia","1900 FLANDRO DR","POCATELLO","ID","83202"
"SpCH5ksurJoZXnquf","Cronin Toyota Nissan of Richmond","5601 National Road East","RICHMOND","IN","47374"
"Sr43nubAtKoPnBbTN","Hilltop Nissan","258 ROUTE 10","EAST HANOVER","NJ","07936"
"SsLrBaYWHvkRmABSE","Montgomeryville Nissan","ROUTE 309 AT STUMP ROAD","MONTGOMERYVILLE","PA","18936"
"SstvhJqf4P8cjEvhh","Bedford Nissan","18115 ROCKSIDE RD","BEDFORD","OH","44146"
"StWZ8tDYpjMumqLkX","Woodbury Nissan","439 Mantua Ave","WOODBURY","NJ","08096"
"SxMT2t48jn7SDm3Ke","Nissan of ORANGEBURG","2827 ST. MATTHEWS RD.","ORANGEBURG","SC","29118"
"T4gT3hCA5T6GRvgKZ","Nissan of Mobile","1015 e i-65 service rd so","MOBILE","AL","36606"
"TAnsbLvRLNdaWTzs9","Van Horn Nissan of Sheboygan","5515 RACETRACK RD","SHEBOYGAN","WI","53081"
"TAxjB4vGGBivMndYq","Walker Jones Nissan","2715 MEMORIAL DR","WAYCROSS","GA","31503"
"TJoRLDocxLXNznZw4","Hamilton Nissan","1929 DUAL HWY","HAGERSTOWN","MD","21740"
"TKuTfatRzbdsqder8","Demaagd GMC Nissan","333 W DICKMAN RD","BATTLE CREEK","MI","49037"
"TLnMPTZwkNQPFaJ6d","Sterling Mccall Nissan","12230 SOUTHWEST FWY","STAFFORD","TX","77477"
"TWNbuHyz7Ksw8zsmm","Miller & Miller Nissan","4770 Highway 90","MARIANNA","FL","32446"
"TZ7db3kiTRKoQ8SpY","Vision Nissan","785 RIDGE RD","WEBSTER","NY","14580"
"TZtuzRE5ippS4qDt4","Busam Motor Sales","1501 E Kemper Rd","CINCINNATI","OH","45246"
"TcPXtHpT9jd4PrAka","ONeil Nissan","849 W Street Rd","WARMINSTER","PA","18974"
"Tecsu3vrb5T24ASqW","Nourse Chillicothe Automall","423 N BRIDGE ST","CHILLICOTHE","OH","45601"
"TfiYf3dxbHsR9QmyN","Abeloff Nissan","3259 ROUTE 611","BARTONSVILLE","PA","18321"
"TjjwWcoB2ZDodF3a2","Passport Nissan of Alexandria","150 S PICKETT ST","ALEXANDRIA","VA","22304"
"TpNwgujnD4TTBKbXg","Matthews Nissan of Paris","3411 NE LOOP 286","PARIS","TX","75460"
"Tr75v2gYh2GTPkAPd","Bill Hood Nissan","318 N MORRISON BLVD","HAMMOND","LA","70401"
"TrjeLnSwNHmc2XmZE","Cole Nissan","3003 STADIUM DR","KALAMAZOO","MI","49008"
"Ts4ZNcoqNSntECa4Y","South Houston Nissan","11911 GULF FWY","HOUSTON","TX","77034"
"TsPXFhzPvKDzv2bno","Nissan of Bay Shore","1521 SUNRISE HIGHWAY","BAY SHORE","NY","11706"
"TtKaCNscxG7jNpmSi","Nissan of Athens","4735 ATLANTA HWY","BOGART","GA","30622"
"TveBBQPRvvgsRvTeN","Fred Anderson Nissan of Asheville","629 BREVARD RD","ASHEVILLE","NC","28806"
"TxZuK4A8Hpmi45j5f","Coast Nissan","12150 LOS OSOS VALLEY RD","SAN LUIS OBISPO","CA","93405"
"Tz5GN8EMg5cbxfriL","Carousel Nissan","817 HIGHWAY 1 W","IOWA CITY","IA","52246"
"W5CqG55QEmb5eKhF2","Santa Maria Nissan Mazda","1001 E BATTLES RD","SANTA MARIA","CA","93454"
"WTcJXfKz9RyQXm8kE","Bel Air Nissan","1506 BEL AIR RD","BEL AIR","MD","21014"
"WY4RgBfo7uqgZ8XCd","Cannon Nissan of OXFORD","479 HIGHWAY 6 W","OXFORD","MS","38655"
"WcTStqHQhdQciixni","Universal Nissan","12785 S ORANGE BLOSSOM TR","ORLANDO","FL","32837"
"WgDk6bpXxGTwJSQZ7","Regal Nissan","1090 HOLCOMB BRIDGE RD","ROSWELL","GA","30076"
"WggM3vDy2ufyNteB2","Grossman Nissan","295 MIDDLESEX TPKE","OLD SAYBROOK","CT","06475"
"Wgvm6GpD8nbsJt9jW","Capital Nissan of Wilmington","5501 MARKET ST","WILMINGTON","NC","28405"
"WhNrnvvNmiAnh72am","Rick Hill Nissan","2700 PARR AVE","DYERSBURG","TN","38024"
"WhTtkHJPJpKzmTAfo","Premier Nissan of Fremont","5701 CUSHING PKWY","FREMONT","CA","94538"
"Wid6GQsSf4wpng6Pu","Autofair Nissan of Chelmsford","95 DRUM HILL ROAD","CHELMSFORD","MA","01824"
"WksFnSD7ZyB5emM2t","Karmart Nissan Burlington","655 AUTO BLVD","BURLINGTON","WA","98233"
"Wn7vhZruoDkdajPEL","Nissan of Silsbee","3480 HIGHWAY 96 BYP","SILSBEE","TX","77656"
"WnTzdzL6PSWo2AxyN","J P Thibodeaux Nissan","2417 HIGHWAY 90 W","NEW IBERIA","LA","70560"
"Wp4jtBu8Dyb7Tjp6q","Baytown Nissan","5445 I-10 EAST","BAYTOWN","TX","77521"
"WsLoCXyimu6RGBP2w","Benton Nissan","1834 US HIGHWAY 78 E","OXFORD","AL","36203"
"WuBLXC6sufAiB8bbo","Shults Nissan Subaru","311 FLUVANNA AVE","JAMESTOWN","NY","14701"
"X2ZgQjoQ9YZK336bG","Jim Burke Nissan","1300 3RD AVE N","BIRMINGHAM","AL","35203"
"X7i7rigHXLwij3p35","Tom Peacock Nissan","15300 NORTH FWY","HOUSTON","TX","77090"
"X7sYE99nbzukyMY9p","Gordie Boucher Nissan","4141 S 108Th St","MILWAUKEE","WI","53228"
"X9YsWFFLwamXmkSiv","Orr Nissan of Russellville","3115 E MAIN ST","RUSSELLVILLE","AR","72802"
"XBjLh2FqXqeJmEodz","JC Billion Nissan","380 AUTOMOTIVE AVENUE","BOZEMAN","MT","59718"
"XF2bKPeTpgQ22m6Cj","Zimbrick Nissan","5330 High Crossing Blvd","MADISON","WI","53718"
"XKqF3iaw5z4Cperi2","Sandy Sansing Nissan","5705 PENSACOLA BLVD","PENSACOLA","FL","32505"
"XM5Q4EBwj76e9RGy2","Midway Nissan","2201 W BELL RD","PHOENIX","AZ","85023"
"XNNxfXEgPGvEwmyWJ","Simmons Nissan","1994 ROCKFORD ST","MOUNT AIRY","NC","27030"
"XNk84br82knXYmvLo","AL Piemonte Nissan","1600 W NORTH AVE","MELROSE PARK","IL","60160"
"XPcJR8XkKNoQYduZK","Burien Nissan","16042 FIRST AVENUE SOUTH","BURIEN","WA","98148"
"Xba9ghTfo7XXcyaes","Riverside Nissan","400 RIVER STREET","HACKENSACK","NJ","07601"
"Xc8nbFSdtKS8TWKch","Ricart Hyundai Kia Nissan","4225 S Hamilton Rd","COLUMBUS","OH","43125"
"XfsZABTcWJxZFYmCx","Nissan of Yuba City","1340 BRIDGE STREET","YUBA CITY","CA","95993"
"XgcbawyKujbJFeFYZ","Star Nissan","20602 NORTHERN BLVD","BAYSIDE","NY","11361"
"XqiL8fQtNT9CoQ6Ww","Nissan of Roanoke Rapids","407 premier dr","ROANOKE RAPIDS","NC","27870"
"Xs5joCFjKjwbbqFeq","Barberino Nissan","505 N COLONY ST","WALLINGFORD","CT","06492"
"XuXjwF7WcGecqBuj5","The Autobarn Nissan of Evanston","1012 CHICAGO AVE","EVANSTON","IL","60202"
"XutKRDw2o6dvc7R3h","Campbell Nelson Nissan","24325 HIGHWAY 99","EDMONDS","WA","98026"
"Xxb6dPnZj6dLyyGwN","Miller Lincoln-Nissan","2930 2ND ST S","SAINT CLOUD","MN","56301"
"Y9KuTaAKtrJMGnHW8","Serra Nissan","1500 CENTER POINT PKWY","BIRMINGHAM","AL","35215"
"YBiZyAnqC5J922HHy","Harbor Nissan","4336 TAMIAMI TRL","PORT CHARLOTTE","FL","33980"
"YCBZWxYMCAumPfkHg","Nissan of Downtown LA","635 W WASHINGTON BLVD","LOS ANGELES","CA","90015"
"YD3k5Mc9aFHbfFgCd","Ron Sayer Nissan","1175 N WOODRUFF AVE","IDAHO FALLS","ID","83401"
"YKBrDbztcM27E3hbt","Destination Nissan","770 CENTRAL AVENUE","ALBANY","NY","12206"
"YXDELaHMXfzNeFHsq","Ed Hicks Nissan","3000 S PADRE ISLAND DR","CORPUS CHRISTI","TX","78415"
"Yaoqtto442huzCBxS","First Team Nissan of New River Valley","2130 N FRANKLIN ST RTE460","CHRISTIANSBURG","VA","24073"
"YfdxKnkk6NJru7RvZ","Priority Nissan Newport News","12925 JEFFERSON AVE","NEWPORT NEWS","VA","23608"
"YrzW3sWciY68rhdEo","Fontana Nissan","16444 S HIGHLAND AVE","FONTANA","CA","92336"
"YtYoAssjyn4oXjGCC","Parkway Nissan","877 COMMERCIAL PARKWAY","DOVER","OH","44622"
"YuAbjKWaCF8Q4W28m","Hugh White Nissan Lancaster","2480 N MEMORIAL DR","LANCASTER","OH","43130"
"Z3MygzvYkNv422aQp","Nissan of Hawthorne","1060 GOFFLE RD","HAWTHORNE","NJ","07506"
"Z3T3LbtQJGBioLbKh","Nissan of Queens","93-25 ROCKAWAY BLVD","OZONE PARK","NY","11417"
"Z4YXARvMCTF72hvia","State Line Nissan","10401 MADISON AVE","KANSAS CITY","MO","64114"
"Z5MJ7KqFogosCCJPo","94 Nissan of South Holland","16269 VAN DAM RD","SOUTH HOLLAND","IL","60473"
"Z6uJTgKR49M9jB4eh","Nissan of St Augustine","2755 US HIGHWAY 1 S","ST. AUGUSTINE","FL","32086"
"Z8eMTM3r4NniqNZuj","Country Club Kia Nissan","55 ONEIDA ST","ONEONTA","NY","13820"
"Z8sEuJGWBL3BrSXAF","Fairbanks Nissan","2610 S CUSHMAN ST","FAIRBANKS","AK","99701"
"ZAjcpwRbBDTTsbgrJ","Don Davis Nissan","1320 E INTERSTATE 20","ARLINGTON","TX","76018"
"ZB3TH8879vMLjBG7k","Alan Jay Nissan","1700 FLARE RD","SEBRING","FL","33872"
"ZHrJqXJnRSPKtsjqf","Edwards Nissan","920 32ND AVE","COUNCIL BLUFFS","IA","51501"
"ZNFxGxNZchNjCHe8k","Nissan of Macomb","22100 HALL ROAD","CLINTON TOWNSHIP","MI","48038"
"ZNyxPyJ87TLcjX48g","MLady Nissan","5656 NORTHWEST HWY","CRYSTAL LAKE","IL","60014"
"ZPaBJN6957QFAneHm","Santa Barbara Nissan","425 S KELLOGG AVE","GOLETA","CA","93117"
"ZQWkKfK83NmkDSRSE","Flagstaff Nissan","4960 E MARKET PLACE DR","FLAGSTAFF","AZ","86004"
"ZQsQbAs794ytPnz42","Texas Nissan of Grapevine","1401 W STATE HIGHWAY 114","GRAPEVINE","TX","76051"
"ZSa6SeF7vTKjgat46","Mccrea Nissan","601 7TH ST","EUREKA","CA","95501"
"ZdgkzTczDv4Zz7T2Z","Green Nissan","4801 W WABASH AVENUE","SPRINGFIELD","IL","62711"
"Zhmoo8AmuW3hERsn3","Bosak Nissan","220 Verplank Rd","Burns Harbor","IN","46304"
"ZimDxxor9d3gJRCJB","Beau Townsend Nissan","1050 W NATIONAL RD","VANDALIA","OH","45377"
"ZjjgRSsyjWLJNpBaW","Hunter Nissan","1340 SPARTANBURG HWY","HENDERSONVILLE","NC","28792"
"Zk3HZpDCwLgXhrGBW","West Palm Beach Nissan","3870 W BLUE HERON BLVD","RIVIERA BEACH","FL","33404"
"Zkh3B9atzByekpgX6","Rydell Honda Nissan of Grand Forks","3220 S WASHINGTON ST","GRAND FORKS","ND","58201"
"ZuiGsdqZ676Sa9vmo","Byford Nissan","114 ACCESS RD","ELK CITY","OK","73644"
"ZweumaeRe3yMPCqto","Mcdonough Nissan","1775 AVALON PARKWAY","MCDONOUGH","GA","30253"
"Zysxk7bJtsc6w8m3S","Capital City Nissan of Topeka","1980 SW TOPEKA BLVD","TOPEKA","KS","66612"
"Zz2oEMTk5WGW4iX8B","Boch Nissan","525 BOSTON PROVIDENCE HWY","NORWOOD","MA","02062"
"a25j5DBjNuLJviMXv","Maguires Nissan","2001 CUMBERLAND ST","LEBANON","PA","17042"
"a2PP3eJCayHnJo8XT","Bill Ray Nissan","2724 N HIGHWAY 17/92","LONGWOOD","FL","32750"
"a5CKQvmeLZGrZKbny","Criswell Nissan","19574 AMARANTH DR","GERMANTOWN","MD","20874"
"a62pDPjPy9SSz7Ctq","Crossroads Automotive Group","11120 CAPITAL BLVD","WAKE FOREST","NC","27587"
"a9Dh33Bu6u2EKgh6X","Bob Rohrman Kenosha Nissan","8050 120TH AVE","KENOSHA","WI","53142"
"a9FzX2NaaCjTqanrg","Nissan of Shelby","631 S. POST RD","SHELBY","NC","28152"
"aCR8DKmdDP4FQEaWu","John Youngblood Motors","3505 S CAMPBELL AVE","SPRINGFIELD","MO","65807"
"aF6khfxAoQN2RMwW4","Jim Keras Nissan","2080 COVINGTON PIKE","MEMPHIS","TN","38128"
"aK3b6B5x9WWnjyFng","Nissan of New Braunfels","2077 IH-35 NORTH","NEW BRAUNFELS","TX","78130"
"aKgtXQYcCfLeHQwff","Coughlin Nissan","1459 HEBRON RD","HEATH","OH","43056"
"aLujJfHNWWNTFJ949","Town North Nissan","9160A RESEARCH BLVD","AUSTIN","TX","78758"
"aQ7RsFQCpS2cbWcjy","Ingram Park Nissan","6990 NW LOOP 410","SAN ANTONIO","TX","78238"
"aSsN6fwsgc2uYN2RB","Smolich Nissan","1835 NE HIGHWAY 20","BEND","OR","97701"
"aTNWJweLtQGBZYjFS","Kims Nissan Chevrolet","2516 HIGHWAY 15 N","LAUREL","MS","39440"
"aYMcAAcFYFMXTXWtR","Poughkeepsie Nissan","1445 ROUTE 9","WAPPINGERS FALLS","NY","12590"
"aZFB3BLFpNMnyDLt5","Kocourek Nissan","2700 N 20Th Ave","WAUSAU","WI","54401"
"aZm6u5DEDmrHnq8iC","Troy Nissan","110 US 231 N","TROY","AL","36081"
"abzRQitFYNzPstECu","#1 Cochran Nissan Monroeville","3355 WILLIAM PENN HWY","PITTSBURGH","PA","15235"
"adtNEwkewTAo6Mbop","Tracy Nissan","3195 N NAGLEE RD","TRACY","CA","95304"
"aivePKyrA9nDLMYrY","Maus Nissan of Crystal River","937 S SUNCOAST BLVD","HOMOSASSA","FL","34448"
"ajtnCkToY7anZEtwt","Lee Ford Lincoln","4170 RALEIGH ROAD PKWY W","WILSON","NC","27896"
"aju7nMDe7usQqPHRe","Herb Chambers Hyundai of Westborough","75 OTIS STREET","WESTBOROUGH","MA","01581"
"anSjsMkW6DyCGA4Me","King Windward Nissan","45-568 KAMEHAMEHA HWY","KANEOHE","HI","96744"
"at6EZKQEoTnRqXeZY","Crown Nissan of Decatur","165 W PERSHING RD","DECATUR","IL","62526"
"atAYpYrDkgcrdoN2n","Granite Nissan","2626 E MALL DR","RAPID CITY","SD","57701"
"azda4ARmfL7aY9AK7","Mojave Ford of Barstow","1010 W MAIN ST","BARSTOW","CA","92311"
"b2okiQtrijkp5Ztfa","McLarty Nissan of North Little Rock","5703 LANDERS RD","NORTH LITTLE ROCK","AR","72117"
"b6EjA5sfwm5yHSgwZ","Conklin Honda Buick GMC Nissan Hutchinson","1400 E 11TH AVE","HUTCHINSON","KS","67501"
"b7EzMca9hiDhSp6eQ","Mclarty Nissan of Little Rock","1 COLONEL GLENN PLAZA DR","LITTLE ROCK","AR","72210"
"b8KSowSwqcFj9W7ia","Elite Nissan of Bergenfield","318 S WASHINGTON AVE","BERGENFIELD","NJ","07621"
"b8YkXzT95hJqHXTL3","Simmons-Rockwell Nissan of Hornell","1151 COUNTY ROUTE 66","HORNELL","NY","14843"
"bAmNLfqHbEAaKdgsk","Weakley County Motors","841 N LINDELL ST","MARTIN","TN","38237"
"bAwHMfjBSazf2yv6f","Champion Nissan","24111 CREEKSIDE RD","VALENCIA","CA","91355"
"bCNuNAzNcujDfvrot","Garden City Nissan","316 N FRANKLIN ST","HEMPSTEAD","NY","11550"
"bD4nwKaT3zRSLsPMq","Roswell Nissan","2111 WEST 2ND STREET","ROSWELL","NM","88201"
"bFcLAY7h38Jqzpwqo","Coyle Nissan","1400 LEISURE WAY","CLARKSVILLE","IN","47129"
"bGHFC26t6wppCNErv","Vallejo Nissan","3287 SONOMA BLVD","VALLEJO","CA","94590"
"bKwzZgkX7BgDm8qu9","Port City Nissan","120 SPAULDING TPKE","PORTSMOUTH","NH","03801"
"bLytzsmxr93YhaCYD","Burdick Lincoln Mitsubishi Volkswagen Nissan Dodge Chrysler Jeep RAM Kia Cicero","5885 E CIRCLE DR","CICERO","NY","13039"
"bPb5JjNy6h92KSqxC","Ganleys Mayfield Nissan","6060 MAYFIELD RD","MAYFIELD HEIGHTS","OH","44124"
"bX2dhCoLmFAT74FXD","Carson Nissan","1505 E 223RD STREET","CARSON","CA","90745"
"bY8cXc5sADRhtk9Cs","Speedcraft Nissan","885 QUAKER LN","WEST WARWICK","RI","02893"
"bYgvMbmqSPKovNv5h","Glendale Nissan","484 NORTH AVE","GLENDALE HEIGHTS","IL","60139"
"bZDXaHXvnLhSwTmHP","Star Chevrolet-nissan-volvo","5200 STATE ROUTE 30","GREENSBURG","PA","15601"
"ba9NRXHsYXtwHSe7Q","North Plainfield Nissan","545 ROUTE 22 W","NORTH PLAINFIELD","NJ","07060"
"bechWsxK62F9Z7KdX","Gray Daniels Nissan North Jackson","6080 I-55 N FRONTAGE RD","JACKSON","MS","39211"
"bgNNKDNFyFNrxopWW","Speck Nissan","61 E ALLEN RD","SUNNYSIDE","WA","98944"
"bjEifzC4vZiAmCs88","Mtn View Nissan","2100 S MARKET ST","CHATTANOOGA","TN","37408"
"bjimscf8MFa73ND5t","Cochran Nissan of South Hills","3200 W LIBERTY AVE","PITTSBURGH","PA","15216"
"bp39eGtLRFPQZQJw6","Gulf Coast Nissan","3000 NORTH 288 FREEWAY","ANGLETON","TX","77515"
"bqgWs3sjXLkrMa6iv","Priority Nissan-Mazda","8525 LEESBURG PIKE","VIENNA","VA","22182"
"brCefu2jeKPLcJEEH","LAUREL NISSAN","1880 BEDFORD STREET","JOHNSTOWN","PA","15902"
"btXmFcAnbExpv6dc8","Brower Brothers Nissan","1525 DEWAR DR","ROCK SPRINGS","WY","82901"
"btYxrvFSmcYyHGAdH","Crown Nissan Greenville","2712 LAURENS RD","GREENVILLE","SC","29607"
"bvJLsWNpjAjpvCvge","Rockland Nissan","608 ROUTE 303","BLAUVELT","NY","10913"
"bxXbxLfhPqcy3FBBH","Nissan of Ellicott City","8569 BALTIMORE NATIONAL PIKE","ELLICOTT CITY","MD","21043"
"bxabh8CRTLqp56bh3","NORTH SHORE NISSAN","24A COMMONWEALTH AVE","DANVERS","MA","01923"
"byQvFRNDGgjMFwrbC","Bender Honda Nissan","3000 Mabry Dr","CLOVIS","NM","88101"
"c2EX79gxkpmtrxbgA","Gates Buick GMC Nissan","143 BOSTON POST RD","NORTH WINDHAM","CT","06256"
"c4y5x46fYmWwrdfAj","D-patrick Nissan","4200 E DIVISION ST","EVANSVILLE","IN","47715"
"cBPWh99zoumHhibmY","Lithia Nissan of Eugene","2060 MARTIN LUTHER KING JR BLVD","EUGENE","OR","97401"
"cBxL72Rp8TgfqE6vo","Woodfield Nissan","700 W HIGGINS RD","HOFFMAN ESTATES","IL","60169"
"cGqi8frZ5ok4TX3Jm","Permian Nissan","3600 N GRIMES STREET","HOBBS","NM","88240"
"cKGkGhLHb62nPbd7Y","Jack Ingram Nissan","227 EASTERN Byp","MONTGOMERY","AL","36117"
"cLLRJdgjwYoYbsN8i","Kelly Nissan of Woburn","95 CEDAR ST","STONEHAM","MA","02180"
"cLdmf5fwa3R68F4JP","Carlock Nissan of Jackson","495 VANN DR","JACKSON","TN","38305"
"cPdncaoH2qbJzxRfQ","All Star Kia East","27700 JUBAN RD","DENHAM SPRINGS","LA","70726"
"cRSbrJyseh8RYhmax","Cherry Hill Nissan","RT 38 AND CHURCH ROAD","CHERRY HILL","NJ","08002"
"cRkXdRzAsgPDrsrzo","Cerritos Nissan","18707 STUDEBAKER RD","CERRITOS","CA","90703"
"cRxgBpSKoYLWfeMQq","Newton Nissan of Gallatin","1461 NASHVILLE PIKE","GALLATIN","TN","37066"
"cSAt985cw93zJhdWj","Fred Martin Nissan","3388 S ARLINGTON RD","AKRON","OH","44312"
"cT6s4o6uNTrJHxN33","Eddie Tourelles Northpark Nissan","955 N HIGHWAY 190","COVINGTON","LA","70433"
"cbAtaChMhRNphCPmz","Town Nissan","555 3RD ST SE","EAST WENATCHEE","WA","98802"
"cgXN2LSiiQmaDr9aK","Conicelli Nissan","1222 W RIDGE PIKE","CONSHOHOCKEN","PA","19428"
"cgzPQvuGGcDRz9uwB","Nissan of Huntington","850 E JERICHO TPKE","HUNTINGTON STATION","NY","11746"
"ckE6mkKSx4QMin7ta","Nissan of Greenville","6403 I-30","GREENVILLE","TX","75402"
"ckr4NhZnyyPKFb3tG","DAVE Wright Nissan Subaru","999 BOYSON RD","HIAWATHA","IA","52233"
"ckwiEMHN4jhvPpMTS","Carbone Nissan","4967 COMMERCIAL DR","YORKVILLE","NY","13495"
"coj2557BrCD79ta6i","Napoli Nissan","688 BRIDGEPORT AVE","MILFORD","CT","06460"
"czgag8JsijyhpE9qj","Greenway Nissan of Venice","700 US HIGHWAY 41 BYP S","VENICE","FL","34285"
"d7xwAa5NJT4J5be6K","Goodman Chevrolet Cadillac Nissan","1003 HAPPY VALLEY RD","GLASGOW","KY","42141"
"dDHgyctg2E3twC42v","Luther Nissan Kia","1470 50TH ST E","INVER GROVE HEIGHTS","MN","55077"
"dSEA5weAEmqnhM5vi","Orr Nissan of Fort Smith","6520 AUTO PARK DRIVE","FORT SMITH","AR","72908"
"dTTrXnR6ZpTWfJLic","Nissan of Paducah","3164 PARK AVE","PADUCAH","KY","42001"
"dXJ2aLNasxemhsySt","Robbins Nissan","18711 HIGHWAY 59 N","HUMBLE","TX","77338"
"dZBX5pg87EoZDNJFR","Fort Collins Nissan","5811 S COLLEGE AVE","FORT COLLINS","CO","80525"
"dZtXvC7WmTwkfmsGG","Empire Littleton Nissan","5067 S WADSWORTH BLVD","LITTLETON","CO","80123"
"dcv7ZpXqyfDvGPP8y","Ferrario Nissan","200 SPRING STREET","SAYRE","PA","18840"
"ddpaQDYMnNNoHdy39","Hill Nissan","6401 CYPRESS GARDENS BLVD","WINTER HAVEN","FL","33884"
"deC7dFNrQv4GRZ6Xy","AutoNation Nissan Irving","1500 E AIRPORT FWY","IRVING","TX","75062"
"dfPeFuevXyWsdLnA4","Nissan of Stockton","3077 E HAMMER LANE","STOCKTON","CA","95212"
"dixMZmrE42jGmWCLY","Loyalty Nissan","16301 PRIORITY WAY","CHESTER","VA","23831"
"djFArxKcpQbB5kxik","Continental Nissan","5750 S LA GRANGE RD","COUNTRYSIDE","IL","60525"
"dkEDdhkQWge7pjWC6","Sutherlin Nissan Mall of Georgia","1855 LUKE KING PKWY","BUFORD","GA","30519"
"dpzEvbBocLgng7FMo","Walser Nissan (MN)","14750 BUCK HILL RD","BURNSVILLE","MN","55306"
"dtZsesMz4E7Huzur2","Wood Motor Company","600 hwy 62-65","HARRISON","AR","72601"
"duhPS9j9uAS7KfoDh","Nissan Kauai","3039 AUKELE ST","LIHUE","HI","96766"
"dygy3Ac3H759NASma","Mossy Nissan Escondido","1546 AUTO PARK WAY","ESCONDIDO","CA","92029"
"e2FXp7MJ6nNRNXHTD","Younker Nissan","3401 E VALLEY RD","RENTON","WA","98057"
"e4WNmvYhkoHrCBXQD","Mcgrath Nissan","945 E CHICAGO ST","ELGIN","IL","60120"
"e5CsQpbG7s8kdDH5G","Collins Nissan","4142 Bardstown Rd","LOUISVILLE","KY","40218"
"eAM4TQMztPSuifkRq","Coastal Nissan Pawleys Island","8519 OCEAN HWY","PAWLEYS ISLAND","SC","29585"
"eBjwwKqZ7gxmPQFek","Bates Nissan","5501 E Central Texas Expy,","KILLEEN","TX","76543"
"eGpRiywJ4Lc3Ze2QC","Woody Folsom Nissan","1609 EAST 1ST STREET","VIDALIA","GA","30474"
"eN8WcjHxzjzKgKp5M","DARCARS Nissan","15911 INDIANOLA DR","ROCKVILLE","MD","20855"
"eS97SeM8sdLFJFDiM","Rockaway Nissan","600 BURNSIDE AVE","INWOOD","NY","11096"
"eTBRxHTitAbGQwwDJ","Robert Woodall Automall","132 UNION ST BRIDGE RD","DANVILLE","VA","24540"
"eX7AodMucLsYtgjPH","Victory Nissan of Richmond","11401 W Broad St","RICHMOND","VA","23233"
"eYcmRhecX2ASuWJ6q","Pearson Nissan of OCALA","2060 SW COLLEGE RD","OCALA","FL","34471"
"eZQ32z4nLCYSNqWCX","DAYTONA NISSAN","950 N TOMOKA FARMS RD","DAYTONA BEACH","FL","32124"
"eZcmYk2ohkpKt7snq","Memering Nissan Chevrolet","1949 HART ST","VINCENNES","IN","47591"
"ecc8PYZvoSBkWmEoa","Gillman Nissan","26001 SOUTHWEST FWY","ROSENBERG","TX","77471"
"eeQf5XcdyNqSTirTs","Wallace Nissan","4313 S FEDERAL HWY","STUART","FL","34997"
"eexNwS3MjjLRZ6KAu","Bill Robertson Nissan","928 N. 28TH AVENUE","PASCO","WA","99301"
"efBAy749uMgfJwcTQ","Martin Nissan","5240 GOLF RD","SKOKIE","IL","60077"
"ehJfaHEhkbn8CuoZE","Tom Wood Nissan","4150 E 96th St","INDIANAPOLIS","IN","46240"
"ehemZGqiz7JuMyjC3","Tri Star Nissan","4 SUPERIOR WAY","UNIONTOWN","PA","15401"
"ei4K9uQJM3JKSDDMQ","Clinton Chrysler Dodge Jeep","2850 Valley West Drive","CLINTON","IA","52732"
"ey9SuysMYZBhJAdT2","Gainesville Nissan","3915 N MAIN ST","GAINESVILLE","FL","32609"
"f6yRnNNQuEscoECAM","Ross Nissan El Monte","3428 PECK RD","EL MONTE","CA","91731"
"f8TgRzkTsYLQmjiYW","Hertrich Nissan of Dover","1378 S DUPONT HWY","DOVER","DE","19901"
"fDfEKYc9B9NSmh68F","Fuccillo Nissan of Latham","976 NEW LOUDON ROAD","LATHAM","NY","12110"
"fNytyCdJBpSz3v2RQ","Gettel Nissan of Sarasota","3530 BEE RIDGE RD","SARASOTA","FL","34239"
"fSHPCv8HbyEeBCq7Q","DARCARS Nissan of College Park","9330 BALTIMORE AVE","COLLEGE PARK","MD","20740"
"fbGjcMQ9nozjG6wSY","Tacoma Nissan","4030 SOUTH TACOMA WAY","TACOMA","WA","98409"
"fepYiYRmw94u5mPjA","Nissan Of Corinth","813 S Parkway St","CORINTH","MS","38834"
"fmC7qEcKg2WTNKAhS","Butler Nissan","4500 RIVERSIDE DRIVE","MACON","GA","31210"
"fuMuAvKbSTRDt5EZy","Davidson Nissan","18423 us rt 11","WATERTOWN","NY","13601"
"fzwvTQZjY6ht8Jj4F","Casa Nissan","5855 MONTANA AVE","EL PASO","TX","79925"
"g3HMGGTmNTuhLzZi3","Nissan World of Red Bank","120 NEWMAN SPRINGS RD E","RED BANK","NJ","07701"
"g4eKQhykYYan3jjke","Gerweck Nissan","15407 S MONROE ST","MONROE","MI","48161"
"g4u68hNDP98Spmkz6","Simmons Rockwell Nissan","224 COLONIAL DR","HORSEHEADS","NY","14845"
"g72W4K6vxenz72Xey","Hart Nissan","6564 MECHANICSVILLE PIKE","MECHANICSVILLE","VA","23111"
"g8sdrd2dRYnbCumaK","Kraft Nissan","3277 MAHAN DR","TALLAHASSEE","FL","32308"
"gD8FHEu5EDErQEmZn","Sorg Nissan","2845 N DETROIT ST","WARSAW","IN","46582"
"gDF7fGNga6MSngN2S","Nissan 46","440 ROUTE 46","TOTOWA","NJ","07512"
"gETEpE8nqt38KnyuZ","Nissan of Lithia Springs","811 THORNTON RD","LITHIA SPRINGS","GA","30122"
"gPBjQRdpZw5prmrrc","KC Summers Nissan Mazda","2404 LAKE LAND BLVD","MATTOON","IL","61938"
"gQbkMnhFKjekDTcXL","Ron Marhofer Nissan","247 HOWE AVE","CUYAHOGA FALLS","OH","44221"
"gXuiDvPygzjGDySdf","Pinnacle Nissan","7601 E FRANK LLOYD WRIGHT","SCOTTSDALE","AZ","85260"
"gaGyPnXKTh5DHEdQp","Hudson Nissan","7331 RIVERS AVE","NORTH CHARLESTON","SC","29406"
"gaNf72MH6Tj8pKgut","ED MARTIN NISSAN OF ANDERSON","5400 SCATTERFIELD ROAD","ANDERSON","IN","46013"
"gdJYLm7pZcHjDKoaf","Autocenters Nissan","1825 E EDWARDSVILLE RD","WOOD RIVER","IL","62095"
"gf9neXCDvtT8AiN6t","Five Star Nissan","839 WARREN DR","WARNER ROBINS","GA","31088"
"gvNFT7Q4aRRH5GaMM","Power Nissan of Salem","2755 MISSION STREET SE","SALEM","OR","97302"
"gxAQWqSfborgNR4E9","Garlyn Shelton Nissan","5620 S GENERAL BRUCE DR","TEMPLE","TX","76502"
"h3y7vJTQPpruNPBx7","Rolling Hills Nissan","3801 SHERMAN AVE","SAINT JOSEPH","MO","64506"
"h4xFEwzez2TK6Adpw","New City Nissan","2295 N KING ST","HONOLULU","HI","96819"
"h7mhuEEdNXt68ss5x","Lynchburg Nissan","18588 FOREST RD","FOREST","VA","24551"
"h9rgFLuRJXEXaGQGv","Russ Darrow Nissan of Milwaukee","11212 W Metro Auto Mall","MILWAUKEE","WI","53224"
"hBPCAeegaZohSXhit","Suburban Nissan of Farmington Hills","37901 GRAND RIVER AVE","FARMINGTON HILLS","MI","48335"
"hHjPyfHJ9ep3SMz2j","Lynch Nissan / Auburn","140 WEST CREEK PKWY","AUBURN","AL","36830"
"hPKw7CvGe6gpP9Gev","Rock Hill Nissan","550 GALLERIA BLVD","ROCK HILL","SC","29730"
"hTJBN9JC7MtrkvfXy","Mckinnon Nissan","135 PRICE DRIVE","CLANTON","AL","35046"
"hpDjC6mk9GZtZeXZ7","Lithia Nissan of Clovis","370 W HERNDON AVE","CLOVIS","CA","93612"
"hr8YKLByPEEnQKGSY","Illini Nissan","615 W MARKETVIEW DR","CHAMPAIGN","IL","61822"
"hu357LKzBdm7EycdH","Billion Nissan of Sioux City","3715 SINGING HILLS BLVD","SIOUX CITY","IA","51106"
"huhWZQk6At7rjNZZD","Hall Nissan Chesapeake","3417 WESTERN BRANCH BLVD","CHESAPEAKE","VA","23321"
"hyffEdL8o5wwKfann","Tim Dahle Nissan Southtowne","11155 S JORDAN GTWY","SOUTH JORDAN","UT","84095"
"iA7x386fB6WRCoweY","John Deery Nissan","6823 UNIVERSITY AVE","CEDAR FALLS","IA","50613"
"iBXprY3HS6RHxc6Tz","Nalley Nissan of Cumming","1310 BUFORD HWY","CUMMING","GA","30041"
"iFtHvfBXEZkXaTbSS","Ardmore Nissan","265 e lancaster ave","ARDMORE","PA","19003"
"iFyqFMiz5eDYKiGkA","Matt Bowers Nissan Eastern Shore","29788 FREDRICK BLVD","DAPHNE","AL","36526"
"iMrPdugz5FWKcDh4W","Faulkner Nissan Harrisburg","3925 PAXTON ST","HARRISBURG","PA","17111"
"iNhua2u6BWWdq7QWT","Straub Nissan","205 STRAUB DRIVE","TRIADELPHIA","WV","26059"
"iQJ948W3eKdgewFhe","AutoNation Nissan Chandler","1350 S GILBERT RD BLD A","CHANDLER","AZ","85286"
"iTteZqx5H2JHoRMZw","AL West Nissan Rolla","2540 NORTH HIGHWAY 63","ROLLA","MO","65401"
"iW5bTXApDZiua4ciM","Nissan of Tustin","30 AUTO CENTER DR","TUSTIN","CA","92782"
"iX4tFgxNs9TN4BPX8","CMAs Valley Nissan","297 LEE JACKSON HWY","STAUNTON","VA","24401"
"iYyaHCKjq8H3h9akr","Mears Nissan","4825 TUSCARAWAS STREET W","CANTON","OH","44708"
"iaakwydeKKxSLM9aj","Gwinnett Place Nissan","2555 PLEASANT HILL RD","DULUTH","GA","30096"
"iiHrkthHZYeAZK4Rw","Vission Nissan","4000 W RIDGE RD","ROCHESTER","NY","14626"
"ikNXRrissxywXZoqk","Stuart Nissan","301 N INDEPENDENCE ST","ENID","OK","73701"
"imvNmkMKbeAGJRoMi","Tony Serra Nissan","1724 CHEROKEE AVE SW","CULLMAN","AL","35055"
"indz9Zdn7WpX6yZDe","Montrose Ford Nissan","100 MERCHANT DR","MONTROSE","CO","81401"
"ipfictDS3DgD2t3sk","SUTHERLIN NISSAN CAPE CORAL","2201 NE PINE ISLAND RD","CAPE CORAL","FL","33909"
"irSXXWS7K3YHNt3fL","County Line Nissan North","522 WINSTED ROAD","TORRINGTON","CT","06790"
"iraNH8zAZx6XaRYyu","Selma Nissan","2525 HIGHLAND AVE","SELMA","CA","93662"
"j2mENuxq5HcWYmTui","Antwerpen Security Nissan","1701 WOODLAWN DR","BALTIMORE","MD","21207"
"j3KtoWxY5JKtcuBJe","Rosen Nissan","5505 S 27TH STREET","MILWAUKEE","WI","53221"
"j4uBSFLEud4wT5wnc","Ron Bouchards Nissan","490 OLD UNION TPKE","LANCASTER","MA","01523"
"jFcgaxbRSrgyzNHDz","Eastern Carolina Nissan","3315 HIGHWAY 70 E","NEW BERN","NC","28560"
"jMdNJQwCuFHkrWHkg","Nissan of Richmond","11401 WEST BROAD STREET","RICHMOND","VA","23233"
"jSNtjXfCbp5B3XCLk","Sims Buick GMC Nissan","3140 ELM RD NE","WARREN","OH","44483"
"jYbrudZxhyd3PPNXS","Rothrock Nissan","1648 PLAZA LANE","ALLENTOWN","PA","18104"
"jh5e3zuF5ZxdJyfeg","ORR Nissan of Hot Springs","4111 CENTRAL AVE","HOT SPRINGS","AR","71913"
"jhHJJP9frEamMcdDK","Napa Nissan","510 SOSCOL AVE","NAPA","CA","94559"
"jidxJW5dcPL4ksS6W","Dick Smith Nissan","9940 TWO NOTCH RD","COLUMBIA","SC","29223"
"jnWx2oR9L8FLakzPC","Jim Johnson Nissan Hyundai","2200 Scottsville Rd","BOWLING GREEN","KY","42104"
"jvXEi4RunvQkWus3n","Covington Nissan","1915 HOT SPRINGS RD","COVINGTON","VA","24426"
"jzpeDgRT6zmpqMGS8","Larry H Miller Nissan Corona","2575 WARDLOW ROAD","CORONA","CA","92882"
"k37wnvjfL8f4wYgex","Nissan of Bismarck","1026 NE 57TH AVE","BISMARCK","ND","58503"
"k97nHzkzbM5hxwenw","Superior Nissan","3372 N COLLEGE AVE","FAYETTEVILLE","AR","72703"
"kCRSHZiJ6Sg69PX2z","West Herr Nissan of Lockport","6069 S TRANSIT RD","LOCKPORT","NY","14094"
"kEivs2FwugqwEGkTD","Courtesy Nissan of Tampa","3800 W HILLSBOROUGH AVE","TAMPA","FL","33614"
"kHykdiqp3AxSMCwEz","Nationwide Nissan","2085 YORK RD","TIMONIUM","MD","21093"
"kLifyZyATe4q6DagX","Williams-woody Nissan","3600 S LIMIT AVE","SEDALIA","MO","65301"
"kN7efp5N9xbdpprqy","Ray Brandt Nissan","4000 LAPALCO BLVD","HARVEY","LA","70058"
"kRkS6NK4KNezg8RgF","Post Falls Nissan","1800 E POLSTON AVE","POST FALLS","ID","83854"
"kRkpzYSEPWm6CPjA2","Nissan of Jefferson City","3219 MISSOURI BLVD","JEFFERSON CITY","MO","65109"
"kcW4AB3oeBKajqJtP","Sheehy Nissan of White Marsh","5361 Nottingridge Rd","White Marsh","MD","21162"
"kfvDmgES48vnLpPi6","Sutherlin Nissan Cherokee County","101 HARBOR CREEK PKWY","HOLLY SPRINGS","GA","30115"
"kpiTHxZWYdxnFCNZk","Georgesville Nissan","1260 Auto Mall Dr","COLUMBUS","OH","43228"
"ky2acneTsqgqGG239","Kerry Nissan Hyundai","8053 Burlington Pike","FLORENCE","KY","41042"
"kydnFzTJBsXPA7hqT","Nissan of Newnan","783 BULLSBORO DR.","NEWNAN","GA","30265"
"m49q5SwE3d9yv5nH7","Timbrook Nissan","10345 MOUNT SAVAGE RD NW","CUMBERLAND","MD","21502"
"m9wY62DpXdk2CPc5c","Ben Mynatt Nissan","629 JAKE ALEXANDER BLVD S","SALISBURY","NC","28147"
"mD2LNxn4qi4mnEPq7","Mike Smith Nissan","1515 I-10 South","BEAUMONT","TX","77701"
"mDfLqQY5yonP2v2zo","#1 Cochran Nissan West Hills","7900 UNIVERSITY BLVD","MOON TOWNSHIP","PA","15108"
"mLHNuyshzgaAsP2rp","Porter Nissan","303 E CLEVELAND AVE","NEWARK","DE","19711"
"mNLA4iqKJMwEADLow","Matthews Nissan Volvo","3101 VESTAL PKWY E","VESTAL","NY","13850"
"mNTDvf4aWWsNufZHu","Warner Nissan","1070 BRIGHT RD","FINDLAY","OH","45840"
"mT2aJb9RBhuTuNR67","Battles Nissan","60 MACARTHUR BLVD","BOURNE","MA","02532"
"mTFhPvz63SiuyiDer","Friendship Nissan of Forest City","156 OAK STREET EXTENSION","FOREST CITY","NC","28043"
"ma2aNJDhpTgBCod35","Asheboro Nissan","1635 E DIXIE DR","ASHEBORO","NC","27203"
"mezCMK7CwPNcGonLn","Quirk Nissan","600 SOUTHERN ARTERY","QUINCY","MA","02169"
"mf9Fj56vicMAMgoDW","Watermark Nissan of Madisonville","1801 LANTAFF BLVD","MADISONVILLE","KY","42431"
"mipAzEESNnBfduiFQ","Girard Nissan","425 GOLD STAR HWY","GROTON","CT","06340"
"mjoxvT9xQoawJevrL","Boardwalk Auto Center","1b Bair Island Road","REDWOOD CITY","CA","94063"
"mmXpSB5vij3JTjJ9T","Valley Nissan","1010 S 1st St","YAKIMA","WA","98901"
"mp9mkfiX9DRoK9Gbe","Mossy Nissan Chula Vista","1885 AUTO PARK PLACE","CHULA VISTA","CA","91911"
"mtnRY6c3zXkETdnG9","Patriot Nissan","93 S BROADWAY","SALEM","NH","03079"
"mz6ZqozGKEaoBsN73","ORR Nissan of Wichita","10625 E KELLOGG DRIVE","WICHITA","KS","67207"
"n26aPy9mTseTqZdjY","Boulder Nissan","2285 28TH ST","BOULDER","CO","80301"
"n4QhukkPCpdxYGhK5","Grubbs Nissan","310 AIRPORT FWY","BEDFORD","TX","76022"
"n4bkXxz9odviYEFuR","RAY BRANDT NISSAN SO MISS","11600 BOBBY ELEUTERIUS BL","DIBERVILLE","MS","39540"
"n8sFCLzkykeed3tRL","Lee Johnson Nissan of Kirkland - ReviewPro","11930 124th Ave NE","KIRKLAND","WA","98034"
"nA6uiz3iYZ4T2tpHK","Tonkin Nissan","26700 SW 95TH AVE","WILSONVILLE","OR","97070"
"nAPuujQtMdK9imgG6","Prestige Nissan of Legends","1900 N 100TH TERRACE","KANSAS CITY","KS","66109"
"nCCu5RtQQJzrohh4Q","Rob Green Nissan Hyundai","1080 BLUE LAKES BLVD N","TWIN FALLS","ID","83301"
"nD9nGyiGiEAZYRb8f","Deland Nissan","2600 S WOODLAND BLVD","DELAND","FL","32720"
"nDEcpt7p6RJDf4oEf","Freedom Nissan","1095 SHELBURNE RD","SOUTH BURLINGTON","VT","05403"
"nFyDmviLLwFd35EhZ","Advantage Nissan","5101 AUTO CENTER BLVD","BREMERTON","WA","98312"
"nGGAc8qpurkGqR7uC","ORR Nissan","2323 VIKING DR","BOSSIER CITY","LA","71111"
"nGurLaDq7eQX9hDRA","Bayou Nissan","13050 I-10 SERVICE ROAD","NEW ORLEANS","LA","70128"
"nJgANZRxyEGzKSvDM","Grainger Nissan","1550 CHATHAM PKWY","GARDEN CITY","GA","31408"
"nL9GefBba6YhozXL6","Hall Nissan Virginia Beach","3757 BONNEY RD","VIRGINIA BEACH","VA","23452"
"nNt29km2LFWXx6iPy","Sparks Nissan Kia","1100 AUTO MALL DR","MONROE","LA","71203"
"nYLkWMbujZEntjFnh","Bommarito Nissan Hazelwood","661 dunn rd","HAZELWOOD","MO","63042"
"nbYXtFf6DX7tmye9y","Mclarty Daniel Nissan","2501 SE Moberly Ln","BENTONVILLE","AR","72712"
"nhfptxGEcoDHw5GzE","Nissan of Victoria","6003 N. NAVARRO STREET","VICTORIA","TX","77904"
"nqNWtXfgiBrgBDXFx","Dick Smith Nissan","5536 SUNSET BLVD","LEXINGTON","SC","29072"
"nqZb5FyGiaSnJiMyc","Landers McLarty Nissan","6520 UNIVERSITY DR NW","HUNTSVILLE","AL","35806"
"nrg5hGYpYReMKaMHR","Lorenzo Nissan Fort Lauderdale","1051 S. Federal Hwy","FORT LAUDERDALE","FL","33316"
"nw8m8JxTv4DmTY5eW","Red Rock Nissan","2582 HWY 6 AND 50","GRAND JUNCTION","CO","81501"
"nwJjPmiRDpJkab4r5","Jeff Wyler Eastgate Nissan","1117 State Route 32","BATAVIA","OH","45103"
"nzg2xpHtRfRPuKv5M","Beck Nissan","252 N HIGHWAY 17","PALATKA","FL","32177"
"o9kejurZB55LKLM83","Cowles Nissan","14777 JEFFERSON DAVIS HWY","WOODBRIDGE","VA","22191"
"oCncNWKCJ5HbxgxeF","Herb Gordon Nissan","3131 AUTOMOBILE BLVD","SILVER SPRING","MD","20904"
"oD6QeHrzqKWjwK2Ar","Nissan of Lafayette","1 N Creasy Ln","LAFAYETTE","IN","47905"
"oDyifMGPMAJbfyFFh","Team One Nissan of Alberville","9736 US HIGHWAY 431","ALBERTVILLE","AL","35950"
"oHFeB42Si2pf34kx3","Auffenberg Nissan","1690 NEW CAR DR","O FALLON","IL","62269"
"oKNFEu8ABc4K29gfZ","Ed Martin Nissan","802 N SHADELAND AVE","INDIANAPOLIS","IN","46219"
"oLrLg8zvktyXvd5SJ","Cardinale Nissan","1661 DEL MONTE BLVD","SEASIDE","CA","93955"
"oY52ouPxLZXS6WbD4","Nissan of Elk Grove","8590 LAGUNA GROVE DR","ELK GROVE","CA","95757"
"ot4pDkoYStXqHSeYP","Mtn. View Nissan of Cleveland","131 pleasant grv rd","MCDONALD","TN","37353"
"oviiaZfD4z3bQZAcb","Fenton Nissan of McAlester","1441 S GEORGE NIGH EXPWAY","MCALESTER","OK","74501"
"p3kjp6JkcuvZqPFZw","PETERS NISSAN OF NASHUA","280 AMHERST ST","NASHUA","NH","03063"
"p3wns86bQDE4tCZey","Greenway Nissan of Florence","248 COX CREEK PKWY","FLORENCE","AL","35630"
"p7rBdNRyZuqNhXwJf","Nissan of Sumter","1260 BROAD STREET","SUMTER","SC","29150"
"pCnaoBhs8k4hH379D","Crown Nissan Greensboro","3900 W WENDOVER AVE","GREENSBORO","NC","27407"
"pDm2Gjj6Gci3LaumR","Greeley Nissan VW","2625 35TH AVE","GREELEY","CO","80634"
"pENZyNM9fWDSF9usX","Surf City Nissan","17331 bch blvd","HUNTINGTN BCH","CA","92647"
"pEpvXoBaxJQqYJKtH","Nissan of Yorktown Heights","3495 CROMPOND RD","YORKTOWN HEIGHTS","NY","10598"
"pKzBwQnXPArMSbxNG","Charlie Clark Nissan Brownsville","2547 N EXPRESSWAY 77/83","BROWNSVILLE","TX","78520"
"pRipADLQwm2KsRySN","Napleton Nissan","1301 INDIANAPOLIS BLVD","SCHERERVILLE","IN","46375"
"pT6qSYcEztymC7BFM","Crown Nissan","5151 34TH ST N","SAINT PETERSBURG","FL","33714"
"pYGL48F7FfBibchKC","Gateway Ford Lincoln Toyota","1055 W ANDREW JOHNSON HWY","GREENEVILLE","TN","37745"
"pZto8qWbvdrDPvTuM","Uftring Nissan","7400 N ALLEN RD","PEORIA","IL","61614"
"paTHyDTW8G75wGiRm","Reineke Nissan","1350 N CABLE ROAD","LIMA","OH","45805"
"pbGP8RDFy2Tv6Ev9s","Darlings Honda","114 SYLVAN RD","BANGOR","ME","04401"
"pbjL5M6isnSM75TnH","Cedar Park Nissan","2121 SOUTH BELL BLVD","CEDAR PARK","TX","78613"
"ph6pTJje8dthpFqtA","HGreg Nissan Kendall","17305 S DIXIE HWY","PALMETTO BAY","FL","33157"
"pifwkC8QhsrEy5Jtp","Larry H Miller Nissan Highlands Ranch","1320 PLUM VALLEY LANE","HIGHLANDS RANCH","CO","80129"
"pkp2WarXi8F3KG5Eg","Nissan of Keene","544 MONADNOCK HWY","SWANZEY","NH","03446"
"pmjQxsKjwHZsf6k4Y","Royal Subaru Nissan","3901 Route 281","CORTLAND","NY","13045"
"prwkemoCZWA36pzCG","Lebrun Nissan","396 GRANT AVE","AUBURN","NY","13021"
"ptR4DndxJisvp9nKw","Hove Nissan","1405 N. KINZIE","BRADLEY","IL","60915"
"pyKDTaky6jm9QQTXB","Nissan North","8645 N HIGH ST","COLUMBUS","OH","43235"
"pzGgzH2ZWBP8J2A6R","Valley HI Nissan","15722 VALLEY PARK LANE","VICTORVILLE","CA","92394"
"pzMunDMwFCL8K3LYX","Hyundai Serramonte","1500 COLLINS AVE","COLMA","CA","94014"
"q57n3ESbSmaGtTXpS","Superior Nissan of Conway","1090 COLLIER DR","CONWAY","AR","72032"
"qAEXPJGSaCfBSnttb","Exton Nissan","200 W LINCOLN HWY","EXTON","PA","19341"
"qDod6dL2nFW7RdA8e","Twin City Nissan","3247 AIRPORT HWY","ALCOA","TN","37701"
"qKhTFaxwrwr9zQX8F","Lithia Nissan","4560 GRUMMAN DRIVE","MEDFORD","OR","97504"
"qLaLYu7Duo9SBMQRn","Berman Nissan of Chicago","3456 N KEDZIE AVE","CHICAGO","IL","60618"
"qLk52MgWTpBAqi223","Nissan of Lewisville","1601 S STEMMONS FWY","LEWISVILLE","TX","75067"
"qNPEWijBZmTE3X87T","Reliable Nissan","9951 COORS BLVD NW","ALBUQUERQUE","NM","87114"
"qQyFaLDgtLPZBhvsM","Dennis Dillon Nissan","8727 FAIRVIEW AVE","BOISE","ID","83704"
"qR2qee4PaSCMWxkMW","Kona Nissan","76-6353 KUAKINI HWY","KAILUA KONA","HI","96740"
"qWvezYfQxozH7Yvg9","Bill Cole Nissan","2701 WINCHESTER AVE","ASHLAND","KY","41101"
"qdbx3LjXvZw7GyMFw","Gezon Nissan","3985 PLAINFIELD AVE NE","GRAND RAPIDS","MI","49525"
"qiwFyFWwMSYztW7Ep","Priority Nissan Williamsburg","6390 RICHMOND RD","WILLIAMSBURG","VA","23188"
"qn5fstTDnrGDcyqit","Modern Nissan of Lake Norman","18615 STATESVILLE RD","CORNELIUS","NC","28031"
"qoyticKD63vgKyWQ6","Headquarter Nissan of Columbus","1725 WHITTLESEY ROAD","COLUMBUS","GA","31904"
"qp3ns3SkgZGXqydJD","Awesome Nissan of Brunswick","251 Chapel Crossing Rd","BRUNSWICK","GA","31525"
"qpPoL8TioPdLe7BCe","Franklin Nissan","705 JAMESTOWN ST","COLUMBIA","KY","42728"
"qrZXnucyWgDW5Qh2f","Stephen Wade Nissan","230 W HILTON DR","SAINT GEORGE","UT","84770"
"qtXHYeWwAJbw2t8ga","Galesburg Nissan Corp","2080 N HENDERSON ST","GALESBURG","IL","61401"
"qxpb4hoKKxmzfvS6y","Dorsett Nissan","105 W MAYFAIR DR","TERRE HAUTE","IN","47802"
"qyEZrKH5axhhiNN5r","John Sinclair Nissan","478 SIEMERS DR","CAPE GIRARDEAU","MO","63701"
"qyJotpWsmkcXqYPA8","Classic Nissan of Statesville","1244 E GARNER BAGNAL BLVD","STATESVILLE","NC","28677"
"r48jrBuhhwAt3NvwQ","Robert Allen Nissan Helen","3135 PROSPECT dr","HELENA","MT","59601"
"r5PQFovTdeHywHKNK","MAUS NISSAN","3939 US HIGHWAY 19","NEW PORT RICHEY","FL","34652"
"rGfYLXRW3hrn82Yu9","Nissan South Morrow","6889 JONESBORO RD","MORROW","GA","30260"
"rJNaFJHfWxvkKYFdK","Nissan of Stanhope","59 route 206","STANHOPE","NJ","07874"
"rNYD8oF5sDBSi9sqa","Eau Claire Nissan","3214 MALL DR","EAU CLAIRE","WI","54701"
"rP3HAJZw4HXHejw5n","Pocatello Nissan Kia","1900 Flandro Dr","POCATELLO","ID","83202"
"rQ8gCfy88TAyAJuny","Fort Wayne Nissan and Infiniti","4909 LIMA RD","FORT WAYNE","IN","46808"
"rSfW9n5zQmsjGndcR","Delaney Nissan of State College","3280 W COLLEGE AVE","STATE COLLEGE","PA","16801"
"rZ38aFMXQ3T2Pkh2m","Pete Mankins Nissan","3707 SUMMERHILL RD","TEXARKANA","TX","75503"
"rZKixx3QwZCrYpnz6","Chico Nissan","575 MANZANITA AVE","CHICO","CA","95926"
"rZa8qJdtM6yKKhXMj","Peltier Nissan","3201 SSW LOOP 323","TYLER","TX","75701"
"raPN3khsHSt8HFuvJ","Watermark Nissan of Marion","3209 BANTERRA DR","MARION","IL","62959"
"rbbCQ5tW7dS8r7cNq","Kelly Nissan of Lynnfield","271-275 BROADWAY","LYNNFIELD","MA","01940"
"rbiRkyWya6uPC4KeS","AutoStar Nissan of Boone","135 INNOVATION DRIVE","BOONE","NC","28607"
"rdqDukGaW4Nz3jFP7","Walser Nissan Wayzata","15906 WAYZATA BLVD","WAYZATA","MN","55391"
"reHo4bG6kZYKvtHZP","Temecula Nissan","41895 MOTOR CAR PKWY","TEMECULA","CA","92591"
"rikLJ6XPN3bmEaqL7","Walters Toyota Nissan","30 Walters Lane","PIKEVILLE","KY","41501"
"rkeFKjeca6FnLFwv7","Kelly Nissan of Woburn","95 Cedar St","WOBURN","MA","01801"
"rkkiJZiqBRg5MeEAB","Joe Machens Nissan","201 NEBRASKA AVE","COLUMBIA","MO","65203"
"rnTfF6YBWSLkFcJJR","Benton Nissan of Bessemer","5487 ACADEMY WAY","BESSEMER","AL","35022"
"rpn7j7HNXFGAQsq8x","Lee Nissan","793 ctr st","AUBURN","ME","04210"
"s5uorTNcPtS2zmj7X","Colonial Nissan","117 Bustleton Pike","FEASTERVILLE","PA","19053"
"s7bhtJv5eJxka8Gx4","Dave Solon Nissan","2525 W US HIGHWAY 50","PUEBLO","CO","81008"
"sNhuBXhBq7ybqk8uG","Ciocca Nissan Of Quakertown","520 S WEST END AVE","QUAKERTOWN","PA","18951"
"sWeBxoK3W77pDon75","Future Nissan of Folsom","12610 AUTO MALL CIR","FOLSOM","CA","95630"
"sYJSAuiaz4SLJw3P9","Paul Miller Nissan","930 KINGS HWY E","FAIRFIELD","CT","06825"
"sakvD7RzJLKpACXKR","Reed Nissan Clermont","16005 STATE ROAD 50","CLERMONT","FL","34711"
"scu7rn8eoSrEbxK6F","Melloy Nissan","7701 LOMAS BLVD NE","ALBUQUERQUE","NM","87110"
"sfHPCHji5KjRbg9TK","Michael Jordan Nissan","3930 CHAPEL HILL BLVD","DURHAM","NC","27707"
"siLBKDJuCRLQxc7D2","Nissan of Sacramento","2820 AUBURN BLVD","SACRAMENTO","CA","95821"
"siZmtPRShN57yn2vg","Nissan of North OLMSTED","28500 LORAIN RD","NORTH OLMSTED","OH","44070"
"sikQDJXD8s3K2S59d","Maus Nissan of North Tampa","11001 N FLORIDA AVE","TAMPA","FL","33612"
"skZMRFjq3CavtBvJp","Janesville Nissan","2627 MORSE STREET","JANESVILLE","WI","53545"
"skaWpRcLxhvvQHTd8","Tamaroff Nissan","28585 TELEGRAPH RD","SOUTHFIELD","MI","48034"
"skwRDjYHKNixNzm5t","Loving Nissan","1433 S MEDFORD DR","LUFKIN","TX","75901"
"sn89fhQ3h2wbtW2HE","Nissan of Dearborn","24501 MICHIGAN AVENUE","DEARBORN","MI","48124"
"snWfCsqZJNRYoAsAs","Wesley Chapel Nissan","28519 STATE RD 54","WESLEY CHAPEL","FL","33543"
"sofFJJgWNhw3YnL6F","Antelope Valley Nissan","451 AUTO CENTER DR","PALMDALE","CA","93551"
"stu7aLkqqnuCvrBW3","Nissan of Fort Worth","3451 W LOOP 820 S","FORT WORTH","TX","76116"
"sue9SvNpv5RLdTwvP","Landers Nissan","371 GOODMAN RD E","SOUTHAVEN","MS","38671"
"sv9Mk93HSjj64gXct","Ted Russell Nissan","8565 KINGSTON PIKE","KNOXVILLE","TN","37919"
"szCbXK32qLzYNRm2j","Glendale Nissan","727 S BRAND BLVD","GLENDALE","CA","91204"
"t4HBtF4yqJxLbhsKe","Nissan of Lawton","201 W GORE BLVD","LAWTON","OK","73501"
"t5JbnBzL6a6SNakJG","Somersworth Nissan","285 ROUTE 108","SOMERSWORTH","NH","03878"
"t5vvmwa8WSYSqy2e9","Benson Nissan of Spartanburg","1100 N PINE ST","SPARTANBURG","SC","29303"
"t9BkS36ECc4CPLdKd","Charlie Clark Nissan","3500 W EXPRESSWAY 83","HARLINGEN","TX","78552"
"t9mhNqZGynGkWXvZA","Mitchell Nissan","1640 E PARK AVE","ENTERPRISE","AL","36330"
"t9zc4ZqJjzLmXx8i9","Ancira Nissan","10835 W INTERSTATE 10","SAN ANTONIO","TX","78230"
"tDBcQDvxr7yjTj3gL","Rocking Nissan of Springfield","6570 AMHERST AVE","SPRINGFIELD","VA","22150"
"tESoNkXyE8yvvpPhN","Bertera Nissan","569 OXFORD ST S","AUBURN","MA","01501"
"tEgh5KzaufEmx3xS3","Tom Hesser Nissan","900 ONEILL HIGHWAY","DUNMORE","PA","18512"
"tLbr7sKTwchNcFdGS","Wright Nissan","10520 Perry Hwy","WEXFORD","PA","15090"
"tMRpnKBLNFx9BjfaW","Nissan of San Marcos","2980 S INTERSTATE 35","SAN MARCOS","TX","78666"
"tPd3rzxNvwaShKYxJ","Concordville Nissan","452 WILMINGTON W CHESTER","CONCORDVILLE","PA","19331"
"tTX5LwDxDCspfDYuF","Mike Erdman Nissan","4640 FL 250","Cocoa","FL","32926"
"tYpq5AGkW8ZMYiG4N","Wegner Auto Company","330 E SIOUX AVE","PIERRE","SD","57501"
"tYrsJWhZKZs5bFXm8","Pine Belt Nissan of Keyport","111 STATE ROUTE 36","KEYPORT","NJ","07735"
"tgFFHKCWpDCL5Emok","Tynans Nissan","780 SOUTH HAVANA STREET","AURORA","CO","80012"
"tgrPsiLLFGuuAEEFd","Jim Click Nissan","800 W AUTO MALL DR","TUCSON","AZ","85705"
"tj6PHo4qnYH6SyCxb","Nissan of Westbury","939 OLD COUNTRY RD","WESTBURY","NY","11590"
"tmfzwWJ9GaJkKv6NR","Legend Nissan","268 JERICHO TPKE","SYOSSET","NY","11791"
"tmwTTgwPwSCZovtH3","Germain Nissan of Columbus","4300 MORSE RD","COLUMBUS","OH","43230"
"todS7DTvZipCpcWF9","Royal Nissan","9325 AIRLINE HIGHWAY","BATON ROUGE","LA","70815"
"trzruC7toNWTrR3bx","Banister Nissan of Chesapeake","930 BATTLEFIELD BLVD N","CHESAPEAKE","VA","23320"
"uDnY8G9WvcY9xqgCA","Zeigler Nissan Of Gurnee","18850 W Grand Ave","LAKE VILLA","IL","60046"
"uLvRdbFit72RszjKH","Nissan of Greer","14125 E WADE HAMPTON BLVD","GREER","SC","29651"
"uNZYerDda7jWvKXgL","Nissan of Van Nuys","5425 VAN NUYS BLVD","SHERMAN OAKS","CA","91401"
"uP47MDwuwrN5hueKK","Childre Nissan","126 roberson ml rd","MILLEDGEVILLE","GA","31061"
"uSpHSgHTQiAmXfMHe","MANKATO NISSAN","1815 E MADISON AVE","MANKATO","MN","56001"
"uWS49buyzksydEZGa","Metro Nissan of Redlands","1665 INDUSTRIAL PARK AVE","REDLANDS","CA","92374"
"uZfJYtM3wKsQF9Gd4","Halladay Nissan","1880 WESTLAND RD","CHEYENNE","WY","82001"
"uc3rWgHc4e3ZBJW7S","Nelson Nissan","800 W QUEENS ST","BROKEN ARROW","OK","74012"
"ufLAfDch9jTaN98GM","Cannon Nissan of Jackson","905 I-20 FRONTAGE RD","JACKSON","MS","39204"
"uhAo4GDWTEMwcRkif","Palm Springs Nissan","68-177 KYLE ROAD","CATHEDRAL CITY","CA","92234"
"ukqiRBPvdSke86D8u","Bergstrom Hyundai Mazda Mitsubishi Nissan","3023 VICTORY LANE","APPLETON","WI","54913"
"unsZr8mfx2Z7ruCG5","Pedder Nissan","200 CARRIAGE CIR","HEMET","CA","92545"
"unwC8gjaPHiBaTusm","Napleton St. Louis Nissan","10964 page ave","SAINT LOUIS","MO","63132"
"usK7Ft3dprZ5C2Q7y","Berlin City AutoPlex New Hampshire","485 MAIN ST","GORHAM","NH","03581"
"uuTCtbB5arSWGKxyD","Nissan of Gadsden","1701 RAINBOW DR","GADSDEN","AL","35901"
"uuTRwuq3QYJrGAXvC","Hummels Nissan","4770 MERLE HAY RD","DES MOINES","IA","50322"
"uyi874d7ScMXJ6Zho","Fred Anderson Nissan of Raleigh","9225 GLENWOOD AVE","RALEIGH","NC","27617"
"v32YotEAj69Bb84Mn","Berlin City Nissan of Portland","227 MAINE MALL RD","SOUTH PORTLAND","ME","04106"
"v8vzb3QjBJfcDdfC7","Great River Nissan","264 DEVEREAUX DR","NATCHEZ","MS","39120"
"vCARr4YQdr5gfLPn2","Hayward Nissan","24644 MISSION BLVD","HAYWARD","CA","94544"
"vCRSp7Nikaz4RGx4t","Nissan of Union City","4080 JONESBORO ROAD","UNION CITY","GA","30291"
"vMpNk92bFqoghxdSn","Bay Ridge Nissan","6501 5TH AVE","BROOKLYN","NY","11220"
"vP7iM2AxRLzwWDSCd","Crest Nissan of Frisco","6600 STATE HIGHWAY 121","FRISCO","TX","75034"
"vTv43eLKYaNdFhgpT","Action Nissan","307 THOMPSON LN","NASHVILLE","TN","37211"
"vY4bXeMs4pqngJJPF","Legacy Nissan of London","395 W HIGHWAY 192","LONDON","KY","40741"
"vYEe59fv5T3CDDSBY","Reedman Toll Nissan of Drexel Hill","5018 TOWNSHIP LINE RD","DREXEL HILL","PA","19026"
"vb7hFQeTN5ynqnNBa","Mark Arbuckle Nissan","1080 PHILADELPHIA ST","INDIANA","PA","15701"
"vcGyYxp4hRxo27pnw","Coral Springs Nissan","9350 W ATLANTIC BLVD","POMPANO BEACH","FL","33071"
"vn8Thbv8Et76eJwda","Giles Nissan","6137 JOHNSTON ST","LAFAYETTE","LA","70503"
"vpK5x3cNgCDwqEL5L","Douglass Nissan of Waco","5605 LEGEND LAKE PKWY","WACO","TX","76712"
"vqx5XGpBy7DXnizYf","Chuck Colvin Ford","1925 North Hwy 99w","MCMINNVILLE","OR","97128"
"vrBvcoqRpfnGF36u2","Nissan of Costa Mesa","2850 HARBOR BLVD","COSTA MESA","CA","92626"
"vt9CRCWm2h8G4BFm7","Pohanka Nissan of Fredericksburg","5200 Jefferson Davis","FREDERICKSBURG","VA","22408"
"vvAc2rfGjHF93KLfr","Boucher Nissan of Waukesha","1451 E MORELAND BLVD","WAUKESHA","WI","53186"
"vvBLW3JXfkcGbtcJy","Middletown Nissan","1153 NEWFIELD ST","MIDDLETOWN","CT","06457"
"wBRwfbgf8GjzxcEtW","Lewiston Nissan","2239 3rd Ave N","LEWISTON","ID","83501"
"wEyet36Fwj8zykjef","Thruway Nissan","79 ROUTE 17K","NEWBURGH","NY","12550"
"wJhntviBF5gipZKoi","Nissan Infiniti San Francisco","1395 VAN NESS AVE","SAN FRANCISCO","CA","94109"
"wLsddX4MFJMDEFAZL","Acme Nissan","2050 U S 130","SOUTH BRUNSWICK","NJ","08852"
"wMqZkRyiNmXFeCTRi","Prestige Nissan Tiffany Spring","9600 NW PRAIRIE VIEW RD","KANSAS CITY","MO","64153"
"wPyAeL8hiyJbEFMpf","South Shore Nissan","200 SUNRISE HWY","AMITYVILLE","NY","11701"
"wSn5L3pfuQDroQP7W","Maguire Nissan of Syracuse","716 W GENESEE","SYRACUSE","NY","13204"
"waGx5z6BgGregANwK","Grainger Nissan of Anderson","3510 CLEMSON BLVD","ANDERSON","SC","29621"
"wcpyYRbFNY7uMqWWS","CENTRAL NISSAN","2907 E PARKER RD","JONESBORO","AR","72404"
"wfojGxTdt55XqvWH3","Katy Nissan","25550 Kingsland Blvd.","KATY","TX","77494"
"wh8T8Cie52qcKtdpQ","Mathews Nissan","185 HIGHWAY 76","CLARKSVILLE","TN","37043"
"whxD7BBWyNpBogQAQ","Nissan Of Athens","4735 Atlanta Hwy Bldg C","ATHENS","GA","30606"
"wmPq84tyuvcCYPrWJ","Boch Nissan South","685 S WASHINGTON ST","NORTH ATTLEBORO","MA","02761"
"wpZZ27j8oYqntY6Eg","Woodhouse Nissan","7801 NEBRASKA DR","BELLEVUE","NE","68005"
"wrthJoFfuS3EDWukB","Woodmen Nissan","6840 VINCENT DR","COLORADO SPRINGS","CO","80918"
"wuyjGsTbPY9A5juP9","Vaden Nissan","10421 ABERCORN ST","SAVANNAH","GA","31419"
"wvXcow7ciS9BPk53p","Route 33 Nissan","951 US HWY 33","HAMILTON SQUARE","NJ","08690"
"wwKQyhyZzbapwCWvY","Tony Nissan","94-1299 KA UKA BLVD","WAIPAHU","HI","96797"
"xECF9vKcLnJ8xk9Fj","Brandon Nissan","9920 E ADAMO DR","TAMPA","FL","33619"
"xEGFYY8GvXLsLw9Gt","Nissan of Devon","459 W LANCASTER AVE","DEVON","PA","19333"
"xFKxNqpHfx7FfxLjX","Mount Holly Nissan","1513 ROUTE 38","HAINESPORT","NJ","08036"
"xFhHbts3BbAt5Lb2R","Relieance Nissan of Alvin","3485 FM 528 RD","ALVIN","TX","77511"
"xFyMHmMzAWcsGgWfp","Bondys Nissan","3693 W MAIN ST","DOTHAN","AL","36305"
"xGARtgWPP3Eqahq6n","Mossy Nissan Poway","14100 POWAY RD","POWAY","CA","92064"
"xK6dM5RC5pGMSW8ac","Nissan of Melbourne","440 S HARBOR CITY BLVD","MELBOURNE","FL","32901"
"xQm3mEYHZj8oPqHtQ","FAULKNER NISSAN OF MECHANICSBURG","6627 CARLISLE PIKE","MECHANICSBURG","PA","17050"
"xRwAhSdDwf6kGu9Eb","Naples Nissan","3640 PINE RIDGE RD","NAPLES","FL","34109"
"xTCZeoqeMaSYjcrz2","Ed Martin Nissan of Fishers","13397 BRITTON PARK RD","FISHERS","IN","46038"
"xTi3GJxeaxQdqip3G","Nissan of Irvine","32 AUTO CENTER DR","IRVINE","CA","92618"
"xYmwc7LhzN49xfX2h","Mossy Nissan El Cajon","1170 W MAIN ST","EL CAJON","CA","92020"
"xcPdn5zkLRk4q9SDN","Coggin Nissan of the Avenues Jacksonville","10859 PHILIPS HWY","JACKSONVILLE","FL","32256"
"xdZsjqchdJ6xwYjPq","Loughead Nissan","755 S CHESTER RD","SWARTHMORE","PA","19081"
"xdiATTzAffF6sgHS6","Stateline Nissan","845 TAUNTON AVENUE","EAST PROVIDENCE","RI","02914"
"xh5fdGKzRBhGWoaYv","Performance Nissan","1345 S FEDERAL HWY","POMPANO BEACH","FL","33062"
"xmcRYHLDodzg8gwRJ","Keating Nissan","333 INTERSTATE 45 S","CONROE","TX","77301"
"xuP9L9DNXAKZeCF8b","Clear Lake Nissan","2150 GULF FWY","LEAGUE CITY","TX","77573"
"y4RSMZrz9Bn4CtrEw","Southwest Nissan","3050 FORT WORTH HWY","WEATHERFORD","TX","76087"
"y584BfpYPL2ySv9iZ","Central Valley Nissan","4530 MCHENRY AVE","MODESTO","CA","95356"
"yAGSiSxhYCoFTEewT","Taylors Automax Nissan Volkswagen","4100 10TH AVENUE SOUTH","GREAT FALLS","MT","59405"
"yC3vxsbaXSXBkMQdv","Quality Nissan of Greenwood","1724 MONTAGUE AVENUE EXT","GREENWOOD","SC","29649"
"yDvvWYota9KGQsQFN","Cole Nissan","RT 460 GREEN VALLEY","BLUEFIELD","WV","24701"
"yEvbmFoSXEmSo9x5v","Charlie Clark Nissan El Paso","6451 S DESERT BLVD","EL PASO","TX","79932"
"yHHsYe5DKeWm2Km9s","John Sisson Nissan","470 WASHINGTON RD","WASHINGTON","PA","15301"
"yJ7rYZbPP4nN6767n","Johnson Nissan","804 S 1ST AVE","SAFFORD","AZ","85546"
"yLdvz2ARinAsSBF3r","Rocking Nissan of Stafford","1 COACHMAN CIR","STAFFORD","VA","22554"
"yZJujwh455qMcDT3W","Arlington Nissan","1100 W DUNDEE RD","ARLINGTON HEIGHTS","IL","60004"
"yfYa4JuZDtMcSP56B","Five Star Nissan of Florence","311 N CASHUA DRIVE","FLORENCE","SC","29501"
"yjqZ3euYD6TWhaqaP","Pat Peck Nissan","9480 U.S. HIGHWAY 49","GULFPORT","MS","39503"
"yqr68uxvKbAGKomvZ","Ken Garff Nissan of OREM","285 W UNIVERSITY PKWY","OREM","UT","84058"
"ywW62Tcq7LSP4BZ2G","Bill Korums Puyallup Nissan","101 VALLEY AVE NW","PUYALLUP","WA","98371"
"z2k4TwCNyHxLw5Sef","Hanlees Hilltop Nissan","3277 AUTO PLZ RD","RICHMOND","CA","94806"
"z46aSrPMGN7fAfSYL","DAddario Nissan","329 Bridgeport Ave","SHELTON","CT","06484"
"z4WXMLaTfH2kt3fbt","Edison Nissan","401 us route 1","EDISON","NJ","08817"
"z8jdxxR5YLJXwyRYH","Lamb Nissan","440 PRESCOTT LAKES PRKWAY","PRESCOTT","AZ","86301"
"zEsbdBFdu6y2xHmJC","Ken Garff Nissan Downtown","777 S WEST TEMPLE","SALT LAKE CITY","UT","84101"
"zLTGLzA5JMp9XMnJP","County Line Nissan","2191 STRAITS TPKE","MIDDLEBURY","CT","06762"
"zLtDeJdCFcQEaebDn","Mason City Nissan","4600 4TH STREET SW","MASON CITY","IA","50401"
"zNwFjXFCd65Tfq3hF","Briggs Auto Group","2500 STAGG HILL RD","MANHATTAN","KS","66502"
"zQ4s4cu4BCLynAAPK","Kingston Nissan","140 ROUTE 28","KINGSTON","NY","12401"
"zY38c2QJNpN8ZDAt8","Campbell Nissan of Everett","10500 HIGHWAY 99 SOUTH","EVERETT","WA","98204"
"zaJBj5ZiBwXBqwphm","Baron Nissan","235 GLEN COVE RD","GREENVALE","NY","11548"
"zcwLKdGuF896k5kMb","Autofair Nissan Stratham","45 Portsmouth Avenue","STRATHAM","NH","03885"
"zeFsWCoqdx3xsQYE4","John Lee Nissan","120 E 23RD ST","PANAMA CITY","FL","32405"
"zf5rWYwpY2ToEWttz","Nissan of Lumberton","1949 ROBERTS AVE","LUMBERTON","NC","28358"
"zjm6d9NdwHFyXzFva","Riverside Toyota Nissan","3330 US Highway 41 W","MARQUETTE","MI","49855"
"zndGiAbd6atNwc2dj","Teddy Nissan","3660 BOSTON RD","BRONX","NY","10469"
"zxtEgajP4jXmBoGjA","Kamaaina Nissan","471 KALANIANAOLE AVE","HILO","HI","96720"
