name,address,city,state,zipcode,ethash
INFINITI OF SOUTH ATLANTA,4201 JONESBORO RD,UNION CITY,GA,30291,A302912267966659EC50CEE0DD25CB74EE6B65AB0C8844B5B50000
JBA INFINITI OF ELLICOTT CITY,8431 BALTIMORE NATL PIKE,ELLICOTT CITY,MD,21043,A21043427717D2E13F6DB07478604A126469635BCC6E9F9C1B0000
INFINITI OF MOBILE,1147 E I65 SERVICE RD S,MOBILE,AL,36606,A366063147C61FD8DE41C9768D32331268FA993872A440FE670000
HARTE INFINITI,150 WESTON ST,HARTFORD,CT,06120,A061201512438723EBD94FF52C6D1A406C29ECA54BD4FC42D40000
INFINITI OF MANHASSET,1225 NORTHERN BLVD,MANHASSET,NY,11030,A110303017438A4E8D4C73D32E79A89165544D00C65CACF5FB0000
ATLANTIC INFINITI,10980 ATLANTIC BLVD,JACKSONVILLE,FL,32225,A3222529375C7EBEB5904094D8C8D467B3E4D51BA49C225A010000
BEAVERTON INFINITI,9500 SW CANYON RD,PORTLAND,OR,97225,A972253526BF0F8E1819A2E1F07028205B16C71AAB6DFFC0CF0000
JIM LUPIENT INFINITI,7200 WAYZATA BLVD,GOLDEN VALLEY,MN,55426,A5542616502479503D663790E27776F504D682479EE5E2FCE80000
BERMANS INFMERRILLVILLE,1794 W 81ST AVENUE,MERRILLVILLE,IN,46410,A464105349B74FF1FE373D1ABD5861C1CD9BBF2243A600CE1C0000
HOLMAN INFINITI,577 ROUTE 38 W,MAPLE SHADE,NJ,08052,A080521605FBD0EAEF75AF43345796B1ED36581122AF5C28360000
INFINITI OF MELBOURNE,901 s a,MELBOURNE,FL,32901,A329011355B52C9723751BE32459A2C420661DB00048B7D64D0000
CERRITOS INFINITI,10901 183RD ST,CERRITOS,CA,90703,A9070353331C30C7F687488E0E447690E5149A91B1C74C7BE90000
INFINITI ROSEVILLE,800 AUTOMALL DR,ROSEVILLE,CA,95661,A95661302333810D2760498807ABCF46237CBF7B4B09AFE8F60000
FETTE INFINITI,1137 ROUTE 46 EAST,CLIFTON,NJ,07013,A07013243110D97A77501F5BAB9221C71455115324436C4E1D0000
INFINITI OF NAPERVILLE,1550 WEST OGDEN AVENUE,NAPERVILLE,IL,60540,A6054039195C148DD0F97E560E93196E2307DD86428BC3A59A0000
LUTHER INFINITI OF BLOOMINGTON,1500 WEST 81ST STREET,BLOOMINGTON,MN,55431,A5543120732920BF95ED4F65DFC9BA242119B48A8322B9E6CF0000
INFINITI OF NASHUA,11 MARMON DR,NASHUA,NH,03060,A0306052058A67C57C25B8E486E3FD44DEB9759769DBF38CDD0000
INFINITI OF COCONUT CREEK,5501 W SAMPLE RD,COCONUT CREEK,FL,33073,A330733412F848EA654CBD7DDB1C875126D8096C9A66921ECD0000
INFINITI OF DENVER,2990 SOUTH HAVANA STREET,AURORA,CO,80014,A800142620E4B4F1118DECD91E66B651FDCE52631339D39B030000
INFINITI OF SAN ANTONIO,12150 IH 10 W,SAN ANTONIO,TX,78230,A7823010561FFA6CAFD1A1104234EC111B404EEFC340701DF40000
INFINITI OF MODESTO,4130 MCHENRY AVE,MODESTO,CA,95356,A9535615147207DAAD1794954B74F893BC5A4654E7B356B4900000
INFINITI OF CINCINNATI,9857 KINGS AUTO MALL RD,CINCINNATI,OH,45249,A45249832144BC701D73ED2528939C13851034A2F73820E7B40000
SOUTH MOTORS INFINITI,16915 S DIXIE HWY,PALMETTO BAY,FL,33157,A33157436132115AE21ABEAD93241C9F70A105DBA925FE62F60000
INFINITI OF LEXINGTON,801 E NEW CIRCLE RD,LEXINGTON,KY,40505,A405052907A38AB05167A93A72C86F68E3ECFF8B9BA9EACEC00000
INFINITI OF MEMPHIS,3060 NORTH GERMANTOWN RD,BARTLETT,TN,38133,A3813340234C1EB21125F1C7303839426154B1F49BBD3D4B6E0000
COULTER INFINITI,6225 EAST TEST DRIVE,MESA,AZ,85206,A85206683225EDCD811D0CF07C5780C9407CDF31A2EC7A5DA20000
INFINITI OF ENGLEWOOD,60 ROCKWOOD PL,ENGLEWOOD,NJ,07631,A076314938DB41DB018CD87D581430F69312ABDD5598BE5A920000
INFINITI ON CAMELBACK,1250 E CAMELBACK RD,PHOENIX,AZ,85014,A85014330968EDA177A76DA0AEE9C6FEEF550F3AA53DE696350000
INFINITI STUART,3970 SE FEDERAL HIGHWAY,STUART,FL,34997,A3499749297D5F8C84EAFE30E748C715E3467402E6F2F586060000
PEARSON INFINITI,11701 MIDLOTHIAN PIKE,MIDLOTHIAN,VA,23113,A231132646860CCDCCF9578AC77116410C758D0CD1E660514B0000
GREENWICH INFINITI,315 MILBANK AVENUE,GREENWICH,CT,06830,A06830666333EF9D17C853A3EA7C340228CCC1471E780830E40000
BERGLUND INFINITI OF ROANOKE,5050 FRANKIN ROAD,ROANOKE,VA,24014,A2401466524F4A1C82244B4CA19EACCC645CCC3282371631B60000
MODERN INFINITI,3605 W WENDOVER AVE,GREENSBORO,NC,27407,A27407150786B626397403385AC3527AD77490E3EA74208AA40000
MOTOR WERKS INFINITI,1475 S BARRINGTON RD,BARRINGTON,IL,60010,A600105235A1ED1DB6B4F71CE2A955D55C2FFF0EB202BD5EA10000
RAY BRANDT INFMETAIRIE,3700 N CAUSEWAY BLVD,METAIRIE,LA,70002,A7000217237446D47CAFE853EBF2F36B1646025167C17F3DD40000
WEST HOUSTON INFINITI,12200 KATY FREEWAY,HOUSTON,TX,77079,A770791500386752F721D45DED0D8E107C309F841B06F60BFD0000
NAPLES INFINITI,5880 NAPLES BLVD,NAPLES,FL,34109,A341092082DCE7B82C490EEF599F5D9FF720874328C49C4DC80000
DORSCHEL INFINITI,3855 W HENRIETTA RD,ROCHESTER,NY,14623,A1462337037CAEA9249D2113BFBE3DF5CFC5BC4DF39A34C03F0000
INFINITI OF KANSAS CITY,6960 W FRONTAGE ROAD,MERRIAM,KS,66203,A662034223B599C8EA34D4C2695406E3979B0C800834CF187F0000
BERT OGDEN INFINITI,4901 SOUTH EXPRESSWAY 281,EDINBURG,TX,78539,A7853970172ACC8D4467027E349DC775783F5FDEB8921B865E0000
AIRPORT INFINITI,13940 BROOKPARK ROAD,CLEVELAND,OH,44135,A44135515078BBE1DA668DD540CF5A4555879D798D315C811A0000
INFINITI OF MISSION VIEJO,28471 MARGUERITE PKWY,MISSION VIEJO,CA,92692,A9269237075FD303213E2D52F4DE56CB24551F28E68928C2640000
WARREN HENRY INFINITI,2300 NE 151ST STREET,NORTH MIAMI,FL,33181,A3318130004FBE706DC46936A8138FE90E1998D75350F71B270000
INFINITI OF NORWOOD,866880 BOSTON PROVIDENCE,NORWOOD,MA,02062,A020624622719D8261E3255336BD79EDBEC0E71B6EEBEA45610000
FORT MYERS INFINITI,14990 SOUTH TAMIAMI TRAIL,FORT MYERS,FL,33912,A339121954655493B10E13322EE4C228FFD94452AB1CB224FA0000
INFINITI OF BELLEVUE,11815 NORTHEAST 8TH ST,BELLEVUE,WA,98005,A9800530069D0A40F2258A35E321AFE5BE13CCB1BF800350AF0000
RAY CATENA INFINITI,900 ROUTE 1,EDISON,NJ,08817,A08817484800A6EEF33D357C553A8DB8E9C0B4D748F55B0BFA0000
INFINITI OF SUITLAND,4731 AUTH PLACE,SUITLAND,MD,20746,A207464221223A7AEA1FDA050E850D520373080FD656EEFA9E0000
INFINITI OF TAMPA,4600 N DALE MABRY HWY,TAMPA,FL,33614,A3361470229AD8EB28712A68B32880F3C7211B5650EEAE545E0000
INFINITI OF TACOMA AT FIFE,4902 PACIFIC HWY E,FIFE,WA,98424,A98424260963F0E3A0CF112D982A61D206DF02F9CA20D964B20000
SHEEHY INFINITI OF TYSONS,8527 LEESBURG PIKE,VIENNA,VA,22182,A221822406467CD59E871E55E7EC465E65A42BF93FA70CB37A0000
NATIONWIDE INFINITI OF TIMONIUM,22 W TIMONIUM RD,TIMONIUM,MD,21093,A21093319818278F287D40FF067AFE5FB94484C8ABDCB289F70000
BENNETT INFINITI OF WILKESBARRE,1060 HIGHWAY 315,WILKES BARRE,PA,18702,A1870269276053BD9655996A3E13045D78B9B1D1DF56BF364F0000
SANFORD INFINITI,995 RINEHART ROAD,SANFORD,FL,32771,A3277174959E9645FC2EC48B72837A1DA48464A7CE392D94F80000
INFINITI OF AUGUSTA,3315 WASHINGTON ROAD,AUGUSTA,GA,30907,A309073896AC83042CA3752DBDD96D4F5138C1A08C605937AE0000
NALLEY INFINITI OF ATLANTA,2550 THE NALLEY WAY,ATLANTA,GA,30360,A3036031446C7A98FC493B03AF751BB2FB6C5F9F8D5637AB2F0000
LIA INFINITI,965 NEW LOUDON RD,COHOES,NY,12047,A120475001B9A73A7B554F8F32DD0845097BB42E55072E8C410000
INFINITI OF CHATTANOOGA,7646 LEE HIGHWAY,CHATTANOOGA,TN,37421,A374211026EB3869F6DDF5967D5E0D1A713986913A2966C1840000
HERB CHAMBERS INFINITI OF BOSTON,60 MYSTIC AVE,MEDFORD,MA,02155,A021554623C612816BF312A282D289AFE7FE5433889ACFB8A30000
JIM COLEMAN INFINITI,10400C AUTO PARK AVENUE,BETHESDA,MD,20817,A2081710971BF052D3252EFAF90920AD15660C2DC921BC96F90000
NALLEY INFINITIMARIETTA,2020 COBB PARKWAY SOUTH,MARIETTA,GA,30060,A300609259DDB39EE6BD1DEF9A55513A045786CA2138BF5AD10000
JACKIE COOPER INFINITI,8825 S MEMORIAL DR,TULSA,OK,74133,A7413343156088A2DB7FBE457F5E333EEB4243C1A72A73B3660000
SHEEHY INFINITI OF ANNAPOLIS,123 FERGUSON RD,ANNAPOLIS,MD,21409,A214095408CD9EF86A65A634411338AC97795A3C14F79E346A0000
HARPER INFINITI,9737 KINGSTON PIKE,KNOXVILLE,TN,37922,A37922334651E4281B7F8479259CD453713282DD0FEE8CCE6D0000
GREGORY INFINITI,1121 S MILWAUKEE AVE,LIBERTYVILLE,IL,60048,A600483716B6FAE6B5C54D3C6EB0D9485B6481BA25130098C90000
KEARNY MESA INFINITI,4670 CONVOY ST,SAN DIEGO,CA,92111,A921112314085A5BB7C642DE39DC4B565C16B8DCFC68714D120000
INFINITI OF HILTON HEAD,210 FORDING ISLAND RD,BLUFFTON,SC,29910,A29910516369E38C98583DF9C0A8C597021556B69EB29D6CED0000
GRUBBS INFINITI,1500 E STATE HWY 114,GRAPEVINE,TX,76051,A76051863859CBCF90EC265A75552D666FA069351EC3A7087F0000
INFINITI OF HOFFMAN ESTATES,1075 W GOLF RD,HOFFMAN ESTATES,IL,60169,A601691339A45AB84D514BBFF3A81C5C688D3A210E94BFC2420000
INFINITI OF SOUTH BAY,2900 PACIFIC COAST HWY,TORRANCE,CA,90505,A905056704F3DA44E42EF42CD6483B4813FC6D06628A51A3470000
ZIMBRICK INFINITI OF MADISON,1601 W BELTLINE HWY,MADISON,WI,53713,A537132386BEAAE60AE1F9EE8DA76E38F6F6E8FFFE2F11EA870000
GLENDALE INFINITI,812 BRAND BLVD,GLENDALE,CA,91204,A912042106DE2730D3B00941C308674C7C35B59685E08B903D0000
KINGS INFINITI,20 NEPTUNE AVE,BROOKLYN,NY,11235,A11235440538B87CAA8535BAB40A51079673D642B7C463149E0000
ANN ARBOR INFINITI,515 AUTO MALL DR,ANN ARBOR,MI,48103,A4810318110E89FC7819121D248D1EFFE01149525C6A6581D00000
INFINITI OF GRAND RAPIDS,2930 BRETON RD SE,GRAND RAPIDS,MI,49512,A4951217469E812342CE115029C86EB76EF9D62A7AE55DE36E0000
INFINITI OF BEACHWOOD,25900 CENTRAL PKWY,BEACHWOOD,OH,44122,A4412273245BB7E7022301177837BE44D4377A5B7E83EEBE140000
MIKE WARD INFINITI,1800 LUCENT COURT,HIGHLANDS RANCH,CO,80129,A80129190428B251812D349510AB9A514E5854B6874E6B8E400000
INFINITI OF VAN NUYS,5455 VAN NUYS BLVD,SHERMAN OAKS,CA,91401,A9140156861C95E7D9FBD2A8840232D4AA4252257002E053E90000
INFINITI OF LAS VEGAS,5555 WEST SAHARA AVENUE,LAS VEGAS,NV,89146,A891463328536E8E083787665715C2AA08F93320231247A88F0000
DUBLIN INFINITI,4300 JOHN MONEGO COURT,DUBLIN,CA,94568,A945683111AA7806EA5136348504750D9A3977B00EBB2F8AE20000
AUSTIN INFINITI,8140 BURNET RD,AUSTIN,TX,78757,A7875777749176806A4D71B95608D0CCF4F1BD874F4ADBF9240000
INFINITI OF SARASOTA,4950 CLARK ROAD,SARASOTA,FL,34233,A342333238B1091C20205760AE3C75CAFE41E3AE9BF9F23B2A0000
CROSSROADS INFINITI OF RALEIGH,3910 CAPITAL HILLS DR,RALEIGH,NC,27616,A2761600025478EA822AC3D579D057DC7E28AD53545966E1620000
INFINITI OF LYNBROOK,843 SUNRISE HIGHWAY,LYNBROOK,NY,11563,A1156328104E742DD13A9A350F7622ECB91BBEFBDD844C8FB60000
INFINITI OF ARDMORE,306 W LANCASTER AVE,ARDMORE,PA,19003,A190031216EC505A65653AD5DEE603233BB26CF5B85B9046500000
BERMANS INFINITI CHICAGO,3456 N KEDZIE AVE,CHICAGO,IL,60618,A6061856204DD0697D18AF51C689BE07764C2D21FFF9C2082B0000
FLEMINGTON INFINITI,204 HIGHWAY 20231 NORTH,FLEMINGTON,NJ,08822,
HERB CHAMBERS INFINITI OF WESTBOROUGH,312 TURNPIKE RD,WESTBOROUGH,MA,01581,A015812813F8700F957FBF61828B6A7EF3D64F0B1AB7C971740000
INFINITI OF GWINNETT,3090 SATELLITE BLVD,DULUTH,GA,30096,A300965807A505EAE306246A58DE156C65C528B325DB1009610000
INFINITI OF CENTRAL ARKANSAS,21000 INTERSTATE 30 NORTH,BENTON,AR,72019,A7201983733D208D50059A91A8F8DCCA487469F1C133369F8C0000
AUTONATION INFINITI TUSTIN,33 AUTO CENTER DR,TUSTIN,CA,92782,A927828402B0DF99D5F4EE4F35D00CF0F6F1AB9C680193DBC90000
INFINITI OF VALENCIA,24055 MAGIC MOUNTAIN PKWY,VALENCIA,CA,91355,A9135509501610BCA9217EB3BC7D3F540503E62F72B3C52A8A0000
PENINSULA INFINITI,386 CONVENTION WAY,REDWOOD CITY,CA,94063,A9406314051110FCAA453D54063A02604F0C66E8C57DB4CFCE0000
INFINITI OF WILLIAMSVILLE,8137 MAIN ST,WILLIAMSVILLE,NY,14221,A142216032BCE65A4F95BD8D4436CDF0502E30731111CF19EC0000
LOUISVILLE INFINITI,8 AUTOCENTER DR,LOUISVILLE,KY,40299,A402991862C7B8AF8C75AE3E6267B92E2FEFAD3B286B5B97280000
BENNETT INFINITI OF ALLENTOWN,2121 LEHIGH STREET,ALLENTOWN,PA,18103,A181034758A287C6D387DC740ECF1213337353FA97341B80FE0000
SALERNO*DUANE INFINITI OF DENVILLE,3103 ROUTE 10,DENVILLE,NJ,07834,A07834342577312BACA0F09B9BFA5AF4F4D0690033EE1637640000
SUBURBAN INFINITI,24355 HAGGERTY RD,NOVI,MI,48375,A48375212433EC8260933B605E7D22208B5E2F56FAEB0758D40000
INFINITI OF LUBBOCK,6225 SPUR 327,LUBBOCK,TX,79424,A794242747950F3A514A28199CCAFD31CEC2BAC50792D4EB640000
PASSPORT INFINITI OF ALEXANDRIA,160 S PICKETT ST,ALEXANDRIA,VA,22304,A22304301097F1EFD3718ADC8A287042FC88B865ABF51261A90000
INFINITI OF AKRON,3332 S ARLINGTON ROAD,AKRON,OH,44312,A443125866322C9ED9D898284EA91093413B58A975B99CF0D10000
HERRINGEAR INFINITI,1685 HIGH ST,JACKSON,MS,39202,A392023597FD9B99EF9A7CDFBCFD8BB6539234407C314C7C600000
INFINITI OF CORAL GABLES,2701  S LE JEUNE RD,CORAL GABLES,FL,33134,A331345809347B8B1E1B482ADC65FB01B494A2FED13DEC32F00000
ORANGE COAST INFINITI,15550 BEACH BLVD,WESTMINSTER,CA,92683,A926837197234A2E1CB2B723DC5521A647FCA2F3DC246C3D5F0000
INFINITI OF WEST CHESTER,1265 WILMINGTON PIKE,WEST CHESTER,PA,19382,A193828446297B394E4648265699616BDB13CB549CA2522E230000
DREYER  REINBOLD OF GREENWOOD,1305S 31 SOUTH,GREENWOOD,IN,46143,A4614324149E0BCDC4B65A144C4B8E00BA33F3EE95DE8087410000
INFINITI OF THOUSAND OAKS,3570 E THOUSAND OAKS BLVD,WESTLAKE VILLAGE,CA,91362,A913623622956C2A716B4147EC4699CCE1A2CA34A923ABA4640000
INFINITI OF ORLAND PARK,8751 W 159TH STREET,ORLAND PARK,IL,60462,A604624872D5A00202C976ACE83D169861906E42C9557F84A10000
RED NOLAND INFINITI,425 MOTOR WORLD PARKWAY,COLORADO SPRINGS,CO,80905,A809057012D3ED4E5A475C233EFC9034FA739D0FDA9B840D970000
DAYTONA INFINITI,980 N TOMOKA FARMS RD,DAYTONA BEACH,FL,32124,A321242003B0A8F3E8E2C584AC0080BBF5A2CBAED7FC699A220000
TIM DAHLE INFINITI,4594 S STATE ST,MURRAY,UT,84107,A8410738143550A804E33EAEA5467D6FA3919446C00A094E460000
INFINITI PALM SPRINGS,67615 E PALM CANYON DR,CATHEDRAL CITY,CA,92234,A922345454BD3B283EFEBF8B7637AEE2AE18343EAE8D2CECC30000
CROSSROADS INFINITI OF APEX,1900 LAURA DUNCAN ROAD,APEX,NC,27523,A27523642154EAEB67E5CA978C68F215704289EE03A9C6843E0000
INFINITI OF LYNNWOOD,17305 HIGHWAY 99,LYNNWOOD,WA,98037,A980373143453B8CAB527718A0F8B458C7E5A9E95D750FD2FF0000
BREWBAKER INFINITI,222 EASTERN BLVD,MONTGOMERY,AL,36117,A36117201057A2D87DA377A9667577C644F1D9E0A194EC11B40000
GEORGE HARTE INFINITI,1076 SOUTH COLONY RD,WALLINGFORD,CT,06492,A06492525886DD893B3F93ECCD2C49467CF6B83740BF1F2F9F0000
INFINITI OF PALM BEACHES,3101 OKEECHOBEE BLVD,WEST PALM BEACH,FL,33409,A3340940349BFAE5E5C06539E7804C50AD17151AD8E469F9CF0000
INFINITI OF OMAHA,18201 BURT STREET,ELKHORN,NE,68022,A6802238219DE968A7A00054EE25700AAB80F39CC21A6A04650000
INFINITI OF SCOTTSDALE,7601 E FRANK LLOYD WRIGHT,SCOTTSDALE,AZ,85260,A85260100084887B287F191B6D28A5A4DACC57A13E8178C1B60000
BERMAN INFINITI OF NILES,5757 W TOUHY AVE,NILES,IL,60714,A607144603D0C6EF74110C7D994A91D3A4F2FDA3A545C2198B0000
INFINITI OF HONOLULU,2845 KILIHAU ST,HONOLULU,HI,96819,A96819202511FD26B4579AF89F83C0094B0701DE33305E8ED50000
INFINITI OF SYRACUSE,736 W GENESEE ST,SYRACUSE,NY,13204,A1320423217975A7B54976C1F6BA41414AA3018C7B6FD782000000
INFINITI OF BOERNE,32275 INTERSTATE HWY 10,BOERNE,TX,78006,A78006924054AC2E34980245E5A2EE8E90239345D67E9CCFA00000
RICKENBAUGH INFINITI,5900 GATEWAY COURT,DACONO,CO,80514,A80514955765BF140B0EEAB2AEF02E1517D98BA284D55785200000
FAULKNER INFINITI OF MECHANICSBURG,6720 CARLISLE PIKE,MECHANICSBURG,PA,17050,A17050171106EF0C8BDF5F43AEA6672CF21321FECA946CDC060000
SUBURBAN INFINITI OF TROY,1816 MAPLELAWN DR,TROY,MI,48084,A4808446168F72C66D7759F398AFBC468F1214E25BBE62F8B50000
KELLY INFINITI,155 ANDOVER ST,DANVERS,MA,01923,A0192314189468052EB18C0A13E5E36D1C1F8F7355D463CB170000
INFINITISO MISSISSIPPI,11779 BOBBY ELEUTERIUS,DIBERVILLE,MS,39540,A395408715F13202A2A774F27885753C82D718F7D24826DE420000
PERRY INFINITI,855 LA TERRAZA BLVD,ESCONDIDO,CA,92025,A920253815A8889E4430FB04FF4780B3517D2C0FB7E91AEB9B0000
RAMSEY INFINITI,535 ROUTE 17 S,RAMSEY,NJ,07446,A074462014A4189528EBA802FC3A8533321F45CC88726A31D10000
RAY CATENA INFINITI OF BRIDGEWATER,1350 ROUTE 22 EAST,BRIDGEWATER,NJ,08807,A088072974A3FC5C3D4AAAD2A4CBAB80E8AA7E010D09CD4CCA0000
BRADSHAW INFINITI,2600 LAURENS ROAD,GREENVILLE,SC,29607,A29607381809B73C7AF31601C914E19630EAB5B1FE4D3256C00000
PRIORITY INFINITI OF GREENBRIER,1812 GREENBRIER PARKWAY,CHESAPEAKE,VA,23320,A2332026067221027B5716CEA49C8344FA8571356A30F0A1860000
INFINITI OF WARWICK,1085 CENTERVILLE RD,WARWICK,RI,02886,A02886423054C1D020141A3330A5DBC13C3ECAEDFB13806FFC0000
INFINITI EL PASO,1140 AIRWAY BLVD,EL PASO,TX,79925,A79925362878C930E32A76108DDDB2D56B95AF08C278FA5B2D0000
FAULKNER INFINITI OF WILLOW GROVE,1510 EASTON RD,WILLOW GROVE,PA,19090,A190901284CEF655664151E48C47704524A1E64560A8A41CF70000
DREYER  REINBOLD INFINITI,9370 WHITLEY DR,INDIANAPOLIS,IN,46240,A46240136333669E924C8DD10500D375900287F3F20E7C4B050000
SOUTHWEST INFINITI,10495 SOUTHWEST FREEWAY,HOUSTON,TX,77074,A770741191D2F38B4439ECEF1039ED0E201352AFB1EE9862910000
CREST INFINITI,6100 STATE HIGHWAY 121,FRISCO,TX,75034,A750347703771AC8C4193EA6F7B205112B84C8B1DF08567F640000
SEWELL INFINITI OF NORTH HOUSTON,17825 NORTH FWY,HOUSTON,TX,77090,A770904907B9AAA04026715CF0AB7787E90F88A10E78644B420000
BRONCO MOTORS INFINITI,15675 IDAHO CENTER BLVD,NAMPA,ID,83687,A836874106A192E3DB52ED6769A020BA48AFF6B5E35F231CCA0000
SEWELL INFINITI,7110 LEMMON AVE,DALLAS,TX,75209,A7520936089E6EF2E225E8C483FACC19A5A90F4FBD2E76328E0000
CLEAR LAKE INFINITI,14705 GULF FREEWAY,HOUSTON,TX,77034,A7703453538F3E44BAF93EDE927A5F0DE01ED4216990F144090000
BAKER INFINITI CHARLESTON,1501 SAVANNAH HWY,CHARLESTON,SC,29407,A2940778220F303D3431181A2355611821D3A3082F1E4A71F10000
BERGSTROM INFINITI,2950 N VICTORY LANE,APPLETON,WI,54913,A549137987E4E6C18B0846C38D44D1F0DF89DACEEA5F5AEAE30000
SEWELL INFINITI OF FORT WORTH,5135 BRYANT IRVIN RD,FORT WORTH,TX,76132,A7613238058EB20AADA1BCAB0D9E63E3DFE0827D5831F64F4C0000
INFINITI OF TALLAHASSEE,3355 CAPITAL CIRCLE NE,TALLAHASSEE,FL,32308,A32308373624EA7CDDB2AEF7DE875A6519606178BBB7BEA23F0000
BILL DODGE INFINITI,1 SAUNDERS WAY,WESTBROOK,ME,04092,A0409251037CEA9BD487AFE3901ADED44CA74ECD1EB2340A170000
INFINITI OF HANOVER,2060 WASHINGTON STREET,HANOVER,MA,02339,A02339161784845B2D8BDDF5488EFF9BD3CC752AE705F908EE0000
PEPE INFINITI,300 CENTRAL AVENUE,WHITE PLAINS,NY,10606,A1060612805DA5780626447BBC9A1A014538BF8212E9E489B70000
ROSWELL INFINITI OF NORTH ATLANTA,11405 ALPHARETTA HWY,ROSWELL,GA,30076,A300763802A924745EE8B1413BD1308E70A1D0A26B530F20DE0000
INFINITI OF BAKERSFIELD,5200 GASOLINE ALLEY,BAKERSFIELD,CA,93313,A933133209DC7D53DA957CA92417E9407FC2450FC776F5AE500000
SMITH INFINITIHUNTSVILLE,1010 OLD MONROVIA RD NW,HUNTSVILLE,AL,35806,A35806350453B4BD3A18FFA725C7905D7AC6852331639646FD0000
ORLANDO INFINITI,4237 MILLENIA BLVD,ORLANDO,FL,32839,A3283924318B9734F964FA99962ED15B5DA8AE3CF52D5071500000
INFINITI OF PEORIA,9167 W BELL RD,PEORIA,AZ,85382,A85382471224B145BD7AE5A8259BDA3E2864AF39C78F3CC11D0000
INFINITI OF BAYSIDE,21707 NORTHERN BLVD,BAYSIDE,NY,11361,A1136135597FFF8AE715CF0591D88D548753B6AB15E5134B990000
DEVAN INFINITI OF FAIRFIELD,26 COMMERCE DRIVE,FAIRFIELD,CT,06825,A0682555587F6C8EDAF9DE8D61834438C30D48B284847136380000
GERMAIN INFINITI OF EASTON,3833 MORSE ROAD,COLUMBUS,OH,43219,A432193013410F326534C60FB4F44F015C01E0753D2502EEBC0000
LAKE NORMAN INFINITI,20435 CHARTWELL CENTER DR,CORNELIUS,NC,28031,A280316223A7CE9797B233E34A93A1B0C1680903E690E6A7DA0000
DICK SMITH INFINITI,3670 FERNANDINA RD,COLUMBIA,SC,29210,A292105263307BC89917B5EC9356346F0DD8D455B4D4B31A8B0000
INFINITI OF LAFAYETTE,6201 JOHNSTON STREET,LAFAYETTE,LA,70503,A705035927BAD3119D4CE89C5945F14BBA0B3C34ED18BFBAA80000
INFINITI OF CHARLOTTE,9103 E INDEPENDENCE BLVD,MATTHEWS,NC,28105,A281054503A964070C3C9ACB707F09E6E8390122ACE251E3F30000
ED HICKS INFINITI,3026 S PADRE ISLAND DR,CORPUS CHRISTI,TX,78415,A784151814C8CE5244938D8E759030FBEC8455C651879CE36D0000
INFINITI OF DAYTON,299 LOOP RD,CENTERVILLE,OH,45459,A4545921645EC7CB68DEA326119202893FE93BB0B804688AF00000
METRO INFINITI,821 E CENTRAL AVE,MONROVIA,CA,91016,A910164277A50110A28545F550BB3A03A4B869726B3795663D0000
COCHRAN INFINITI,11740 PERRY HIGHWAY,WEXFORD,PA,15090,A15090837148AB22729D6173378BF223CCCF6E4015FD70F0C50000
BOB MOORE INFINITI,13000 N KELLEY AVE,OKLAHOMA CITY,OK,73131,A73131123313C95C6188A5EAB6BD09DDF68334BCE83B4264860000
BOMMARITO INFINITI,15700 MANCHESTER RD,ELLISVILLE,MO,63011,A6301122063B5F93569A6D4D2CA118AA25B36C4EF2C6D4AD5C0000
INFINITI OF BIRMINGHAM,1804 MONTGOMERY HIGHWAY,HOOVER,AL,35244,A35244251432E9ABB18116D17D19EA00FE0413D6F59F35465D0000
FRESNO INFINITI,711 W PALMDON DRIVE,FRESNO,CA,93704,A93704108032C7956EE16F8138E4072E9C7799577A9D4081F10000
INFINITI OF FORT WAYNE,4805 LIMA RD,FORT WAYNE,IN,46808,A46808120573EDE10DB7E7407344579E932927D1C362D1BBC50000
INFINITI OF NORTHERN KENTUCKY,1945 DIXIE HWY,FORT WRIGHT,KY,41011,A41011267504F5973C995E34DC2A16A9EC3C2C54AF6C0934800000
INFINITI OF OXNARD,1701 AUTO CENTER DR,OXNARD,CA,93036,A930367962129F1E8AA80D8D224DDF8CE19C24B0B5083B77E30000
SAWGRASS INFINITI,5801 MADISON AVE,TAMARAC,FL,33321,A3332164230828215D4C0354A2AE116F75F7088077A2F712130000
INFINITI OF SPRINGFIELD,3625 SOUTH CAMPBELL ST,SPRINGFIELD,MO,65807,A658075201C24701F979C7CA6AB8654184F3C5C2930FA27D120000
INFINITI OF SILVER SPRING,3221 AUTOMOBILE BLVD,SILVER SPRING,MD,20904,A20904490961207B2D080833AD70B240DEFD8A64B3E27A6B480000
LAUDERDALE INFINITI,900 E SUNRISE BLVD,FORT LAUDERDALE,FL,33304,A33304282143409A8D0C4EBB98412DD79DEED404047E24D61A0000
INFINITI OF BATON ROUGE,13540 AIRLINE HWY,BATON ROUGE,LA,70817,A708175919F019E948732E261B43E8475DDCAF21850FD871840000
INFINITI MILWAUKEE,2228 E MORELAND BLVD,WAUKESHA,WI,53186,A53186290719FE13DCB53F572151BFB303EFA6E3F93E00F63D0000
INFINITI OF ELK GROVE,8586 LAGUNA GROVE DR,ELK GROVE,CA,95757,A95757870794FD128C8BB0C5CB720BCD1E25A456F0F7FDF3D60000
INFINITI OF ORANGE PARK,6999 BLANDING BLVD,JACKSONVILLE,FL,32244,A32244442054A48D21506DDD4D4FBDECDF9B1EA74AFAB7AD070000
GARCIA INFINITI,1234 RENAISSANCE NE,ALBUQUERQUE,NM,87107,A8710770030E81BEC5A396FEA481F565CE5C51EBD2A1166F570000
CIRCLE INFINITI,300 STATE HIGHWAY 36,WEST LONG BRANCH,NJ,07764,A0776410251A1B10DD9DF6E2A507C4FC56B8CEEF3AA16BDF520000
INFINITI OF MASSAPEQUA,4450 SUNRISE HWY,MASSAPEQUA,NY,11758,A11758531010883DDE08DA8F899B7524BE295197E5971FBF170000
INFINITI OF COLUMBUS,3890 TULLER RD,DUBLIN,OH,43017,A430175018B3CC88985AFEC575A52CF2E616706B9C4C75E5620000
INFINITI OF COOL SPRINGS,211 COMTIDE CT,FRANKLIN,TN,37067,A370676316D133175E9C9B3406CD1B5EB249C4E445BFB847360000
MODERN INFINITI OF WINSTONSALEM,1500 PETERS CREEK PKWY,WINSTON SALEM,NC,27103,A2710346395FBAFE7E16B863079B857D405B61A2A995916FF10000
INFINITI OF CLARENDON HILLS,415 E OGDEN AVE,CLARENDON HILLS,IL,60514,A60514280646B3F8FA7321636A3EB77464FE7C920E66ACC45D0000
INFINITI OF MACON,4763 RIVERSIDE DR,MACON,GA,31210,A312101115EED881736C597970474E2B752001623ACCCAAB530000
PORTER INFINITI,303 E CLEVELAND AVE,NEWARK,DE,19711,A19711379328C17992346671CBE18D4C6254740124154EDB680000
COMPETITION INFINITI,587 MIDDLE COUNTRY RD,SAINT JAMES,NY,11780,A11780320534E223E8121DDE9DA29F9C3A7EA0E7AC86F9DC880000
LOKEY INFINITI,19740 US HIGHWAY 19 N,CLEARWATER,FL,33764,A337646014CE91DEE4798624A7CEB8D949133A3333AEF6FB680000
INFINITI OF RENO,11570 S VIRGINIA STREET,RENO,NV,89511,A8951189000CE3107AA51674D5ECC6141DB77B82CF50A6AEC90000
INFINITI OF ONTARIO,2192 INLAND EMPIRE BLVD,ONTARIO,CA,91764,A9176418355F41CCD596E47B118B8AC45600BAB525904948FF0000
ORR INFINITI,8727 BUSINESS PARK DR,SHREVEPORT,LA,71105,A711055612967EBA18184FCD8EF6D235CAD62D7B02677AA4C70000
STEVEN INFINITI,11213 E KELLOGG DR,WICHITA,KS,67207,A6720719247BD57AAE4C5C5FA083A366D0E2D7CC83D76F963D0000
INFINITI OF SAN JOSE,2198 TULLY RD,SAN JOSE,CA,95122,A951221345B163ECD62E59310E6934D34C1066BF503BFAD9D60000
INFINITI OF TUCSON,625 W AUTO MALL DR,TUCSON,AZ,85705,A857056010E4041AF1B1AC0AF61987F39FEA08152D0130B7EA0000
SHEEHY INFINITI OF CHANTILLY,4145 AUTO PARK CIRCLE,CHANTILLY,VA,20151,A201511224446AB53E1C28240626251C5320FD8147E651CA8B0000
DOUGLAS INFINITI,430 MORRIS AVE,SUMMIT,NJ,07901,A079011595F7873F9B6CC14B0214BE25652E53F32A106E17150000
WILLIS INFINITI,2021 NORTHWEST 100TH ST,DES MOINES,IA,50325,A50325531967A5C0BDDE50F42ACB18670C2D63FD879405B3560000
INFINITI OF MARIN,475 E FRANCISCO BLVD,SAN RAFAEL,CA,94901,A949014004F3F26ABABABD074D585CA8659F5717CBE4797EED0000
INFINITI OF OCEANSIDE,3535 COLLEGE BLVD STE 101,OCEANSIDE,CA,92056,A920564666C2BBFE014C50AAB3043D6871125587375C1DE8D5607C
PLAZA INFINITI,11830 OLIVE BLVD,CREVE COEUR,MO,63141,A63141671802F12F5F4339CB342CEACA0C544A924627D316510000
